_input,_num,_widgetName,_source,_resultNumber,_pageUrl,name,addr1,addr2,city,state,zipcode,hours,phone,type
webpage/url:http://content.foodbankcenc.org/about/zipcounty.asp|,1,nc-food-pantry-full,nc-food-pantry-full,1,http://content.foodbankcenc.org/about/zipcounty.asp,A Sound of Abundance Ministries,101 East Granville Street,,Dunn,NC,28334,Hours: 12 and 3rd Saturdays 12p-2p 4th Sundays 12p-2p,Phone: 910.476.1306,Type: SOUP KITCH
webpage/url:http://content.foodbankcenc.org/about/zipcounty.asp|,2,nc-food-pantry-full,nc-food-pantry-full,2,http://content.foodbankcenc.org/about/zipcounty.asp,A Touch From Above Faith Center,654 Main St,,Wilson Mills,NC,27593,Hours: Every Monday 6pm-7pm Tuesday is emergency calls,Phone: 919-938-0073 ext.2,Type: FOODPANTRY
webpage/url:http://content.foodbankcenc.org/about/zipcounty.asp|,3,nc-food-pantry-full,nc-food-pantry-full,3,http://content.foodbankcenc.org/about/zipcounty.asp,Abundant Grace Church,221 Durham Lake Road,,Dudley,NC,28333,Hours: 1st Saturday of each month 11am-1pm,Phone: 919-920-8001,Type: FOODPANTRY
webpage/url:http://content.foodbankcenc.org/about/zipcounty.asp|,4,nc-food-pantry-full,nc-food-pantry-full,4,http://content.foodbankcenc.org/about/zipcounty.asp,Abundant Life Christian Center,506 Bell Fork Road,,Jacksonville,NC,28540,Hours: 1st and 3rd Th 2p-4p,Phone: 910-526-1016,Type: FOODPANTRY
webpage/url:http://content.foodbankcenc.org/about/zipcounty.asp|,5,nc-food-pantry-full,nc-food-pantry-full,5,http://content.foodbankcenc.org/about/zipcounty.asp,Abundant Life Church,2965 Forest Hills Road,,Wilson,NC,27893,Hours: Monday through Thursday 10:30a-2p on call Fri-Sun,Phone: 252-293-0615,Type: FOODPANTRY
webpage/url:http://content.foodbankcenc.org/about/zipcounty.asp|,6,nc-food-pantry-full,nc-food-pantry-full,6,http://content.foodbankcenc.org/about/zipcounty.asp,Abundant Life Ministries,500 Peachtree Street,,Rocky Mount,NC,27801,Hours: 3rd Saturday 9-11am. Tues and Thur Emergency 11am-1:30pm,Phone: (252) 557-1333 ext. 4,Type: FOODPANTRY
webpage/url:http://content.foodbankcenc.org/about/zipcounty.asp|,7,nc-food-pantry-full,nc-food-pantry-full,7,http://content.foodbankcenc.org/about/zipcounty.asp,Abundant Life Miracle Center,1303 Beaufort Street,,New Bern,NC,28560,Hours: as needed and emergencies,Phone: 252-633-3376,Type: FOODPANTRY
webpage/url:http://content.foodbankcenc.org/about/zipcounty.asp|,8,nc-food-pantry-full,nc-food-pantry-full,8,http://content.foodbankcenc.org/about/zipcounty.asp,ACTS/Henderson,305 S. Chestnut St.,,Henderson,NC,27536,Hours: Mon-Fri 8:30-11:30am for food assistance; must have referall from DSS or affiliate,Phone: 252-492-8231,Type: FOODPANTRY
webpage/url:http://content.foodbankcenc.org/about/zipcounty.asp|,9,nc-food-pantry-full,nc-food-pantry-full,9,http://content.foodbankcenc.org/about/zipcounty.asp,Agape Buchanan Featherstone Memorial Tabernacle,1505 Woodlawn St,,Laurinburg,NC,28352,Hours: 4th Friday and 4th Saturday morning 9 to 12,Phone: 301-982-0945,Type: FOODPANTRY
webpage/url:http://content.foodbankcenc.org/about/zipcounty.asp|,10,nc-food-pantry-full,nc-food-pantry-full,10,http://content.foodbankcenc.org/about/zipcounty.asp,Agape Community Cultural ActivitySpirit & Truth Worship,1002 Evans Street,,Greenville,NC,27834,Hours: 1st and 3rd Thursday from 6:30p-8p,Phone: 252-367-9081,Type: FOODPANTRY
webpage/url:http://content.foodbankcenc.org/about/zipcounty.asp|,11,nc-food-pantry-full,nc-food-pantry-full,11,http://content.foodbankcenc.org/about/zipcounty.asp,All Nations Deliverance Church,101 East Pinewood Street,,Roseboro,NC,28382,Hours: 2nd and 4th Saturdays of the month,Phone: 919-394-6513,Type: FOODPANTRY
webpage/url:http://content.foodbankcenc.org/about/zipcounty.asp|,12,nc-food-pantry-full,nc-food-pantry-full,12,http://content.foodbankcenc.org/about/zipcounty.asp,Alliance of AIDS Services Carolina/Wake,1812 Tillery Place Ste 105,,Raleigh,NC,27604,Hours: Thursday 12:30 p.m.- 4:30 p.m.,Phone: 919-856-5365,Type: FOODPANTRY
webpage/url:http://content.foodbankcenc.org/about/zipcounty.asp|,13,nc-food-pantry-full,nc-food-pantry-full,13,http://content.foodbankcenc.org/about/zipcounty.asp,Alpha and Omega Church,410 E. Washington St.,,Kinston,NC,28501,Hours: 3rd and 4th Mon 9a.m.-5p.m.,Phone: 252-523-0355,Type: FOODPANTRY
webpage/url:http://content.foodbankcenc.org/about/zipcounty.asp|,14,nc-food-pantry-full,nc-food-pantry-full,14,http://content.foodbankcenc.org/about/zipcounty.asp,Alston Chapel United Holy Ch,2012 Alston Chapel Road,,Pittsboro,NC,27312,Hours: MWF 10:30-11am; 3rd Wednesday @ 1pm (TEFAP); Saturdays at 10:30am for produce & bakery,Phone: 919-542-4111 church,Type: FOODPANTRY
webpage/url:http://content.foodbankcenc.org/about/zipcounty.asp|,15,nc-food-pantry-full,nc-food-pantry-full,15,http://content.foodbankcenc.org/about/zipcounty.asp,Ambassadors for Christ Called,4513 Franklin Ave,,Wilmington,NC,28403,Hours: 1st & 3rd Thursday 5-7pm,Phone: 910-228-8667,Type: FOODPANTRY
webpage/url:http://content.foodbankcenc.org/about/zipcounty.asp|,16,nc-food-pantry-full,nc-food-pantry-full,16,http://content.foodbankcenc.org/about/zipcounty.asp,An Open Door CDC,118 Booker St,,Pikeville,NC,27863,Hours: 2nd and 4th Wednesday 12-1pm,Phone: 919-242-5777 (Church),Type: FOODPANTRY
webpage/url:http://content.foodbankcenc.org/about/zipcounty.asp|,17,nc-food-pantry-full,nc-food-pantry-full,17,http://content.foodbankcenc.org/about/zipcounty.asp,Angier Area Food Pantry,61 W Williams St,,Angier,NC,27501,Hours: Tues & Thurs 10:30 a.m. to 12 p.m. not open on 5th Tuesday,Phone: 919.639.4683,Type: FOODPANTRY
webpage/url:http://content.foodbankcenc.org/about/zipcounty.asp|,18,nc-food-pantry-full,nc-food-pantry-full,18,http://content.foodbankcenc.org/about/zipcounty.asp,Antioch United Holy Church,2659 Railroad Street,,Bell Arthur,NC,27811,Hours: 2nd & 4th Sat/8a-10a,Phone: 252-830-4053,Type: FOODPANTRY
webpage/url:http://content.foodbankcenc.org/about/zipcounty.asp|,19,nc-food-pantry-full,nc-food-pantry-full,19,http://content.foodbankcenc.org/about/zipcounty.asp,Apostolic Deliverance Church of Christ,422 E. North Street,,Kinston,NC,28501,Hours: Every 1st Sat from 9a-11a,Phone: 252-527-5395,Type: FOODPANTRY
webpage/url:http://content.foodbankcenc.org/about/zipcounty.asp|,20,nc-food-pantry-full,nc-food-pantry-full,20,http://content.foodbankcenc.org/about/zipcounty.asp,Apostolic Faith Church,300 Cedar Street,,Rocky Mount,NC,27803,Hours: Every Monday and Tuesday 10:30am-11:30am and Every 3rd Thursday at 10:30am,Phone: 252-977-6200,Type: FOODPANTRY
webpage/url:http://content.foodbankcenc.org/about/zipcounty.asp|,21,nc-food-pantry-full,nc-food-pantry-full,21,http://content.foodbankcenc.org/about/zipcounty.asp,Area Congregations in Ministry,PO Box 398,,Oxford,NC,27565,Hours: MWF/9am-12pm,Phone: 919-690-0961 (office),Type: FOODPANTRY
webpage/url:http://content.foodbankcenc.org/about/zipcounty.asp|,22,nc-food-pantry-full,nc-food-pantry-full,22,http://content.foodbankcenc.org/about/zipcounty.asp,Area Day Reporting Program for Youth/Feed My Sheep Ministries,Jasper Hayes Omega Center,800 Cedar Street,New Bern,NC,28560,Hours: Monday through Friday from 9a-12p,Phone: 252-670-4054,Type: MOBILE FP
webpage/url:http://content.foodbankcenc.org/about/zipcounty.asp|,23,nc-food-pantry-full,nc-food-pantry-full,23,http://content.foodbankcenc.org/about/zipcounty.asp,Ark of Safety Outreach-Ministry Inc.,612 Gary Street,,Durham,NC,27703,Hours: NULL,Phone: 919-620-7774 home/church,Type: FOODPANTRY
webpage/url:http://content.foodbankcenc.org/about/zipcounty.asp|,24,nc-food-pantry-full,nc-food-pantry-full,24,http://content.foodbankcenc.org/about/zipcounty.asp,Armor of God Christian Church,4051 S. Memorial Drive Suite,,Winterville,NC,28590,Hours: Monday 9a-8p Wed 7p-8p Fri 9a-6p Sun 11a-2p,Phone: 252-258-0122,Type: FOODPANTRY
webpage/url:http://content.foodbankcenc.org/about/zipcounty.asp|,25,nc-food-pantry-full,nc-food-pantry-full,25,http://content.foodbankcenc.org/about/zipcounty.asp,Ar-Razzaq Islamic Center,1009 W. Chapel Hill Street,,Durham,NC,27701,Hours: Food Pantry Fridays 10-12:30pm (July 19th) Soup Kitchen Saturdays 12-3,Phone: 919-264-0909,Type: SOUP KITCH
webpage/url:http://content.foodbankcenc.org/about/zipcounty.asp|,26,nc-food-pantry-full,nc-food-pantry-full,26,http://content.foodbankcenc.org/about/zipcounty.asp,Avery Chapel FWB Church,1110 Loop Road phys.,,Raeford,NC,28376,Hours: Mon-Fri emergency appts Thursday and Friday distribution 12pm,Phone: 910-281-5907 Geneva,Type: FOODPANTRY
webpage/url:http://content.foodbankcenc.org/about/zipcounty.asp|,27,nc-food-pantry-full,nc-food-pantry-full,27,http://content.foodbankcenc.org/about/zipcounty.asp,Ayden Christian Care Center,4106 B. West Avenue,,Ayden,NC,28513,Hours: Open 4 Fridays/month 9:30-11:30 close 5th Friday of each month and closed July and August,Phone: 252-746-2995 fri mornings only,Type: FOODPANTRY
webpage/url:http://content.foodbankcenc.org/about/zipcounty.asp|,28,nc-food-pantry-full,nc-food-pantry-full,28,http://content.foodbankcenc.org/about/zipcounty.asp,Bailey United Methodist,6117 Deans Street,,Bailey,NC,27807,Hours: Tues-Thur 9am-2pm Friday 9am-12pm,Phone: 910-964-3414,Type: FOODPANTRY
webpage/url:http://content.foodbankcenc.org/about/zipcounty.asp|,29,nc-food-pantry-full,nc-food-pantry-full,29,http://content.foodbankcenc.org/about/zipcounty.asp,Baker Family Ministry,200 West Battleboro Avenue,,Battleboro,NC,27890,Hours: Every Saturday 9am-11am,Phone: 252-908-7277,Type: FOODPANTRY
webpage/url:http://content.foodbankcenc.org/about/zipcounty.asp|,30,nc-food-pantry-full,nc-food-pantry-full,30,http://content.foodbankcenc.org/about/zipcounty.asp,Beaver Creek Church,2280 Nickelson Road,,Cameron,NC,28326,Hours: Every Wednesday 11am-1pm,Phone: 910-245-4226,Type: FOODPANTRY
webpage/url:http://content.foodbankcenc.org/about/zipcounty.asp|,31,nc-food-pantry-full,nc-food-pantry-full,31,http://content.foodbankcenc.org/about/zipcounty.asp,Believers Home Fellowship,212 Faith Circle,,Tabor City,NC,28463,Hours: TEFAP 3rd Sat 8-11. All others appt only.,Phone: 910-653-7299,Type: FOODPANTRY
webpage/url:http://content.foodbankcenc.org/about/zipcounty.asp|,32,nc-food-pantry-full,nc-food-pantry-full,32,http://content.foodbankcenc.org/about/zipcounty.asp,Believers United for Progress,1306 Fayetteville St,,Durham,NC,27707,Hours: 2nd and 4th Thursdays from 5-7pm,Phone: (919) 687-7070,Type: FOODPANTRY
webpage/url:http://content.foodbankcenc.org/about/zipcounty.asp|,33,nc-food-pantry-full,nc-food-pantry-full,33,http://content.foodbankcenc.org/about/zipcounty.asp,Belton Creek Baptist Church,4153 Hwy 96 South,,Oxford,NC,27565,Hours: Saturday before 4th Sunday; sometimes they distribute more,Phone: 919-693-2821 (home),Type: FOODPANTRY
webpage/url:http://content.foodbankcenc.org/about/zipcounty.asp|,34,nc-food-pantry-full,nc-food-pantry-full,34,http://content.foodbankcenc.org/about/zipcounty.asp,Benson Area Ministerial,1204 North Johnson St,,Benson,NC,27504,Hours: 2nd and 4th Wednesday 9:00am -12:00pm,Phone: 919.820.1591,Type: FOODPANTRY
webpage/url:http://content.foodbankcenc.org/about/zipcounty.asp|,35,nc-food-pantry-full,nc-food-pantry-full,35,http://content.foodbankcenc.org/about/zipcounty.asp,Bethany Presbyterian Church,2237 Castle Hayne Road,,Wilmington,NC,28401,Hours: Wednesdays 11:30-2pm,Phone: 910-619-9196,Type: FOODPANTRY
webpage/url:http://content.foodbankcenc.org/about/zipcounty.asp|,36,nc-food-pantry-full,nc-food-pantry-full,36,http://content.foodbankcenc.org/about/zipcounty.asp,Bethesda Presbyterian Church,1002 N. Sandhills Boulevard,,Aberdeen,NC,28315,Hours: Every Wednesday - 9:00 a.m. - 11:00am,Phone: 910-944-1319 church,Type: FOODPANTRY
webpage/url:http://content.foodbankcenc.org/about/zipcounty.asp|,37,nc-food-pantry-full,nc-food-pantry-full,37,http://content.foodbankcenc.org/about/zipcounty.asp,Bethlehem Baptist Church,7215 Six Forks Rd.,,Raleigh,NC,27615,Hours: 4th Thurs 7:00 pm - 8:00pm & By appointment,Phone: 919-608-3115,Type: FOODPANTRY
webpage/url:http://content.foodbankcenc.org/about/zipcounty.asp|,38,nc-food-pantry-full,nc-food-pantry-full,38,http://content.foodbankcenc.org/about/zipcounty.asp,Bethlehem Temple Apostolic,600 N. Roxboro Street,,Durham,NC,27701,Hours: Friday 10am-12pm and by appointment,Phone: 919-683-1291 church,Type: FOODPANTRY
webpage/url:http://content.foodbankcenc.org/about/zipcounty.asp|,39,nc-food-pantry-full,nc-food-pantry-full,39,http://content.foodbankcenc.org/about/zipcounty.asp,Bethlehem United Holy Church,1311 Milton Rd,,Durham,NC,27712,Hours: Sat 9:30am - Noon,Phone: 919-815-2999,Type: FOODPANTRY
webpage/url:http://content.foodbankcenc.org/about/zipcounty.asp|,40,nc-food-pantry-full,nc-food-pantry-full,40,http://content.foodbankcenc.org/about/zipcounty.asp,Better Days Ministries,2245 Garner Rd.,,Raleigh,NC,27601,Hours: TWTH 10am-2pm Fri 9am-5pm (Referral Required),Phone: 919-232-3642,Type: FOODPANTRY
webpage/url:http://content.foodbankcenc.org/about/zipcounty.asp|,41,nc-food-pantry-full,nc-food-pantry-full,41,http://content.foodbankcenc.org/about/zipcounty.asp,Big Ruin Creek Baptist,16 Big Ruin Creek Lane,,Henderson,NC,27536,Hours: Last three Thursdays of every month 12-2pm,Phone: 252-430-0565 home,Type: FOODPANTRY
webpage/url:http://content.foodbankcenc.org/about/zipcounty.asp|,42,nc-food-pantry-full,nc-food-pantry-full,42,http://content.foodbankcenc.org/about/zipcounty.asp,Birchwood Learning Center,416 Walton Street,,Durham,NC,27703,Hours: Every Wednesday (6-7:30pm) and Every Thursday (6-7:30pm) By Appointment,Phone: 919-598-9885,Type: FOODPANTRY
webpage/url:http://content.foodbankcenc.org/about/zipcounty.asp|,43,nc-food-pantry-full,nc-food-pantry-full,43,http://content.foodbankcenc.org/about/zipcounty.asp,Blood of the Lamb Church,1100 The First Church Rd,,Goldsboro,NC,27534,Hours: 4th Sunday 1pm-4pm,Phone: 919-736-7536,Type: FOODPANTRY
webpage/url:http://content.foodbankcenc.org/about/zipcounty.asp|,44,nc-food-pantry-full,nc-food-pantry-full,44,http://content.foodbankcenc.org/about/zipcounty.asp,Bread Basket/Sanford Soup Kitchen,140 East Chisholm Street,,Sanford,NC,27331,Hours: M-F/11a-12:30p,Phone: 919-774-3118,Type: SOUP KITCH
webpage/url:http://content.foodbankcenc.org/about/zipcounty.asp|,45,nc-food-pantry-full,nc-food-pantry-full,45,http://content.foodbankcenc.org/about/zipcounty.asp,Bread of Life Ministries of Sanford,219 Maple Avenue,,Sanford,NC,27330,Hours: Tues-Thurs-Sat: 5pm -7 pm & 11am - 2pm,Phone: 919.427.8889,Type: FOODPANTRY
webpage/url:http://content.foodbankcenc.org/about/zipcounty.asp|,46,nc-food-pantry-full,nc-food-pantry-full,46,http://content.foodbankcenc.org/about/zipcounty.asp,Bread of Life Outreach-FWA,1008 Hammell Dr.,,Raleigh,NC,27603,Hours: Saturdays 10:00 am - 6pm,Phone: 919-601-5305,Type: FOODPANTRY
webpage/url:http://content.foodbankcenc.org/about/zipcounty.asp|,47,nc-food-pantry-full,nc-food-pantry-full,47,http://content.foodbankcenc.org/about/zipcounty.asp,Bread of Life/Grifton,406 Cannon Blvd.,,Grifton,NC,28530,Hours: 4th Thursday at 9a to 1p and emergencies,Phone: 252-524-4041,Type: MOBILE FP
webpage/url:http://content.foodbankcenc.org/about/zipcounty.asp|,48,nc-food-pantry-full,nc-food-pantry-full,48,http://content.foodbankcenc.org/about/zipcounty.asp,Break Through Church,1100-118 Perimeter Park Dr.,,Morrisville,NC,27560,Hours: TWTHF 9:00 am - 5:00 pm Sat 9:00 am - 11 am & as needed,Phone: 919- 851- 6304,Type: FOODPANTRY
webpage/url:http://content.foodbankcenc.org/about/zipcounty.asp|,49,nc-food-pantry-full,nc-food-pantry-full,49,http://content.foodbankcenc.org/about/zipcounty.asp,Brooks Ave. Church Of Christ,700 Brooks Avenue,,Raleigh,NC,27607,Hours: 2nd & 4th Sat 9a-12p,Phone: 919-821-2400(ch),Type: FOODPANTRY
webpage/url:http://content.foodbankcenc.org/about/zipcounty.asp|,50,nc-food-pantry-full,nc-food-pantry-full,50,http://content.foodbankcenc.org/about/zipcounty.asp,Brookston Baptist Church,242 Baptist Church Road,,Henderson,NC,27537,Hours: 4th Saturday/month 7-9:00am and as needed,Phone: 252-492-5502 church,Type: FOODPANTRY
webpage/url:http://content.foodbankcenc.org/about/zipcounty.asp|,51,nc-food-pantry-full,nc-food-pantry-full,51,http://content.foodbankcenc.org/about/zipcounty.asp,Brunswick Family Assistance,4600-8 Main Street,Big Lots Shopping Center,Shallotte,NC,28469,Hours: MonTue Thur 9-12 12:30-4:30; Wed 1-4:30; Fri 9-12 12:30-3,Phone: 910-754-4766 ext 103,Type: FOODPANTRY
webpage/url:http://content.foodbankcenc.org/about/zipcounty.asp|,52,nc-food-pantry-full,nc-food-pantry-full,52,http://content.foodbankcenc.org/about/zipcounty.asp,Brunswick Island Baptist Church,1672 Mt. Pisgah Road,,Supply,NC,28462,Hours: Tuesday 10-12:00,Phone: 910-842-8969 church,Type: FOODPANTRY
webpage/url:http://content.foodbankcenc.org/about/zipcounty.asp|,53,nc-food-pantry-full,nc-food-pantry-full,53,http://content.foodbankcenc.org/about/zipcounty.asp,Building 323,73 Wilder Road,,Middlesex,NC,27557,Hours: Every Monday 5:00-6:30pm,Phone: 919-269-9207,Type: FOODPANTRY
webpage/url:http://content.foodbankcenc.org/about/zipcounty.asp|,54,nc-food-pantry-full,nc-food-pantry-full,54,http://content.foodbankcenc.org/about/zipcounty.asp,Burgaw PFWB,416 West Bridger Street,675 Hwy 117 S.,Burgaw,NC,28425,Hours: Mon-Sat. 10-12 at thrift store. Produce Tues & Thurs 2:00 TEFAP last wed,Phone: 910-259-5447 church,Type: FOODPANTRY
webpage/url:http://content.foodbankcenc.org/about/zipcounty.asp|,55,nc-food-pantry-full,nc-food-pantry-full,55,http://content.foodbankcenc.org/about/zipcounty.asp,Burning Bush Ministries Inc,503 Hwy 70 East C,,Garner,NC,27610,Hours: M:On call ;Tu:11am -4pm ;Th:11am - 4pm; Sat:On call,Phone: 919.231.7998,Type: FOODPANTRY
webpage/url:http://content.foodbankcenc.org/about/zipcounty.asp|,56,nc-food-pantry-full,nc-food-pantry-full,56,http://content.foodbankcenc.org/about/zipcounty.asp,By Faith Church,1708 Birchwood Drive Apt B,,Wilson,NC,27893,Hours: Every other Sat 9am-12pm,Phone: 252-205-5965,Type: FOODPANTRY
webpage/url:http://content.foodbankcenc.org/about/zipcounty.asp|,57,nc-food-pantry-full,nc-food-pantry-full,57,http://content.foodbankcenc.org/about/zipcounty.asp,CAARE Inc.,214 Broadway Street,,Durham,NC,27701,Hours: MWRF 1-3pm; by appointment only,Phone: 919-687-0790,Type: FOODPANTRY
webpage/url:http://content.foodbankcenc.org/about/zipcounty.asp|,58,nc-food-pantry-full,nc-food-pantry-full,58,http://content.foodbankcenc.org/about/zipcounty.asp,Calvary Baptist Church,119 Bunch Road,,Beaufort,NC,28516,Hours: Every M 10a-2p,Phone: 252-728-2680,Type: FOODPANTRY
webpage/url:http://content.foodbankcenc.org/about/zipcounty.asp|,59,nc-food-pantry-full,nc-food-pantry-full,59,http://content.foodbankcenc.org/about/zipcounty.asp,Calvary Baptist Church/ Durham,1204 Lynn Road,,Durham,NC,27703,Hours: 3rd Thursday of the month 6:30-7:30p.m. Clients should call at 9:30am on 3rd Thursday to sign up with church secretary,Phone: 919-596-2592 church,Type: FOODPANTRY
webpage/url:http://content.foodbankcenc.org/about/zipcounty.asp|,60,nc-food-pantry-full,nc-food-pantry-full,60,http://content.foodbankcenc.org/about/zipcounty.asp,Calvary Temple Holy Church,215 Kitchen Avenue,,Henderson,NC,27536,Hours: 3rd Tuesday after 3rd Sunday (and as needed); 5-6 pm,Phone: 252.438.7065 Church,Type: FOODPANTRY
webpage/url:http://content.foodbankcenc.org/about/zipcounty.asp|,61,nc-food-pantry-full,nc-food-pantry-full,61,http://content.foodbankcenc.org/about/zipcounty.asp,Capital Pentacostal Church,1308 Hwy. 70,,Garner,NC,27529,Hours: T TH 9-12,Phone: 919-772-5919,Type: FOODPANTRY
webpage/url:http://content.foodbankcenc.org/about/zipcounty.asp|,62,nc-food-pantry-full,nc-food-pantry-full,62,http://content.foodbankcenc.org/about/zipcounty.asp,Care and Share Inc.,110 Industrial Drive,,Louisburg,NC,27549,Hours: Every Wednsday and Thursday 9am-12pm,Phone: 919-496-5721,Type: FOODPANTRY
webpage/url:http://content.foodbankcenc.org/about/zipcounty.asp|,63,nc-food-pantry-full,nc-food-pantry-full,63,http://content.foodbankcenc.org/about/zipcounty.asp,Carthage United Methodist Ch.,108 Bruce Street,,Carthage,NC,28327,Hours: 1st and 3rd Sat. 8-9:30am,Phone: 910.947-5908,Type: FOODPANTRY
webpage/url:http://content.foodbankcenc.org/about/zipcounty.asp|,64,nc-food-pantry-full,nc-food-pantry-full,64,http://content.foodbankcenc.org/about/zipcounty.asp,Cary Church of God,107 Quade Drive,,Cary,NC,27511,Hours: Wed 9-4 by appt. & 3rd Saturday @ Revelation FW Baptist Ch.,Phone: 919-467-0537 ext 124,Type: SOUP KITCH
webpage/url:http://content.foodbankcenc.org/about/zipcounty.asp|,65,nc-food-pantry-full,nc-food-pantry-full,65,http://content.foodbankcenc.org/about/zipcounty.asp,Cathedral of Jesus Church of God,717 S Arendell Ave.,,Zebulon,NC,27597,Hours: 2nd & 4th Saturdays 8:00am -10:00am,Phone: 919-404-0774,Type: FOODPANTRY
webpage/url:http://content.foodbankcenc.org/about/zipcounty.asp|,66,nc-food-pantry-full,nc-food-pantry-full,66,http://content.foodbankcenc.org/about/zipcounty.asp,Catholic Parish Outreach,2013 North Raleigh Blvd.,,Raleigh,NC,27604,Hours: Mon-Sat/10a-1p,Phone: 919-873-0245,Type: FOODPANTRY
webpage/url:http://content.foodbankcenc.org/about/zipcounty.asp|,67,nc-food-pantry-full,nc-food-pantry-full,67,http://content.foodbankcenc.org/about/zipcounty.asp,Cedar Grove Mt. Zion AME Church,5124 Highway 86 North,,Hillsborough,NC,27278,Hours: 3rd Friday/month 12-2pm and as needed,Phone: 919-732-5450 church,Type: FOODPANTRY
webpage/url:http://content.foodbankcenc.org/about/zipcounty.asp|,68,nc-food-pantry-full,nc-food-pantry-full,68,http://content.foodbankcenc.org/about/zipcounty.asp,Chatham Out-Reach Alliance (Cora),40 Camp Dr.,,Pittsboro,NC,27312,Hours: M-F 10am-2pm; clients must have referral from a social service agency,Phone: 919-542-5020 pantry,Type: FOODPANTRY
webpage/url:http://content.foodbankcenc.org/about/zipcounty.asp|,69,nc-food-pantry-full,nc-food-pantry-full,69,http://content.foodbankcenc.org/about/zipcounty.asp,Cherry Point United Methodist Church,103 Methodist Drive,,Havelock,NC,28532,Hours: Every W & F 11a-1p,Phone: 252-670-0150,Type: FOODPANTRY
webpage/url:http://content.foodbankcenc.org/about/zipcounty.asp|,70,nc-food-pantry-full,nc-food-pantry-full,70,http://content.foodbankcenc.org/about/zipcounty.asp,Christ Community United Methodist Church,1082 Amelia Chruch Rd,,Clayton,NC,,Hours: Every 2nd Saturday 10am-12pm. Food Lion product Mon-Fr,Phone: 919-815-3794,Type: FOODPANTRY
webpage/url:http://content.foodbankcenc.org/about/zipcounty.asp|,71,nc-food-pantry-full,nc-food-pantry-full,71,http://content.foodbankcenc.org/about/zipcounty.asp,Christ Deliverance Tabernacle Ministries,413 E. Pender St.,,Wilson,NC,27893,Hours: 4th Sat 8a-10a (Sat before the 4th Sunday),Phone: 252-292-1569,Type: FOODPANTRY
webpage/url:http://content.foodbankcenc.org/about/zipcounty.asp|,72,nc-food-pantry-full,nc-food-pantry-full,72,http://content.foodbankcenc.org/about/zipcounty.asp,Christ First Christian - We Care 4 You Foundation Inc.,8910 HWY 117 N.,,Watha,NC,28478,Hours: 2nd and 4th Thur 9-12,Phone: 704-651-7475,Type: FOODPANTRY
webpage/url:http://content.foodbankcenc.org/about/zipcounty.asp|,73,nc-food-pantry-full,nc-food-pantry-full,73,http://content.foodbankcenc.org/about/zipcounty.asp,Christian Assembly Emergency Food Pantry,5516 N. Roxboro Road,,Durham,NC,27713,Hours: 2nd 4th Thursdays 4pm to 6pm,Phone: 919-471-0220,Type: FOODPANTRY
webpage/url:http://content.foodbankcenc.org/about/zipcounty.asp|,74,nc-food-pantry-full,nc-food-pantry-full,74,http://content.foodbankcenc.org/about/zipcounty.asp,Christian Disciples Deliverance Church,917 Freedom Way,,Hubert,NC,28539,Hours: NULL,Phone: 910-265-1417,Type: FOODPANTRY
webpage/url:http://content.foodbankcenc.org/about/zipcounty.asp|,75,nc-food-pantry-full,nc-food-pantry-full,75,http://content.foodbankcenc.org/about/zipcounty.asp,Christian Faith Center Of Creedmoor,101 Peachtree Street,,Creedmoor,NC,27522,Hours: Thursdays 12-2pm; 2nd and 4th Mondays 12-2pm,Phone: 919-528-1581 ext. 225,Type: FOODPANTRY
webpage/url:http://content.foodbankcenc.org/about/zipcounty.asp|,76,nc-food-pantry-full,nc-food-pantry-full,76,http://content.foodbankcenc.org/about/zipcounty.asp,Christian Faith Ministries,3110 Cameron Dr.,,Sanford,NC,27330,Hours: emergencies call Sun and Mon for appointment,Phone: 919-775-1311,Type: SHELTER
webpage/url:http://content.foodbankcenc.org/about/zipcounty.asp|,77,nc-food-pantry-full,nc-food-pantry-full,77,http://content.foodbankcenc.org/about/zipcounty.asp,Christian Help Center,122 Depot St.,,Roxboro,NC,27573,Hours: Monday-Friday 9am-1pm; on call 24 hours,Phone: 336-599-6070,Type: FOODPANTRY
webpage/url:http://content.foodbankcenc.org/about/zipcounty.asp|,78,nc-food-pantry-full,nc-food-pantry-full,78,http://content.foodbankcenc.org/about/zipcounty.asp,Christian United Outreach Center,2885 Lee Avenue,,Sanford,NC,27330,Hours: M 4:00p-6:00p W&F 12:00p-2p,Phone: 919-774-8485,Type: FOODPANTRY
webpage/url:http://content.foodbankcenc.org/about/zipcounty.asp|,79,nc-food-pantry-full,nc-food-pantry-full,79,http://content.foodbankcenc.org/about/zipcounty.asp,Church At The Park,2228 Page Road Suite 108,,Durham,NC,27703,Hours: 1st Saturday 8-12pm,Phone: 919-539-8492,Type: FOODPANTRY
webpage/url:http://content.foodbankcenc.org/about/zipcounty.asp|,80,nc-food-pantry-full,nc-food-pantry-full,80,http://content.foodbankcenc.org/about/zipcounty.asp,Church Community Services,108 Gill St,,Laurinburg,NC,28352,Hours: Mon-Fri 8:30am-12:30pm,Phone: 910-276-8330,Type: FOODPANTRY
webpage/url:http://content.foodbankcenc.org/about/zipcounty.asp|,81,nc-food-pantry-full,nc-food-pantry-full,81,http://content.foodbankcenc.org/about/zipcounty.asp,Church of God,4004 Main Street,,Tarboro,NC,27886,Hours: Last Sat of month from 9a-10p,Phone: 252-908-1485,Type: FOODPANTRY
webpage/url:http://content.foodbankcenc.org/about/zipcounty.asp|,82,nc-food-pantry-full,nc-food-pantry-full,82,http://content.foodbankcenc.org/about/zipcounty.asp,Church of God of Prophecy,2317 Hwy 42,,Willow Springs,NC,27592,Hours: 2nd & 4th Saturday 9:00 am - 12:00 pm,Phone: 919-655-5151,Type: FOODPANTRY
webpage/url:http://content.foodbankcenc.org/about/zipcounty.asp|,83,nc-food-pantry-full,nc-food-pantry-full,83,http://content.foodbankcenc.org/about/zipcounty.asp,Church of God of Prophecy -- Rockingham,139 Flowers St.,,Rockingham,NC,28379,Hours: Monday-Friday 9am-5pm,Phone: 910-997-4906,Type: FOODPANTRY
webpage/url:http://content.foodbankcenc.org/about/zipcounty.asp|,84,nc-food-pantry-full,nc-food-pantry-full,84,http://content.foodbankcenc.org/about/zipcounty.asp,Church of God of Prophecy- Durham,900 Simmons Street,,Durham,NC,27701,Hours: First Wednesday 9a-11am and Every 3rd Sat: 7a-9a and as needed for emergency needs.,Phone: 919-688-7838 church,Type: FOODPANTRY
webpage/url:http://content.foodbankcenc.org/about/zipcounty.asp|,85,nc-food-pantry-full,nc-food-pantry-full,85,http://content.foodbankcenc.org/about/zipcounty.asp,Church Of God Of Prophecy Raleigh,5005 Western Blvd.,,Raleigh,NC,27606,Hours: Thursday 1-4pm,Phone: 919-851-8507,Type: FOODPANTRY
webpage/url:http://content.foodbankcenc.org/about/zipcounty.asp|,86,nc-food-pantry-full,nc-food-pantry-full,86,http://content.foodbankcenc.org/about/zipcounty.asp,Church of God-Sermon del Monte,1317 Kirkland Rd. Suite 105,,Raleigh,NC,27603,Hours: Tuesday Friday 9am - 12pm,Phone: 919-985-6030,Type: FOODPANTRY
webpage/url:http://content.foodbankcenc.org/about/zipcounty.asp|,87,nc-food-pantry-full,nc-food-pantry-full,87,http://content.foodbankcenc.org/about/zipcounty.asp,Church on the Rise Peacemakers Family Center,1725 Davis Street,,Rocky Mount,NC,27804,Hours: 1st and 2nd Sat 9-5pm. 1st and 3rd Sat home delivery,Phone: 252-903-8856,Type: FOODPANTRY
webpage/url:http://content.foodbankcenc.org/about/zipcounty.asp|,88,nc-food-pantry-full,nc-food-pantry-full,88,http://content.foodbankcenc.org/about/zipcounty.asp,Churches Outreach Network,700 Albemarle Avenue,,Greenville,NC,27834,Hours: Monday through Friday from 9a-8p,Phone: 877-218-4247,Type: FOODPANTRY
webpage/url:http://content.foodbankcenc.org/about/zipcounty.asp|,89,nc-food-pantry-full,nc-food-pantry-full,89,http://content.foodbankcenc.org/about/zipcounty.asp,Clayton Area Ministries,704 E. Main Street,,Clayton,NC,27520,Hours: Mon-Fri 1pm-3pm,Phone: 919-553-5654,Type: FOODPANTRY
webpage/url:http://content.foodbankcenc.org/about/zipcounty.asp|,90,nc-food-pantry-full,nc-food-pantry-full,90,http://content.foodbankcenc.org/about/zipcounty.asp,Coastal Horizons,615 Shipyard Blvd.,,Wilmington,NC,28412,Hours: 24/7,Phone: 910-392-6936,Type: SHELTER
webpage/url:http://content.foodbankcenc.org/about/zipcounty.asp|,91,nc-food-pantry-full,nc-food-pantry-full,91,http://content.foodbankcenc.org/about/zipcounty.asp,Coastal Womens Shelter,Confidential,,New Bern,NC,28561,Hours: 24/7,Phone: 252-638-4509,Type: SHELTER
webpage/url:http://content.foodbankcenc.org/about/zipcounty.asp|,92,nc-food-pantry-full,nc-food-pantry-full,92,http://content.foodbankcenc.org/about/zipcounty.asp,Coats Baptist Church,554 North McKinley Street,,Coats,NC,27521,Hours: Wednsday's 6pm-8pm,Phone: 910-984-4864,Type: FOODPANTRY
webpage/url:http://content.foodbankcenc.org/about/zipcounty.asp|,93,nc-food-pantry-full,nc-food-pantry-full,93,http://content.foodbankcenc.org/about/zipcounty.asp,Coats COGOP - Grass Roots Outreach & Worship,7819 NC Hwy 27,,Coats,NC,27521,Hours: 2nd Saturday 9:00 am - 11:00 am and by emergency,Phone: 919-894-1929,Type: FOODPANTRY
webpage/url:http://content.foodbankcenc.org/about/zipcounty.asp|,94,nc-food-pantry-full,nc-food-pantry-full,94,http://content.foodbankcenc.org/about/zipcounty.asp,Cokesbury United Methodist,2440 S Cokesbury Road,,Henderson,NC,27537,Hours: 1st and 3rd Wednesday 5pm,Phone: 252-492-7100 (Office),Type: FOODPANTRY
webpage/url:http://content.foodbankcenc.org/about/zipcounty.asp|,95,nc-food-pantry-full,nc-food-pantry-full,95,http://content.foodbankcenc.org/about/zipcounty.asp,Community Baptist Church Hands of Love Food Pantry,9161 Tartan Road,,NULL,NC,28352,Hours: NULL,Phone: 910-276-8307,Type: FOODPANTRY
webpage/url:http://content.foodbankcenc.org/about/zipcounty.asp|,96,nc-food-pantry-full,nc-food-pantry-full,96,http://content.foodbankcenc.org/about/zipcounty.asp,Community Helpers Service Center Inc.,111-B N. First St.,,Knightdale,NC,27545,Hours: Wed-Thur 8am-12pm,Phone: 919-266-4050,Type: FOODPANTRY
webpage/url:http://content.foodbankcenc.org/about/zipcounty.asp|,97,nc-food-pantry-full,nc-food-pantry-full,97,http://content.foodbankcenc.org/about/zipcounty.asp,Community Mentor Program,297 Mizpah Road,Ashley Chapel Center,Rockingham,NC,28345,Hours: 3rd Friday and 3rd Saturday 12-2pm,Phone: 910-582-7016,Type: FOODPANTRY
webpage/url:http://content.foodbankcenc.org/about/zipcounty.asp|,98,nc-food-pantry-full,nc-food-pantry-full,98,http://content.foodbankcenc.org/about/zipcounty.asp,Community of Hope Ministries,601 St. Mary's Street,,Garner,NC,27529,Hours: Tuesday-Thurs 11:00 - 12:00 pm 3rd Thursday 6:00,Phone: 919-779-6679 x230,Type: FOODPANTRY
webpage/url:http://content.foodbankcenc.org/about/zipcounty.asp|,99,nc-food-pantry-full,nc-food-pantry-full,99,http://content.foodbankcenc.org/about/zipcounty.asp,Community Soup Kitchen of Wilson County Inc.,202 N. Goldsboro Street,,Wilson,NC,27893,Hours: Mon through Fri 10:30-11:30 and Sunday from 9a-9:30a breakfast,Phone: 252-243-3584,Type: SOUP KITCH
webpage/url:http://content.foodbankcenc.org/about/zipcounty.asp|,100,nc-food-pantry-full,nc-food-pantry-full,100,http://content.foodbankcenc.org/about/zipcounty.asp,Comunidad Christiana Hosanna,204 Shelden Dr.,,Raleigh,NC,27610,Hours: Friday 9am-1pm,Phone: 919-834-4122,Type: FOODPANTRY
webpage/url:http://content.foodbankcenc.org/about/zipcounty.asp|,101,nc-food-pantry-full,nc-food-pantry-full,101,http://content.foodbankcenc.org/about/zipcounty.asp,Corinth United Church of Christ,7900 Zebulon Rd,Hwy 96,Youngsville,NC,27596,Hours: 2nd & 4th Friday 10:00 am -1:00 pm,Phone: 919-556-1810,Type: FOODPANTRY
webpage/url:http://content.foodbankcenc.org/about/zipcounty.asp|,102,nc-food-pantry-full,nc-food-pantry-full,102,http://content.foodbankcenc.org/about/zipcounty.asp,Cornerstone Assembly of God Inc.,2304 US Hwy. 70 East,,New Bern,NC,28560,Hours: 2nd & 4th W 1p-4p; 2nd & 4th Th 1p-4p,Phone: 252-638-1052,Type: FOODPANTRY
webpage/url:http://content.foodbankcenc.org/about/zipcounty.asp|,103,nc-food-pantry-full,nc-food-pantry-full,103,http://content.foodbankcenc.org/about/zipcounty.asp,Cotton Memorial Presb. Church,511 N. Chestnut Street,,Henderson,NC,27536,Hours: 2nd and 4th Saturdays 9am-10am,Phone: 252-492-3478 church,Type: FOODPANTRY
webpage/url:http://content.foodbankcenc.org/about/zipcounty.asp|,104,nc-food-pantry-full,nc-food-pantry-full,104,http://content.foodbankcenc.org/about/zipcounty.asp,Countywide CDC,1183 Old Mill Road,,Navassa,NC,28451,Hours: 1st 3rd Wed of each month 10-12,Phone: 910-383-1724,Type: FOODPANTRY
webpage/url:http://content.foodbankcenc.org/about/zipcounty.asp|,105,nc-food-pantry-full,nc-food-pantry-full,105,http://content.foodbankcenc.org/about/zipcounty.asp,Crabtree Valley Baptist Church,4408 Lead Mine Rd.,,Raleigh,NC,27622,Hours: Monday & Wednesday 9am - 12pm,Phone: 919-781-5345,Type: FOODPANTRY
webpage/url:http://content.foodbankcenc.org/about/zipcounty.asp|,106,nc-food-pantry-full,nc-food-pantry-full,106,http://content.foodbankcenc.org/about/zipcounty.asp,Cristo La Solucion,1205 North Smithfield Rd,,Knightdale,NC,27545,Hours: Wed 2pm - 6pm Saturday 2pm - 5pm,Phone: 919-349-8940,Type: FOODPANTRY
webpage/url:http://content.foodbankcenc.org/about/zipcounty.asp|,107,nc-food-pantry-full,nc-food-pantry-full,107,http://content.foodbankcenc.org/about/zipcounty.asp,Davie St Presbyterian,300 East Davie Street,,Raleigh,NC,27601,Hours: 2nd & 4th Tues & Thurs 12:30-2:00pm,Phone: 919-834-8855 (church),Type: FOODPANTRY
webpage/url:http://content.foodbankcenc.org/about/zipcounty.asp|,108,nc-food-pantry-full,nc-food-pantry-full,108,http://content.foodbankcenc.org/about/zipcounty.asp,Deliverance Church,3328 Old Stage Road,,Angier,NC,27501,Hours: 2nd 4th Wed 3pm-5pm,Phone: 919-924-4011,Type: FOODPANTRY
webpage/url:http://content.foodbankcenc.org/about/zipcounty.asp|,109,nc-food-pantry-full,nc-food-pantry-full,109,http://content.foodbankcenc.org/about/zipcounty.asp,Divine Anointing Church International,2826 South Memorial Drive,,Greenville,NC,27834,Hours: Tuesday and Thursday from 4p-6p,Phone: 252-227-3071,Type: FOODPANTRY
webpage/url:http://content.foodbankcenc.org/about/zipcounty.asp|,110,nc-food-pantry-full,nc-food-pantry-full,110,http://content.foodbankcenc.org/about/zipcounty.asp,Divine Grace Fellowship,1500 E Club Blvd Bldg 100,,Durham,NC,27701,Hours: 1st and 3rd Saturday from 8-12pm,Phone: (919) 638-2227,Type: FOODPANTRY
webpage/url:http://content.foodbankcenc.org/about/zipcounty.asp|,111,nc-food-pantry-full,nc-food-pantry-full,111,http://content.foodbankcenc.org/about/zipcounty.asp,Domestic Violence Ctr.Scotland,Confidential,,NULL,NC,,Hours: 24/7,Phone: 910.276.5505,Type: SHELTER
webpage/url:http://content.foodbankcenc.org/about/zipcounty.asp|,112,nc-food-pantry-full,nc-food-pantry-full,112,http://content.foodbankcenc.org/about/zipcounty.asp,Dorcas Ministries,187 High House Rd,,Cary,NC,27511,Hours: Mon-Fri 10a.m.-1p.m.,Phone: 919-469-9861 x201,Type: FOODPANTRY
webpage/url:http://content.foodbankcenc.org/about/zipcounty.asp|,113,nc-food-pantry-full,nc-food-pantry-full,113,http://content.foodbankcenc.org/about/zipcounty.asp,Duplin Christian Outreach,838 Old Wilminghton Road,,Wallace,NC,,Hours: Every Saturday 4pm-6pm,Phone: 910-285-6000,Type: SOUP KITCH
webpage/url:http://content.foodbankcenc.org/about/zipcounty.asp|,114,nc-food-pantry-full,nc-food-pantry-full,114,http://content.foodbankcenc.org/about/zipcounty.asp,Durham Crisis Response Center Domestic & Sexual Violence Srv,Confidential,,NULL,NC,,Hours: 24 hours a day,Phone: 919-489-3654 ext 28,Type: SHELTER
webpage/url:http://content.foodbankcenc.org/about/zipcounty.asp|,115,nc-food-pantry-full,nc-food-pantry-full,115,http://content.foodbankcenc.org/about/zipcounty.asp,Durham Exchange Club Industries,1717 Lawson Street,,Durham,NC,27703,Hours: M-F/8:15a.m.-4:15p.m.; food bags given to clients; lunch and snacks provided Monday & Tuesday,Phone: 919-596-1341x396,Type: SOUP KITCH
webpage/url:http://content.foodbankcenc.org/about/zipcounty.asp|,116,nc-food-pantry-full,nc-food-pantry-full,116,http://content.foodbankcenc.org/about/zipcounty.asp,Durham First Assembly of God,1034 Hamlin Rd,,Durham,NC,27704,Hours: Sundays 9:30-10:30 by appointment,Phone: 919-360-1380,Type: FOODPANTRY
webpage/url:http://content.foodbankcenc.org/about/zipcounty.asp|,117,nc-food-pantry-full,nc-food-pantry-full,117,http://content.foodbankcenc.org/about/zipcounty.asp,Durham Rescue Mission Ministries,1201 East Main Street,,Durham,NC,27703-1858,Hours: 24/7,Phone: 919-688-9641x5031,Type: SHELTER
webpage/url:http://content.foodbankcenc.org/about/zipcounty.asp|,118,nc-food-pantry-full,nc-food-pantry-full,118,http://content.foodbankcenc.org/about/zipcounty.asp,Durham Rescue Missions Opportunity Place,507 E. Knox St.,,Durham,NC,27701,Hours: 7 day a week program,Phone: 919-688-9641x 5022,Type: SHELTER
webpage/url:http://content.foodbankcenc.org/about/zipcounty.asp|,119,nc-food-pantry-full,nc-food-pantry-full,119,http://content.foodbankcenc.org/about/zipcounty.asp,East Coast Church Inc.,3114 Bridges Street,,Morehead City,NC,28557,Hours: Tuesday & Thursday 11a-3p,Phone: 252-725-5539,Type: FOODPANTRY
webpage/url:http://content.foodbankcenc.org/about/zipcounty.asp|,120,nc-food-pantry-full,nc-food-pantry-full,120,http://content.foodbankcenc.org/about/zipcounty.asp,East Duplin Christian Outreach,314 North Park Street,,Beulaville,NC,28518,Hours: Mondays and Fridays 10am-12pm/2pm-4pm,Phone: 910.298.4401,Type: FOODPANTRY
webpage/url:http://content.foodbankcenc.org/about/zipcounty.asp|,121,nc-food-pantry-full,nc-food-pantry-full,121,http://content.foodbankcenc.org/about/zipcounty.asp,Ebernezer Missionary Baptist,625 Raleigh Road,,Rocky Mount,NC,27802,Hours: Monday-Wednsday 10am-2pm,Phone: 252-446-2378,Type: FOODPANTRY
webpage/url:http://content.foodbankcenc.org/about/zipcounty.asp|,122,nc-food-pantry-full,nc-food-pantry-full,122,http://content.foodbankcenc.org/about/zipcounty.asp,Edgerton Memorial UMC,401 W. Anderson Street,,Selma,NC,27576,Hours: Thursdays 8:30am-11:30am,Phone: 919-965-3761 (church),Type: FOODPANTRY
webpage/url:http://content.foodbankcenc.org/about/zipcounty.asp|,123,nc-food-pantry-full,nc-food-pantry-full,123,http://content.foodbankcenc.org/about/zipcounty.asp,Emmanuel Ministries Church,725 West Hamlet Ave.,,Hamlet,NC,28345,Hours: 4th Fri. 9-11am and Sun 1-2pm,Phone: 910-205-0740 church,Type: FOODPANTRY
webpage/url:http://content.foodbankcenc.org/about/zipcounty.asp|,124,nc-food-pantry-full,nc-food-pantry-full,124,http://content.foodbankcenc.org/about/zipcounty.asp,Emmanuel Community FWB Center,3105 Speight Seed Farm Road,,Winterville,NC,28590,Hours: Every 1st Saturday Monthly from 8a-10a,Phone: 252-756-0094,Type: FOODPANTRY
webpage/url:http://content.foodbankcenc.org/about/zipcounty.asp|,125,nc-food-pantry-full,nc-food-pantry-full,125,http://content.foodbankcenc.org/about/zipcounty.asp,Emmanuel Fellowship COGIC,336 Alston Bridge Rd.,,Siler City,NC,27344,Hours: 1st&3rd Wed from 6p - 7p,Phone: 919-799-0271 Robin,Type: FOODPANTRY
webpage/url:http://content.foodbankcenc.org/about/zipcounty.asp|,126,nc-food-pantry-full,nc-food-pantry-full,126,http://content.foodbankcenc.org/about/zipcounty.asp,Emmanuel Hispanic Penecoastal,306 Hubert St.,,Raleigh,NC,27606,Hours: 2nd & 4th Fridays 9am-12noon,Phone: 919-345-7186 Pastor,Type: FOODPANTRY
webpage/url:http://content.foodbankcenc.org/about/zipcounty.asp|,127,nc-food-pantry-full,nc-food-pantry-full,127,http://content.foodbankcenc.org/about/zipcounty.asp,Emmanuel Pentecostal Temple /Durham,2722 E. Main Street,,Durham,NC,27703,Hours: 1st & 3rd Mondays/month 4-7pm,Phone: 919-957-1783,Type: FOODPANTRY
webpage/url:http://content.foodbankcenc.org/about/zipcounty.asp|,128,nc-food-pantry-full,nc-food-pantry-full,128,http://content.foodbankcenc.org/about/zipcounty.asp,Emmanuel Tabernacle Holiness,2525 Atlantic Stre,,Durham,NC,27707,Hours: 1st and 3rd Thursday of each Month from 10:30am-12:00pm,Phone: 919-641-1646,Type: FOODPANTRY
webpage/url:http://content.foodbankcenc.org/about/zipcounty.asp|,129,nc-food-pantry-full,nc-food-pantry-full,129,http://content.foodbankcenc.org/about/zipcounty.asp,Ephesus SDA Church,2117 S. Glenburnie Road,,New Bern,NC,28560,Hours: 1st and 3rd Tuesday from 11a-12p,Phone: 252-638-1874,Type: SOUP KITCH
webpage/url:http://content.foodbankcenc.org/about/zipcounty.asp|,130,nc-food-pantry-full,nc-food-pantry-full,130,http://content.foodbankcenc.org/about/zipcounty.asp,Evangel Christian Fellowship,1421 Graham Street,,Rocky Mount,NC,27803,Hours: 3rd Saturday 10am-12pm and for emergencies,Phone: 252-443-0072,Type: FOODPANTRY
webpage/url:http://content.foodbankcenc.org/about/zipcounty.asp|,131,nc-food-pantry-full,nc-food-pantry-full,131,http://content.foodbankcenc.org/about/zipcounty.asp,Evergreen United Methodist Church,11098 US 15-501 North,,Chapel Hill,NC,27517,Hours: 1st 3rd and 4th Tuesdays of the Month from 6:30-7:30pm 2nd Tuesday of the Month from 10:00-11:00am,Phone: 919-533-9330,Type: FOODPANTRY
webpage/url:http://content.foodbankcenc.org/about/zipcounty.asp|,132,nc-food-pantry-full,nc-food-pantry-full,132,http://content.foodbankcenc.org/about/zipcounty.asp,Faith Assembly Church,148 Daniels Street,,Hamlet,NC,28345,Hours: Tues 5:45pm-7pm dinner Saturday 5:45pm food boxes Sun 9am-10:15am breakfast,Phone: 910-997-4391,Type: SOUP KITCH
webpage/url:http://content.foodbankcenc.org/about/zipcounty.asp|,133,nc-food-pantry-full,nc-food-pantry-full,133,http://content.foodbankcenc.org/about/zipcounty.asp,Faith Building Missions,7025 Beach Drive,,Ocean Isle Beach,NC,28469,Hours: Wed 5-7,Phone: 910-755-6888,Type: SOUP KITCH
webpage/url:http://content.foodbankcenc.org/about/zipcounty.asp|,134,nc-food-pantry-full,nc-food-pantry-full,134,http://content.foodbankcenc.org/about/zipcounty.asp,Faith Developmental Community Center,655 Sussex Street,,Kinston,NC,28501,Hours: Monday through Thursday from 10a-3p,Phone: 252-806-0026,Type: FOODPANTRY
webpage/url:http://content.foodbankcenc.org/about/zipcounty.asp|,135,nc-food-pantry-full,nc-food-pantry-full,135,http://content.foodbankcenc.org/about/zipcounty.asp,Faith Gospel Tabernacle,663 Troy St,,Durham,NC,27703,Hours: 2nd and 4th Sat 10-12pm,Phone: 919.596.4533,Type: FOODPANTRY
webpage/url:http://content.foodbankcenc.org/about/zipcounty.asp|,136,nc-food-pantry-full,nc-food-pantry-full,136,http://content.foodbankcenc.org/about/zipcounty.asp,Faith Harbor United Methodist Church,14201 Hwy 50,,Surf City,NC,28445,Hours: Tues 2-3:00 p.m. & Sun 6:30-7:30 p.m.,Phone: wl441,Type: SOUP KITCH
webpage/url:http://content.foodbankcenc.org/about/zipcounty.asp|,137,nc-food-pantry-full,nc-food-pantry-full,137,http://content.foodbankcenc.org/about/zipcounty.asp,Faith Missionary Baptist Church,908 Suffolk Blvd.,,Raleigh,NC,27603,Hours: 1st & 3rd Wed 9:30-12:00 pm,Phone: 919-841-7502,Type: FOODPANTRY
webpage/url:http://content.foodbankcenc.org/about/zipcounty.asp|,138,nc-food-pantry-full,nc-food-pantry-full,138,http://content.foodbankcenc.org/about/zipcounty.asp,Faith Tabernacle Ministry,4820 Guy Road,,Clayton,NC,27520,Hours: 1st Tuesday and last Thursday 12pm-2pm,Phone: 919-928-1363,Type: FOODPANTRY
webpage/url:http://content.foodbankcenc.org/about/zipcounty.asp|,139,nc-food-pantry-full,nc-food-pantry-full,139,http://content.foodbankcenc.org/about/zipcounty.asp,Faith Tabernacle of Praise,413 Hwy. 101,,Beaufort,NC,28576,Hours: Daily call-in,Phone: 252-504-2646,Type: MOBILE FP
webpage/url:http://content.foodbankcenc.org/about/zipcounty.asp|,140,nc-food-pantry-full,nc-food-pantry-full,140,http://content.foodbankcenc.org/about/zipcounty.asp,Feed My Sheep of Durham Food,107 N. Driver Street,,Durham,NC,27701,Hours: 2nd Sat 8a-11a Meals Served On Site/Distribution,Phone: 919-399-5159 Pantry,Type: FOODPANTRY
webpage/url:http://content.foodbankcenc.org/about/zipcounty.asp|,141,nc-food-pantry-full,nc-food-pantry-full,141,http://content.foodbankcenc.org/about/zipcounty.asp,First Assembly of God Church /Goldsboro,3000 Summit Road,,Goldsboro,NC,27534-8701,Hours: 2nd Thursday each month 10am -12pm,Phone: 919-778-7577,Type: FOODPANTRY
webpage/url:http://content.foodbankcenc.org/about/zipcounty.asp|,142,nc-food-pantry-full,nc-food-pantry-full,142,http://content.foodbankcenc.org/about/zipcounty.asp,First Baptist Church -Creedmoor,119 S. Main Street,,Creedmoor,NC,27522,Hours: Wed 9am-11:30am,Phone: 919-528-2351 church,Type: FOODPANTRY
webpage/url:http://content.foodbankcenc.org/about/zipcounty.asp|,143,nc-food-pantry-full,nc-food-pantry-full,143,http://content.foodbankcenc.org/about/zipcounty.asp,First Baptist Church of Carolina Beach/Marthas Kitchen,409 N. Lake Park Blvd.,,Carolina Beach,NC,28428,Hours: Tuesday 6-7:30pm,Phone: 910-458-5134 (church),Type: SOUP KITCH
webpage/url:http://content.foodbankcenc.org/about/zipcounty.asp|,144,nc-food-pantry-full,nc-food-pantry-full,144,http://content.foodbankcenc.org/about/zipcounty.asp,First Baptist Church of Lake Waccamaw,300 East Sam Potts Hwy.,,Lake Waccamaw,NC,28450,Hours: 2nd Thurs & 4th Sat 9:00-11:00,Phone: 910-874-1390,Type: FOODPANTRY
webpage/url:http://content.foodbankcenc.org/about/zipcounty.asp|,145,nc-food-pantry-full,nc-food-pantry-full,145,http://content.foodbankcenc.org/about/zipcounty.asp,First Baptist Church of Leland,517 Village Rd,,Leland,NC,28451,Hours: 1st and 3rd Saturday of month 10am-1pm (starting June 7th),Phone: 910-508-6722,Type: FOODPANTRY
webpage/url:http://content.foodbankcenc.org/about/zipcounty.asp|,146,nc-food-pantry-full,nc-food-pantry-full,146,http://content.foodbankcenc.org/about/zipcounty.asp,First Baptist Church of Smithfield,202 South Fourth Street,,Smithfield,NC,27577,Hours: Wednesday 5:00 pm - 7:00 pm,Phone: 919-934-1601,Type: SOUP KITCH
webpage/url:http://content.foodbankcenc.org/about/zipcounty.asp|,147,nc-food-pantry-full,nc-food-pantry-full,147,http://content.foodbankcenc.org/about/zipcounty.asp,First Born Comm. Development Center,Chicod Street,,Grimesland,NC,27837,Hours: 2nd Sat.10a-12p & 4th Sat./9a-12p,Phone: 252-758-6147,Type: FOODPANTRY
webpage/url:http://content.foodbankcenc.org/about/zipcounty.asp|,148,nc-food-pantry-full,nc-food-pantry-full,148,http://content.foodbankcenc.org/about/zipcounty.asp,First Calvary Baptist Church,1311 Morehead Ave.,,Durham,NC,27707,Hours: Tuesdays & Thursdays 10am-1pm and as needed,Phone: 919-489-4184 church,Type: FOODPANTRY
webpage/url:http://content.foodbankcenc.org/about/zipcounty.asp|,149,nc-food-pantry-full,nc-food-pantry-full,149,http://content.foodbankcenc.org/about/zipcounty.asp,First Fruit Ministries,2750 Vance Street,,Wilmington,NC,28412,Hours: Pantry Tues & Sat 11-1 Wed 10-2,Phone: 910-612-1653,Type: FOODPANTRY
webpage/url:http://content.foodbankcenc.org/about/zipcounty.asp|,150,nc-food-pantry-full,nc-food-pantry-full,150,http://content.foodbankcenc.org/about/zipcounty.asp,First Missionary Baptist,315 s. gaines st,,Southern Pines,NC,28387,Hours: monday 12 noon till delivery is done,Phone: 910-692-5407,Type: FOODPANTRY
webpage/url:http://content.foodbankcenc.org/about/zipcounty.asp|,151,nc-food-pantry-full,nc-food-pantry-full,151,http://content.foodbankcenc.org/about/zipcounty.asp,First Missionary Baptist,410 South Goldsboro St,,Freemont,NC,27830,Hours: Wednsday 5pm-630pm and Sunday 12pm-2pm,Phone: 919-920-1670,Type: FOODPANTRY
webpage/url:http://content.foodbankcenc.org/about/zipcounty.asp|,152,nc-food-pantry-full,nc-food-pantry-full,152,http://content.foodbankcenc.org/about/zipcounty.asp,First Pentecostal Power,3607 Buffalo Rd.,,Raleigh,NC,27604,Hours: 2nd & 3rd Saturday 10:00 am - 1:00 pm,Phone: 919-827-5365,Type: FOODPANTRY
webpage/url:http://content.foodbankcenc.org/about/zipcounty.asp|,153,nc-food-pantry-full,nc-food-pantry-full,153,http://content.foodbankcenc.org/about/zipcounty.asp,First Pentecostal/Durham,2008 W. Carver Street,,Durham,NC,27705,Hours: Tuesdays; call for appointment by 8:30am on day of distribution; Sue will tell clients when they can pick-up,Phone: 919-477-6555 ext. 110,Type: FOODPANTRY
webpage/url:http://content.foodbankcenc.org/about/zipcounty.asp|,154,nc-food-pantry-full,nc-food-pantry-full,154,http://content.foodbankcenc.org/about/zipcounty.asp,First Presbyterian Church,200 Rice Street,,Hamlet,NC,28345,Hours: 1st Saturday 9am-10am; 4th Wednesday 12-1pm,Phone: 910-582-0111 church,Type: FOODPANTRY
webpage/url:http://content.foodbankcenc.org/about/zipcounty.asp|,155,nc-food-pantry-full,nc-food-pantry-full,155,http://content.foodbankcenc.org/about/zipcounty.asp,First United Methodist Church Fishes and Loaves,324 Miller Blvd,,Havelock,NC,28532,Hours: delivery every 2nd Tuesday of the Month,Phone: 252-447-8327,Type: SOUP KITCH
webpage/url:http://content.foodbankcenc.org/about/zipcounty.asp|,156,nc-food-pantry-full,nc-food-pantry-full,156,http://content.foodbankcenc.org/about/zipcounty.asp,First United Methodist Church of Laurinburg,101 W. Church Street,,Laurinburg,NC,28352,Hours: Every 3rd Sat. 9am and Every Friday 9am-11:30am,Phone: 910-276-1592 church,Type: FOODPANTRY
webpage/url:http://content.foodbankcenc.org/about/zipcounty.asp|,157,nc-food-pantry-full,nc-food-pantry-full,157,http://content.foodbankcenc.org/about/zipcounty.asp,First United Methodist Church of Sneads Ferry,305 Lakeside Drive,126 Park Lane @ Comm Center,Sneads Ferry,NC,28460,Hours: 3rd Monday 1p-3p,Phone: 910-328-1356,Type: MOBILE FP
webpage/url:http://content.foodbankcenc.org/about/zipcounty.asp|,158,nc-food-pantry-full,nc-food-pantry-full,158,http://content.foodbankcenc.org/about/zipcounty.asp,First Worldwide Ministries Inc,320 Bledsoe Ave,,Raleigh,NC,27601,Hours: Wednesdays 12:00pm - 1:00pm,Phone: 312-437-3898,Type: FOODPANTRY
webpage/url:http://content.foodbankcenc.org/about/zipcounty.asp|,159,nc-food-pantry-full,nc-food-pantry-full,159,http://content.foodbankcenc.org/about/zipcounty.asp,Fisher Memorial United Holy Church,420 East Piedmont Avenue,,Durham,NC,27707,Hours: Every Wednesday from 12:00 noon until 1:00 p.m,Phone: 919-682-4115,Type: FOODPANTRY
webpage/url:http://content.foodbankcenc.org/about/zipcounty.asp|,160,nc-food-pantry-full,nc-food-pantry-full,160,http://content.foodbankcenc.org/about/zipcounty.asp,Flowing Waters World Outreach,901 Old Fairground Rd,,Willow Spring,NC,27592,Hours: 1st & 3rd Sat 8-9:30 & emergency calls.,Phone: 919-915-4799,Type: FOODPANTRY
webpage/url:http://content.foodbankcenc.org/about/zipcounty.asp|,161,nc-food-pantry-full,nc-food-pantry-full,161,http://content.foodbankcenc.org/about/zipcounty.asp,Folkstone Original Free Will Baptist Church,133 Old Folkstone Road,,Holly Ridge,NC,28445,Hours: Monday Wednesday and Friday from 10a-11a,Phone: 910-327-3795,Type: FOODPANTRY
webpage/url:http://content.foodbankcenc.org/about/zipcounty.asp|,162,nc-food-pantry-full,nc-food-pantry-full,162,http://content.foodbankcenc.org/about/zipcounty.asp,Foundation Of Jesus Christ Outrach Center,4409 Main Street,,Ellerbe,NC,28338,Hours: Every Wednesday from 5:30-6:30,Phone: 910-331-2206 (Corey),Type: FOODPANTRY
webpage/url:http://content.foodbankcenc.org/about/zipcounty.asp|,163,nc-food-pantry-full,nc-food-pantry-full,163,http://content.foodbankcenc.org/about/zipcounty.asp,Fountain of Hope,900 Wilkins Street,,Rocky Mount,NC,27803,Hours: 2nd Thursdays 3:30-5:30 and emergencies,Phone: 252-382-1223,Type: FOODPANTRY
webpage/url:http://content.foodbankcenc.org/about/zipcounty.asp|,164,nc-food-pantry-full,nc-food-pantry-full,164,http://content.foodbankcenc.org/about/zipcounty.asp,Franklin County Volunteers in Medicine,109 N Church St,,Louisburg,NC,27546,Hours: Thursday 9:30-12 and by Emergency,Phone: 919-496-0495,Type: FOODPANTRY
webpage/url:http://content.foodbankcenc.org/about/zipcounty.asp|,165,nc-food-pantry-full,nc-food-pantry-full,165,http://content.foodbankcenc.org/about/zipcounty.asp,Freedom Family Foundation,668 Stratford Blvd.,,Kinston,NC,28504,Hours: First and Third Thursday from 12p-2p,Phone: 252-558-2665,Type: FOODPANTRY
webpage/url:http://content.foodbankcenc.org/about/zipcounty.asp|,166,nc-food-pantry-full,nc-food-pantry-full,166,http://content.foodbankcenc.org/about/zipcounty.asp,Freedom Family Foundation Inc,113 K West Firetower Road,,Winterville,NC,28590,Hours: 3rd Thursday from 10a-1p,Phone: 252-558-2665,Type: FOODPANTRY
webpage/url:http://content.foodbankcenc.org/about/zipcounty.asp|,167,nc-food-pantry-full,nc-food-pantry-full,167,http://content.foodbankcenc.org/about/zipcounty.asp,Freedom Family Foundation Inc,1430 McCarthy Blvd,PO Box 30166 Greenville NC,New Bern,NC,28562,Hours: 2nd Thursday 4p-5p,Phone: 252-353-0100 x101,Type: FOODPANTRY
webpage/url:http://content.foodbankcenc.org/about/zipcounty.asp|,168,nc-food-pantry-full,nc-food-pantry-full,168,http://content.foodbankcenc.org/about/zipcounty.asp,Friend to Friend,CONFIDENTIAL,,NULL,NC,,Hours: Sunday - Saturday (7 days/week) 24 hours/ day,Phone: 910-947-3333 shelter,Type: SHELTER
webpage/url:http://content.foodbankcenc.org/about/zipcounty.asp|,169,nc-food-pantry-full,nc-food-pantry-full,169,http://content.foodbankcenc.org/about/zipcounty.asp,Friendship One Accord,16221 Zion Road,,Marston,NC,28353,Hours: Wednesday 11am-2pm Mon-Fri emergency appointments,Phone: 910-506-9147,Type: SOUP KITCH
webpage/url:http://content.foodbankcenc.org/about/zipcounty.asp|,170,nc-food-pantry-full,nc-food-pantry-full,170,http://content.foodbankcenc.org/about/zipcounty.asp,Fuquay-Varina Emergency Food Pantry,216 West Academy Street,,Fuquay-Varina,NC,27526,Hours: Tues 9-11:45 Thurs. 2-5:45,Phone: 919-552-7720,Type: FOODPANTRY
webpage/url:http://content.foodbankcenc.org/about/zipcounty.asp|,171,nc-food-pantry-full,nc-food-pantry-full,171,http://content.foodbankcenc.org/about/zipcounty.asp,Georgetown Renaissance Community Association Inc.,203 Conover Street,,Jacksonville,NC,28540,Hours: Every Saturday 11A-1P,Phone: 910-545-7966,Type: MOBILE FP
webpage/url:http://content.foodbankcenc.org/about/zipcounty.asp|,172,nc-food-pantry-full,nc-food-pantry-full,172,http://content.foodbankcenc.org/about/zipcounty.asp,Gethsemane 7th Day Adv Pantry,2525 Sanderford Road,,Raleigh,NC,27610,Hours: 1st & 3rd Thursday,Phone: 919-749-3071,Type: FOODPANTRY
webpage/url:http://content.foodbankcenc.org/about/zipcounty.asp|,173,nc-food-pantry-full,nc-food-pantry-full,173,http://content.foodbankcenc.org/about/zipcounty.asp,Gibraltar-Church on the Rock,112 W. Hope Lodge St,,Tarboro,NC,27886,Hours: Mon-Thur 9:30am-11:30am,Phone: 252-907-1402,Type: FOODPANTRY
webpage/url:http://content.foodbankcenc.org/about/zipcounty.asp|,174,nc-food-pantry-full,nc-food-pantry-full,174,http://content.foodbankcenc.org/about/zipcounty.asp,Gibson United Methodist St Johns,13241 Mclaurin St,,Gibson,NC,28343,Hours: 4th Wednesday 8am-until 2nd Tues 11am-2pm,Phone: 910-280-2424-cell,Type: FOODPANTRY
webpage/url:http://content.foodbankcenc.org/about/zipcounty.asp|,175,nc-food-pantry-full,nc-food-pantry-full,175,http://content.foodbankcenc.org/about/zipcounty.asp,Glad Tiding Church Inc.,319 Broad Street,,Dunn,NC,28334,Hours: Fridays 11:00am - 3:00pm,Phone: 910.892.3462(Church),Type: FOODPANTRY
webpage/url:http://content.foodbankcenc.org/about/zipcounty.asp|,176,nc-food-pantry-full,nc-food-pantry-full,176,http://content.foodbankcenc.org/about/zipcounty.asp,Glad Tidings Gospel Church,4422 301 South,,Wilson,NC,27893,Hours: Wed 9am-12noon as needed,Phone: 252-218-8895,Type: FOODPANTRY
webpage/url:http://content.foodbankcenc.org/about/zipcounty.asp|,177,nc-food-pantry-full,nc-food-pantry-full,177,http://content.foodbankcenc.org/about/zipcounty.asp,Glory Cloud & Fire Ministries,8800 Hwy 39 S,,Zebulon,NC,27597,Hours: 3rd Saturday 8 a.m. 102 a.m.,Phone: 919-269-8870,Type: FOODPANTRY
webpage/url:http://content.foodbankcenc.org/about/zipcounty.asp|,178,nc-food-pantry-full,nc-food-pantry-full,178,http://content.foodbankcenc.org/about/zipcounty.asp,Gods Fellowship Church,124-A South Main Street,,Broadway NC,NC,27505,Hours: Fridays only 12pm-until,Phone: 919.258.6757,Type: FOODPANTRY
webpage/url:http://content.foodbankcenc.org/about/zipcounty.asp|,179,nc-food-pantry-full,nc-food-pantry-full,179,http://content.foodbankcenc.org/about/zipcounty.asp,God's Vision Ministries,315 East River Rd,,Louisburg,NC,27549,Hours: 2 & 4 Saturdays 8-10:30am and emergency,Phone: 919-496-7822,Type: FOODPANTRY
webpage/url:http://content.foodbankcenc.org/about/zipcounty.asp|,180,nc-food-pantry-full,nc-food-pantry-full,180,http://content.foodbankcenc.org/about/zipcounty.asp,Good Shepherd Ministries,811 Martin Street,,Wilmington,NC,28401,Hours: Mon-Fri 7a-8a/11a-12p,Phone: 910-763-4424 ext 106,Type: SHELTER
webpage/url:http://content.foodbankcenc.org/about/zipcounty.asp|,181,nc-food-pantry-full,nc-food-pantry-full,181,http://content.foodbankcenc.org/about/zipcounty.asp,Grace and Peace Tabernacle,600 East Washington Street,,Mebane,NC,27302,Hours: third Tuesday every month 5-7pm,Phone: 336-421-7544,Type: FOODPANTRY
webpage/url:http://content.foodbankcenc.org/about/zipcounty.asp|,182,nc-food-pantry-full,nc-food-pantry-full,182,http://content.foodbankcenc.org/about/zipcounty.asp,Greater Diggs AME Zion Church,1258 old cheraw highway,,Rockingham,NC,28379,Hours: 4th Thursday 1-2pm Fresh Produce Distribution Every Sat and Sun 10am-11am,Phone: 910-997-4476,Type: FOODPANTRY
webpage/url:http://content.foodbankcenc.org/about/zipcounty.asp|,183,nc-food-pantry-full,nc-food-pantry-full,183,http://content.foodbankcenc.org/about/zipcounty.asp,Greater Joy Missionary Baptist,322 Anderson Street,,Rocky Mount,NC,27803,Hours: Bi-Weekly Mondays 12pm-2pm,Phone: 252-442-0958,Type: FOODPANTRY
webpage/url:http://content.foodbankcenc.org/about/zipcounty.asp|,184,nc-food-pantry-full,nc-food-pantry-full,184,http://content.foodbankcenc.org/about/zipcounty.asp,Greater Pentecostal F.D. Food Pantry,414 Rose Lane,,Raleigh,NC,27610,Hours: Mon-Sat 9:30 am - 11:30am,Phone: 919-847-5086,Type: FOODPANTRY
webpage/url:http://content.foodbankcenc.org/about/zipcounty.asp|,185,nc-food-pantry-full,nc-food-pantry-full,185,http://content.foodbankcenc.org/about/zipcounty.asp,Greater Ransom Way of Cross Temple,90 South Lake Lodge Rd Ext,,Henderson,NC,27537,Hours: 1st and 3rd Saturdays from 9:00 am until 12:00 noon,Phone: 919 693-1511 ext168 work,Type: FOODPANTRY
webpage/url:http://content.foodbankcenc.org/about/zipcounty.asp|,186,nc-food-pantry-full,nc-food-pantry-full,186,http://content.foodbankcenc.org/about/zipcounty.asp,Greater Refuge Temple,1438 Maplewood Drive,,Durham,NC,27704,Hours: Wednesdays 9am-1pm,Phone: 919-608-7525,Type: FOODPANTRY
webpage/url:http://content.foodbankcenc.org/about/zipcounty.asp|,187,nc-food-pantry-full,nc-food-pantry-full,187,http://content.foodbankcenc.org/about/zipcounty.asp,Greater Resoration Enrichment Center,3440 JB White HWY South,,Whiteville,NC,28472,Hours: 2nd Sat 10-11am 4th Tuesday 10-12,Phone: 910-234-5805,Type: FOODPANTRY
webpage/url:http://content.foodbankcenc.org/about/zipcounty.asp|,188,nc-food-pantry-full,nc-food-pantry-full,188,http://content.foodbankcenc.org/about/zipcounty.asp,Greater St. Peter Church Ministries Inc.,886 Will Baker Road,,Kinston,NC,28504,Hours: Monday through Friday 9a-12p,Phone: 252-520-0010,Type: FOODPANTRY
webpage/url:http://content.foodbankcenc.org/about/zipcounty.asp|,189,nc-food-pantry-full,nc-food-pantry-full,189,http://content.foodbankcenc.org/about/zipcounty.asp,Greene County Interfaith Volunteers,398 Hwy. 58 South,,Snow Hill,NC,28580,Hours: Wed at 9a-5p and Thur 9a-3p,Phone: 252-747-1090,Type: MOBILE FP
webpage/url:http://content.foodbankcenc.org/about/zipcounty.asp|,190,nc-food-pantry-full,nc-food-pantry-full,190,http://content.foodbankcenc.org/about/zipcounty.asp,Hands for Humanity CDC,1009 E. Bright Street,,Kinston,NC,28501,Hours: Mon 11a-2p Tues-Thurs 9a-1p,Phone: 252-523-0871,Type: MOBILE FP
webpage/url:http://content.foodbankcenc.org/about/zipcounty.asp|,191,nc-food-pantry-full,nc-food-pantry-full,191,http://content.foodbankcenc.org/about/zipcounty.asp,Harbor Inc.,1149 Buffalo Road,,Smithfield,NC,27577,Hours: 24/7,Phone: 919-938-3566,Type: SHELTER
webpage/url:http://content.foodbankcenc.org/about/zipcounty.asp|,192,nc-food-pantry-full,nc-food-pantry-full,192,http://content.foodbankcenc.org/about/zipcounty.asp,Harnett Food Pantry,275 Irene Roberts Road,,Lillington,NC,27546,Hours: Tues 1-4 Thurs 10-1,Phone: 919-985-7787,Type: FOODPANTRY
webpage/url:http://content.foodbankcenc.org/about/zipcounty.asp|,193,nc-food-pantry-full,nc-food-pantry-full,193,http://content.foodbankcenc.org/about/zipcounty.asp,Harvest Word Ministry,15199 Hwy 96 N,,Zebulon,NC,27599,Hours: Every 3rd Wednsday 10:30am-close and emergency,Phone: 919-618-1857,Type: FOODPANTRY
webpage/url:http://content.foodbankcenc.org/about/zipcounty.asp|,194,nc-food-pantry-full,nc-food-pantry-full,194,http://content.foodbankcenc.org/about/zipcounty.asp,Havelock Cherry Point,925 E. Main Street Suite 20,,Havelock,NC,28532,Hours: Monday Tues Wed and Friday from 10a-12p and 1p-2p,Phone: 252-447-5190,Type: FOODPANTRY
webpage/url:http://content.foodbankcenc.org/about/zipcounty.asp|,195,nc-food-pantry-full,nc-food-pantry-full,195,http://content.foodbankcenc.org/about/zipcounty.asp,Haven House-Crisis & Homeless Services,908 W. Morgan St.,,Raleigh,NC,27603,Hours: 365 days/yr and 24 hrs/day,Phone: 919-832-7866,Type: SHELTER
webpage/url:http://content.foodbankcenc.org/about/zipcounty.asp|,196,nc-food-pantry-full,nc-food-pantry-full,196,http://content.foodbankcenc.org/about/zipcounty.asp,Haw River Baptist Church,1099 Mt. Gilead Church Road,,Pittsboro,NC,27312,Hours: Second Saturday 8:30AM to 11:00 and Fourth Thursday 11:00AM to 1:00PM,Phone: 919-201-9972,Type: FOODPANTRY
webpage/url:http://content.foodbankcenc.org/about/zipcounty.asp|,197,nc-food-pantry-full,nc-food-pantry-full,197,http://content.foodbankcenc.org/about/zipcounty.asp,Help and Hope Ministries,305 West Oak St,,Goldsboro,NC,27530,Hours: Sun 1:00pm-2:00pm,Phone: 919-734-4852,Type: FOODPANTRY
webpage/url:http://content.foodbankcenc.org/about/zipcounty.asp|,198,nc-food-pantry-full,nc-food-pantry-full,198,http://content.foodbankcenc.org/about/zipcounty.asp,Help Center of Federal Point,Carolina Beach Recreation,1121 North Lake Park Blvd.,Carolina Beach,NC,28428,Hours: M-F 10am-12,Phone: 910-458-2777,Type: FOODPANTRY
webpage/url:http://content.foodbankcenc.org/about/zipcounty.asp|,199,nc-food-pantry-full,nc-food-pantry-full,199,http://content.foodbankcenc.org/about/zipcounty.asp,Helping and Healing Hearts INC,308 N 4th Street,,Smithfield,NC,27577,Hours: Tues-Fri 10am-5pm Sat 10am-3pm,Phone: 919-938-8190,Type: FOODPANTRY
webpage/url:http://content.foodbankcenc.org/about/zipcounty.asp|,200,nc-food-pantry-full,nc-food-pantry-full,200,http://content.foodbankcenc.org/about/zipcounty.asp,Helping Hands of Hamlet,609 Cheraw Road,,Hamlet,NC,28345,Hours: Every Thursday 1-3pm,Phone: 910-334-1009,Type: FOODPANTRY
webpage/url:http://content.foodbankcenc.org/about/zipcounty.asp|,201,nc-food-pantry-full,nc-food-pantry-full,201,http://content.foodbankcenc.org/about/zipcounty.asp,Helping Hands/St Stanislaus Ch,4849 Castle Hayne Road,,Castle Hayne,NC,28429,Hours: Every 2nd & 4th Thursday 9-12,Phone: 910-371-1525,Type: FOODPANTRY
webpage/url:http://content.foodbankcenc.org/about/zipcounty.asp|,202,nc-food-pantry-full,nc-food-pantry-full,202,http://content.foodbankcenc.org/about/zipcounty.asp,Henderson Towers Resident Management Corp (HTRMC),807 S. Duke Street #010,,Durham,NC,27701,Hours: 10:30 -12:30 every third Monday for Henderson Tower Residents Only,Phone: 919-452-0094,Type: FOODPANTRY
webpage/url:http://content.foodbankcenc.org/about/zipcounty.asp|,203,nc-food-pantry-full,nc-food-pantry-full,203,http://content.foodbankcenc.org/about/zipcounty.asp,Higher Dimensions Ministries,18501 Marston Rd,,Laurel Hill,NC,28351,Hours: 2nd and 4th Sat. 10am-12pm (pantry) 12-1pm 4th Sat. Soup Kitchen,Phone: 910-462-0286,Type: FOODPANTRY
webpage/url:http://content.foodbankcenc.org/about/zipcounty.asp|,204,nc-food-pantry-full,nc-food-pantry-full,204,http://content.foodbankcenc.org/about/zipcounty.asp,Highfalls United Methodist Ch.,324 Frieson Road,,Highfalls,NC,27259,Hours: Second & Fourth Saturday of each month; 7:00 a.m. - 8:30 a.m.,Phone: 910-464-2669,Type: FOODPANTRY
webpage/url:http://content.foodbankcenc.org/about/zipcounty.asp|,205,nc-food-pantry-full,nc-food-pantry-full,205,http://content.foodbankcenc.org/about/zipcounty.asp,Hillview Christian Assembly,3217 Lemon Springs Road,,Sanford,NC,27330,Hours: Wed 5pm- or any emergency situation,Phone: 919-776-6783,Type: FOODPANTRY
webpage/url:http://content.foodbankcenc.org/about/zipcounty.asp|,206,nc-food-pantry-full,nc-food-pantry-full,206,http://content.foodbankcenc.org/about/zipcounty.asp,Holly Ridge Church of God,1021 East Ocean Road,,Holly Ridge,NC,28445,Hours: Call as needed,Phone: 910-329-1531,Type: FOODPANTRY
webpage/url:http://content.foodbankcenc.org/about/zipcounty.asp|,207,nc-food-pantry-full,nc-food-pantry-full,207,http://content.foodbankcenc.org/about/zipcounty.asp,Holly Springs Food Cupboard,621 W. Holly Springs Rd.,,Holly Springs,NC,27540,Hours: Thursdays 2:00 - 5:00,Phone: 919-662-0892,Type: FOODPANTRY
webpage/url:http://content.foodbankcenc.org/about/zipcounty.asp|,208,nc-food-pantry-full,nc-food-pantry-full,208,http://content.foodbankcenc.org/about/zipcounty.asp,Holy Faith Temple C.F.A.P,506 S. Chestnut,,Henderson,NC,27537,Hours: Every Monday at 11:00am (beginning 4/18/13),Phone: 252-430-1970 home,Type: FOODPANTRY
webpage/url:http://content.foodbankcenc.org/about/zipcounty.asp|,209,nc-food-pantry-full,nc-food-pantry-full,209,http://content.foodbankcenc.org/about/zipcounty.asp,Holy Grounds/Calvary Chapel of Wilmington,2831 Carolina Beach Road,,Wilmington,NC,28412,Hours: 1st & 3rd Saturday of month 9am-11am,Phone: 910-538-7924,Type: FOODPANTRY
webpage/url:http://content.foodbankcenc.org/about/zipcounty.asp|,210,nc-food-pantry-full,nc-food-pantry-full,210,http://content.foodbankcenc.org/about/zipcounty.asp,Holy Mission Church of God in Christ,111 North First Street,,Pinetops,NC,27864,Hours: 3rd Saturday 9a-12p,Phone: 252-827-2363,Type: FOODPANTRY
webpage/url:http://content.foodbankcenc.org/about/zipcounty.asp|,211,nc-food-pantry-full,nc-food-pantry-full,211,http://content.foodbankcenc.org/about/zipcounty.asp,Hope of Glory Ministries Inc.,103 East Arlington Blvd.,Suite 106,Greenville,NC,27858,Hours: Monday through Friday9a-5pm by appointment only,Phone: 252-215-9042,Type: FOODPANTRY
webpage/url:http://content.foodbankcenc.org/about/zipcounty.asp|,212,nc-food-pantry-full,nc-food-pantry-full,212,http://content.foodbankcenc.org/about/zipcounty.asp,House of Fordham/Goldsboro,412 North William Street,,Goldsboro,NC,27530,Hours: Tuesday and Thursday from 9:30 a.m. - 12:30 p.m.,Phone: 919-736-7352,Type: SHELTER
webpage/url:http://content.foodbankcenc.org/about/zipcounty.asp|,213,nc-food-pantry-full,nc-food-pantry-full,213,http://content.foodbankcenc.org/about/zipcounty.asp,House of Refuge for Women,confidential,,Durham,NC,,Hours: 24/7 transition home-meals served 7a-8a/12-1p/6p-7p,Phone: 919-598-8279 house,Type: SHELTER
webpage/url:http://content.foodbankcenc.org/about/zipcounty.asp|,214,nc-food-pantry-full,nc-food-pantry-full,214,http://content.foodbankcenc.org/about/zipcounty.asp,House Prayer/Feed My People,335 Earl Franklin Drive,,Hamlet,NC,28345,Hours: 1st Friday and 4th Friday 12-1pm,Phone: 910-582-0575 (home),Type: SOUP KITCH
webpage/url:http://content.foodbankcenc.org/about/zipcounty.asp|,215,nc-food-pantry-full,nc-food-pantry-full,215,http://content.foodbankcenc.org/about/zipcounty.asp,Hunter's Chapel A.M.E. Church,214 Buckhorn Rd.,,Mebane,NC,27302,Hours: Direct Distribution 4th Thursday of the month at 1pm,Phone: 336-567-7676,Type: MOBILE FP
webpage/url:http://content.foodbankcenc.org/about/zipcounty.asp|,216,nc-food-pantry-full,nc-food-pantry-full,216,http://content.foodbankcenc.org/about/zipcounty.asp,Iglesia De Dios Pentecostal,2331 New Bern Ave.,,Raleigh,NC,27610,Hours: Wednesday 10:00 a.m. - 12:00 p.m.,Phone: 919-906-5042,Type: FOODPANTRY
webpage/url:http://content.foodbankcenc.org/about/zipcounty.asp|,217,nc-food-pantry-full,nc-food-pantry-full,217,http://content.foodbankcenc.org/about/zipcounty.asp,Iglesia de Dios Pentecostal,1042 Country Club Rd.,,Jacksonville,NC,28546,Hours: Every other Saturday 11a - 1p,Phone: 910-526-1202,Type: FOODPANTRY
webpage/url:http://content.foodbankcenc.org/about/zipcounty.asp|,218,nc-food-pantry-full,nc-food-pantry-full,218,http://content.foodbankcenc.org/about/zipcounty.asp,Iglesia Pentecostal Jesucristo,1508 Bizzell Grove Church Rd,,Selma,NC,27576,Hours: Every 2nd Saturday 9am-1pm,Phone: 919-538-0423,Type: FOODPANTRY
webpage/url:http://content.foodbankcenc.org/about/zipcounty.asp|,219,nc-food-pantry-full,nc-food-pantry-full,219,http://content.foodbankcenc.org/about/zipcounty.asp,Iglesia Presbiteriana Emanuel,2504 N. Roxboro St.,,Durham,NC,27703,Hours: Wednesday from 5-6pm,Phone: (919) 672-4333,Type: FOODPANTRY
webpage/url:http://content.foodbankcenc.org/about/zipcounty.asp|,220,nc-food-pantry-full,nc-food-pantry-full,220,http://content.foodbankcenc.org/about/zipcounty.asp,Immanuel Temple SDA Church,2102 S Alston Avenue,,Durham,NC,27701,Hours: Every Sunday 1-3,Phone: 919-957-0032 church,Type: SOUP KITCH
webpage/url:http://content.foodbankcenc.org/about/zipcounty.asp|,221,nc-food-pantry-full,nc-food-pantry-full,221,http://content.foodbankcenc.org/about/zipcounty.asp,Immanuel Temple SDA Community Services,2104 S. Alston Avenue,,Durham,NC,27707,Hours: 1st & 2nd Wed 10-1pm; and as needed,Phone: 919-471-3841,Type: FOODPANTRY
webpage/url:http://content.foodbankcenc.org/about/zipcounty.asp|,222,nc-food-pantry-full,nc-food-pantry-full,222,http://content.foodbankcenc.org/about/zipcounty.asp,Inspirational House of Praise,1005 Village Road,,Leland,NC,28451,Hours: Wednesday 8am-9am,Phone: 910 612 7041,Type: FOODPANTRY
webpage/url:http://content.foodbankcenc.org/about/zipcounty.asp|,223,nc-food-pantry-full,nc-food-pantry-full,223,http://content.foodbankcenc.org/about/zipcounty.asp,Interact,confidential,,Raleigh,NC,27605,Hours: 24 hrs,Phone: 919-828-7501,Type: SHELTER
webpage/url:http://content.foodbankcenc.org/about/zipcounty.asp|,224,nc-food-pantry-full,nc-food-pantry-full,224,http://content.foodbankcenc.org/about/zipcounty.asp,Inter-Faith Council/ Chapel Hill,110 W. Main Street,,Carrboro,NC,27510,Hours: Monday-Friday 9am-5pm; Tues & Wed 5-7pm,Phone: 919-929-6380 X41,Type: FOODPANTRY
webpage/url:http://content.foodbankcenc.org/about/zipcounty.asp|,225,nc-food-pantry-full,nc-food-pantry-full,225,http://content.foodbankcenc.org/about/zipcounty.asp,Islamic Association of Raleigh,3020 Ligon St,,Raleigh,NC,27607,Hours: 1st & 3rd Sat 10:00 am-12:00 pm,Phone: 919-609-6717,Type: FOODPANTRY
webpage/url:http://content.foodbankcenc.org/about/zipcounty.asp|,226,nc-food-pantry-full,nc-food-pantry-full,226,http://content.foodbankcenc.org/about/zipcounty.asp,Jackson Grove Bible Church of,66 Sinclair Lake Rd.,,Newton Grove,NC,28366,Hours: Wednesdays 12pm-2pm,Phone: 919-756-0008 (HT),Type: FOODPANTRY
webpage/url:http://content.foodbankcenc.org/about/zipcounty.asp|,227,nc-food-pantry-full,nc-food-pantry-full,227,http://content.foodbankcenc.org/about/zipcounty.asp,Jerusalem United Methodist Church,1661 Jerusalem Road,,Laurinburg,NC,28352,Hours: 3rd Sat of every month 7-10am 3rd Sun 1:30pm delivery to homebound,Phone: 910-506-4816 home,Type: FOODPANTRY
webpage/url:http://content.foodbankcenc.org/about/zipcounty.asp|,228,nc-food-pantry-full,nc-food-pantry-full,228,http://content.foodbankcenc.org/about/zipcounty.asp,Jesucristo Fuente De Amory Pentecostal Holiness Church,531 Plaza Circle,,Garner,NC,27520,Hours: 4th Saturday 10a.m. - 12 p.m. Sunday 6pm - 7pm,Phone: 919-879-7480,Type: FOODPANTRY
webpage/url:http://content.foodbankcenc.org/about/zipcounty.asp|,229,nc-food-pantry-full,nc-food-pantry-full,229,http://content.foodbankcenc.org/about/zipcounty.asp,Jesus Is Justice Mission Inc.,469 Mills Road,,East Rockingham,NC,27379,Hours: Thursday 1-3pm,Phone: 917-566-1961,Type: FOODPANTRY
webpage/url:http://content.foodbankcenc.org/about/zipcounty.asp|,230,nc-food-pantry-full,nc-food-pantry-full,230,http://content.foodbankcenc.org/about/zipcounty.asp,Jonathans Outreach Network,302 S. Driver Street,,Durham,NC,27703,Hours: 10-4 M-F,Phone: 919-943-3997,Type: FOODPANTRY
webpage/url:http://content.foodbankcenc.org/about/zipcounty.asp|,231,nc-food-pantry-full,nc-food-pantry-full,231,http://content.foodbankcenc.org/about/zipcounty.asp,Joseph Provisions,2202 May Street #11,,Greenville,NC,27834,Hours: Every 3rd Saturday from 10a-4p,Phone: 252-917-2967,Type: FOODPANTRY
webpage/url:http://content.foodbankcenc.org/about/zipcounty.asp|,232,nc-food-pantry-full,nc-food-pantry-full,232,http://content.foodbankcenc.org/about/zipcounty.asp,Juniper Level MBC,9104 Sauls Road,,Raleigh,NC,27603,Hours: 1st & 3rd Thursday 9:30 am -11:30am,Phone: 919-832-5435,Type: FOODPANTRY
webpage/url:http://content.foodbankcenc.org/about/zipcounty.asp|,233,nc-food-pantry-full,nc-food-pantry-full,233,http://content.foodbankcenc.org/about/zipcounty.asp,Kairos Church Ministry,1003 S Lodge Street,,Wilson,NC,27893,Hours: Tues 7p-9p; Every Sat 6a-12p and every 3rd Sunday from 8:30a-11:30a,Phone: 252-714-6688,Type: FOODPANTRY
webpage/url:http://content.foodbankcenc.org/about/zipcounty.asp|,234,nc-food-pantry-full,nc-food-pantry-full,234,http://content.foodbankcenc.org/about/zipcounty.asp,Kenly Area Ministries,408 South College Avenue,,Kenly,NC,27542,Hours: Monday: 9:00 am-11:00am Tuesday2:00pm-3:00pm Wednesday:2:00pm-5:00pm Thursday:9:00am-11:00am Friday:9:00am-11:00am,Phone: 919-284-2449,Type: FOODPANTRY
webpage/url:http://content.foodbankcenc.org/about/zipcounty.asp|,235,nc-food-pantry-full,nc-food-pantry-full,235,http://content.foodbankcenc.org/about/zipcounty.asp,Kenly Church of God,8641 St. Mary's Church Road,,Kenly,NC,27542,Hours: 1st and 3rd Thursday at 10am,Phone: 919-284-3704,Type: FOODPANTRY
webpage/url:http://content.foodbankcenc.org/about/zipcounty.asp|,236,nc-food-pantry-full,nc-food-pantry-full,236,http://content.foodbankcenc.org/about/zipcounty.asp,Kingdom Health Care Inc.,81 Egypt Church Road,,Louisburg,NC,27549,Hours: Every Thursday 9am-12pm,Phone: 919-496-3025,Type: FOODPANTRY
webpage/url:http://content.foodbankcenc.org/about/zipcounty.asp|,237,nc-food-pantry-full,nc-food-pantry-full,237,http://content.foodbankcenc.org/about/zipcounty.asp,Kingdom Life Outreach,610-B North Madison Avenue,,Goldsboro,NC,27530,Hours: Tuesday and Wednsday 9am-5pm,Phone: 919-394-7572,Type: FOODPANTRY
webpage/url:http://content.foodbankcenc.org/about/zipcounty.asp|,238,nc-food-pantry-full,nc-food-pantry-full,238,http://content.foodbankcenc.org/about/zipcounty.asp,Kitrell Shiloh Missionary Baptist Church,1390 S. Chavis Road,,Kitrell,NC,27544,Hours: 4th Saturday 9:30-10:30am,Phone: 252-492-8152,Type: FOODPANTRY
webpage/url:http://content.foodbankcenc.org/about/zipcounty.asp|,239,nc-food-pantry-full,nc-food-pantry-full,239,http://content.foodbankcenc.org/about/zipcounty.asp,Knightdale Church of God,4272 Old Faison Rd,,Knightdale,NC,27545,Hours: Tuesdays 2:00 pm - 5:00 pm by appointment,Phone: 919-650-1068,Type: FOODPANTRY
webpage/url:http://content.foodbankcenc.org/about/zipcounty.asp|,240,nc-food-pantry-full,nc-food-pantry-full,240,http://content.foodbankcenc.org/about/zipcounty.asp,Koinonia Christian Center Church,1405 SW Greenville Blvd.,,Greenville,NC,27835,Hours: Every 4th Wed from 7:30a-9:30a /Monday through Friday from 8a-5p (emergency bags in office on Sunday),Phone: 252-268-6195 cell,Type: MOBILE FP
webpage/url:http://content.foodbankcenc.org/about/zipcounty.asp|,241,nc-food-pantry-full,nc-food-pantry-full,241,http://content.foodbankcenc.org/about/zipcounty.asp,Lake Gaston Baptist Church,128 Lynwood Road,,Littleton,NC,27850,Hours: Delivers food to clients after Food Lion pickups 7 days a week,Phone: 434-637-6258,Type: FOODPANTRY
webpage/url:http://content.foodbankcenc.org/about/zipcounty.asp|,242,nc-food-pantry-full,nc-food-pantry-full,242,http://content.foodbankcenc.org/about/zipcounty.asp,Laurinburg Hope In Christ Ministry,11141 Turnpike Road,,Laurinburg,NC,28352,Hours: Thursdays 9:00am-11:00am,Phone: 910-610-5883 Kraw Cell,Type: SOUP KITCH
webpage/url:http://content.foodbankcenc.org/about/zipcounty.asp|,243,nc-food-pantry-full,nc-food-pantry-full,243,http://content.foodbankcenc.org/about/zipcounty.asp,Liberty Ministries,7957 Market Street,,Wilmington,NC,28411,Hours: 24/7 by appointment,Phone: 910-686-0176,Type: FOODPANTRY
webpage/url:http://content.foodbankcenc.org/about/zipcounty.asp|,244,nc-food-pantry-full,nc-food-pantry-full,244,http://content.foodbankcenc.org/about/zipcounty.asp,Life Christain Center,2872 Old Franklin Rd,,Spring Hope,NC,27882,Hours: 2nd & 4th Mon 8am-10am,Phone: 252-315-9430,Type: FOODPANTRY
webpage/url:http://content.foodbankcenc.org/about/zipcounty.asp|,245,nc-food-pantry-full,nc-food-pantry-full,245,http://content.foodbankcenc.org/about/zipcounty.asp,Lifeline Outreach/Henderson,2014 Raleigh Road,,Henderson,NC,27536,Hours: Tuesdays & Fridays 10:30am-12:30pm & 2:00pm-3:00pm,Phone: 252-438-2098,Type: SHELTER
webpage/url:http://content.foodbankcenc.org/about/zipcounty.asp|,246,nc-food-pantry-full,nc-food-pantry-full,246,http://content.foodbankcenc.org/about/zipcounty.asp,Lifepointe Church,4131 Western Blvd.,,Raleigh,NC,27606,Hours: First 3 Mondays of each month 11:30 - 12:30,Phone: 919-518-4941,Type: FOODPANTRY
webpage/url:http://content.foodbankcenc.org/about/zipcounty.asp|,247,nc-food-pantry-full,nc-food-pantry-full,247,http://content.foodbankcenc.org/about/zipcounty.asp,Light of Peace Church,319 Barnes Street,,Wilson,NC,27893,Hours: Fridays 12pm-5pm,Phone: 252-230-0708,Type: FOODPANTRY
webpage/url:http://content.foodbankcenc.org/about/zipcounty.asp|,248,nc-food-pantry-full,nc-food-pantry-full,248,http://content.foodbankcenc.org/about/zipcounty.asp,Lighthouse Christian Fellowship,9856 Highway 210,,Four Oaks,NC,27524,Hours: Fridays11-12pm,Phone: 919-934-6512,Type: FOODPANTRY
webpage/url:http://content.foodbankcenc.org/about/zipcounty.asp|,249,nc-food-pantry-full,nc-food-pantry-full,249,http://content.foodbankcenc.org/about/zipcounty.asp,Living Bread Holiness Church,1116 Glenburnie Road,,New Bern,NC,28561,Hours: Tues Thurs. and Fri from 1p-5p and Sat from 12p-4-,Phone: 252-617-2547,Type: FOODPANTRY
webpage/url:http://content.foodbankcenc.org/about/zipcounty.asp|,250,nc-food-pantry-full,nc-food-pantry-full,250,http://content.foodbankcenc.org/about/zipcounty.asp,Living Waters Christian ommunity,1104 Lynn Road,,Durham,NC,27703,Hours: NULL,Phone: (919) 596-6909,Type: FOODPANTRY
webpage/url:http://content.foodbankcenc.org/about/zipcounty.asp|,251,nc-food-pantry-full,nc-food-pantry-full,251,http://content.foodbankcenc.org/about/zipcounty.asp,Living Waters Ministries of Pinetops Inc SOAR,7421 US Hwy 258 South,,Pinetops,NC,27864,Hours: Wed 7p-8:30p Friday 6p-8p and Sat 8a-5p,Phone: 252-827-4592,Type: FOODPANTRY
webpage/url:http://content.foodbankcenc.org/about/zipcounty.asp|,252,nc-food-pantry-full,nc-food-pantry-full,252,http://content.foodbankcenc.org/about/zipcounty.asp,Living Word Church,98 Old Hwy 74,,Chadbourn,NC,28431,Hours: Thursday 2pm-6pm and Saturday 10am-12pm,Phone: 910-654-4164,Type: FOODPANTRY
webpage/url:http://content.foodbankcenc.org/about/zipcounty.asp|,253,nc-food-pantry-full,nc-food-pantry-full,253,http://content.foodbankcenc.org/about/zipcounty.asp,Livingstones Tabernacle,127 Sloop Point Road,,Hampstead,NC,28443,Hours: Mon -Sat 8 - 1:00pm,Phone: 910-270-0750 church,Type: FOODPANTRY
webpage/url:http://content.foodbankcenc.org/about/zipcounty.asp|,254,nc-food-pantry-full,nc-food-pantry-full,254,http://content.foodbankcenc.org/about/zipcounty.asp,Loaves & Fishes Ministries Inc. of Pitt County,2600 Fire Tower Road,,Greenville,NC,27858,Hours: Wednesdays 9a-5p,Phone: 252-756-8822,Type: FOODPANTRY
webpage/url:http://content.foodbankcenc.org/about/zipcounty.asp|,255,nc-food-pantry-full,nc-food-pantry-full,255,http://content.foodbankcenc.org/about/zipcounty.asp,Loaves and Fishes Ministries Warren,538 West Ridgeway Street,,Warrenton,NC,27589,Hours: MTW 9am-3:30pm; clients must sign in by 2:30 pm to be served on that service day,Phone: 252-257-1160,Type: FOODPANTRY
webpage/url:http://content.foodbankcenc.org/about/zipcounty.asp|,256,nc-food-pantry-full,nc-food-pantry-full,256,http://content.foodbankcenc.org/about/zipcounty.asp,Loaves and Fishes Nash County,328 Hammond Street,,Rocky Mount,NC,27804,Hours: 2nd and 4th Friday 9:30am-11am,Phone: 252-972-0542 ex 206,Type: FOODPANTRY
webpage/url:http://content.foodbankcenc.org/about/zipcounty.asp|,257,nc-food-pantry-full,nc-food-pantry-full,257,http://content.foodbankcenc.org/about/zipcounty.asp,Loaves and Fishes of Beaufort,112 Straits Rd,,Beaufort,NC,28516,Hours: Tuesdays 10a,Phone: 252-241-3691,Type: FOODPANTRY
webpage/url:http://content.foodbankcenc.org/about/zipcounty.asp|,258,nc-food-pantry-full,nc-food-pantry-full,258,http://content.foodbankcenc.org/about/zipcounty.asp,London Missionary Baptist Church,3386 US HWY 158,,Roanoke Rapids,NC,27870,Hours: 3rd Saturday 9:30 a.m. to 11:30 a.m.,Phone: 252-578-3087,Type: FOODPANTRY
webpage/url:http://content.foodbankcenc.org/about/zipcounty.asp|,259,nc-food-pantry-full,nc-food-pantry-full,259,http://content.foodbankcenc.org/about/zipcounty.asp,Longview United Methodist,2312 Milburnie Road,,Raleigh,NC,27610,Hours: 2nd and 4th Wed 12:30-3:30 By appointment only,Phone: 919-834-7554,Type: FOODPANTRY
webpage/url:http://content.foodbankcenc.org/about/zipcounty.asp|,260,nc-food-pantry-full,nc-food-pantry-full,260,http://content.foodbankcenc.org/about/zipcounty.asp,Love of Christ Ministries,4308 Bus 17 N.E.,,Bolivia,NC,28422,Hours: 1st & 3rd Thur 12-2 2nd & 4th Thur 5-7,Phone: 910-253-4893,Type: FOODPANTRY
webpage/url:http://content.foodbankcenc.org/about/zipcounty.asp|,261,nc-food-pantry-full,nc-food-pantry-full,261,http://content.foodbankcenc.org/about/zipcounty.asp,Mama Js Helping Hand The Edge,2205 Highway 172,,Snead's Ferry,NC,28460,Hours: M 10a-4p; T 1p-5p; W 2p-8p; Th 10a-8p,Phone: 910-327-1302,Type: FOODPANTRY
webpage/url:http://content.foodbankcenc.org/about/zipcounty.asp|,262,nc-food-pantry-full,nc-food-pantry-full,262,http://content.foodbankcenc.org/about/zipcounty.asp,Manna,211 Trimble Plant Road,,Southern Pines,NC,28387,Hours: Tu/W/Th/Fri 11a-12p & W 12p-1p various locations,Phone: 910-315-1150 John,Type: SOUP KITCH
webpage/url:http://content.foodbankcenc.org/about/zipcounty.asp|,263,nc-food-pantry-full,nc-food-pantry-full,263,http://content.foodbankcenc.org/about/zipcounty.asp,Martha's Mission,901 Bay Street,,Morehead City,NC,28557,Hours: M W Th 10:30a-3:00p,Phone: 252-726-1717,Type: FOODPANTRY
webpage/url:http://content.foodbankcenc.org/about/zipcounty.asp|,264,nc-food-pantry-full,nc-food-pantry-full,264,http://content.foodbankcenc.org/about/zipcounty.asp,Mary Grove Missionary Baptist,6202 Wiggins Mill Road,,Lucama,NC,27851,Hours: 2nd and 4th Saturday from 10a-12p,Phone: 252-399-1171,Type: FOODPANTRY
webpage/url:http://content.foodbankcenc.org/about/zipcounty.asp|,265,nc-food-pantry-full,nc-food-pantry-full,265,http://content.foodbankcenc.org/about/zipcounty.asp,Marys Kitchen,110 N.Independence Street,,Kinston,NC,28501,Hours: 7 days a week from 10a-11:30a,Phone: 252-523-1013 kichen,Type: SOUP KITCH
webpage/url:http://content.foodbankcenc.org/about/zipcounty.asp|,266,nc-food-pantry-full,nc-food-pantry-full,266,http://content.foodbankcenc.org/about/zipcounty.asp,Maysville United Methodist Church,804 Foy Ave,,Maysville,NC,28555,Hours: 3rd Mon at 10a; Community Meal last W 5p-6:30p,Phone: 910-743-3691,Type: FOODPANTRY
webpage/url:http://content.foodbankcenc.org/about/zipcounty.asp|,267,nc-food-pantry-full,nc-food-pantry-full,267,http://content.foodbankcenc.org/about/zipcounty.asp,Memorial Baptist Church,1510 Greenville Blvd. SE,,Greenville,NC,27858,Hours: Tuesday 2p-3p,Phone: 252-452-3971,Type: FOODPANTRY
webpage/url:http://content.foodbankcenc.org/about/zipcounty.asp|,268,nc-food-pantry-full,nc-food-pantry-full,268,http://content.foodbankcenc.org/about/zipcounty.asp,Men and Women United for Youth and Families,44 Dream Ave,,Delco,NC,28436,Hours: Thur 1 until food is gone,Phone: 910-655-3811,Type: FOODPANTRY
webpage/url:http://content.foodbankcenc.org/about/zipcounty.asp|,269,nc-food-pantry-full,nc-food-pantry-full,269,http://content.foodbankcenc.org/about/zipcounty.asp,Middlesex Church of God Worship Center,5407 South NC 231,,Middlesex,NC,27557,Hours: Tues-Thur 9am-4pm and Fri 9am-1pm,Phone: 252-235-5885,Type: FOODPANTRY
webpage/url:http://content.foodbankcenc.org/about/zipcounty.asp|,270,nc-food-pantry-full,nc-food-pantry-full,270,http://content.foodbankcenc.org/about/zipcounty.asp,Milagros y Maravillas de Dios,711 West Noble,,Selma,NC,27576,Hours: Every Tuesday 11am-2pm,Phone: 919-798-4393 (c),Type: FOODPANTRY
webpage/url:http://content.foodbankcenc.org/about/zipcounty.asp|,271,nc-food-pantry-full,nc-food-pantry-full,271,http://content.foodbankcenc.org/about/zipcounty.asp,Millbrook United Methodist,1712 East Millbrook Rd.,,Raleigh,NC,27609,Hours: Monday Wednesday Saturday 10:00 am-12:00 pm,Phone: 919-876-0865,Type: FOODPANTRY
webpage/url:http://content.foodbankcenc.org/about/zipcounty.asp|,272,nc-food-pantry-full,nc-food-pantry-full,272,http://content.foodbankcenc.org/about/zipcounty.asp,Ministerio Bethel,622 Bragg St,,Sanford,NC,27330,Hours: Sat evenings 5:30pm-9pm and as needed by emergency,Phone: 919-721-5895,Type: FOODPANTRY
webpage/url:http://content.foodbankcenc.org/about/zipcounty.asp|,273,nc-food-pantry-full,nc-food-pantry-full,273,http://content.foodbankcenc.org/about/zipcounty.asp,Ministerio Evangelistico Uncion Final,2013 New Hope Church Rd,,Raleigh,NC,27604,Hours: Fri: 11:00 am - 12:00 pm Tue 11:00 am -12:00 pm & 8:00 pm - 9:00 pm,Phone: 919-986-2714 (noelia,Type: FOODPANTRY
webpage/url:http://content.foodbankcenc.org/about/zipcounty.asp|,274,nc-food-pantry-full,nc-food-pantry-full,274,http://content.foodbankcenc.org/about/zipcounty.asp,Ministerios Guerreros de JesCristo International,1800 N. Roxboro St.,,Durham,NC,27701,Hours: Monday 10:30am-noon; Wednesdays as needed,Phone: (919) 395-7539,Type: FOODPANTRY
webpage/url:http://content.foodbankcenc.org/about/zipcounty.asp|,275,nc-food-pantry-full,nc-food-pantry-full,275,http://content.foodbankcenc.org/about/zipcounty.asp,Ministries The Bread Of Life,925 Tyson Chapel Road,,Farmville,NC,27828,Hours: daily emergencies,Phone: 252-753-2381,Type: FOODPANTRY
webpage/url:http://content.foodbankcenc.org/about/zipcounty.asp|,276,nc-food-pantry-full,nc-food-pantry-full,276,http://content.foodbankcenc.org/about/zipcounty.asp,Mission Raleigh of Mt. Vernon,11610 Durant Rd.,,Raleigh,NC,27615,Hours: Thursday 11:30am - 1:00 pm,Phone: 919-606-4293,Type: FOODPANTRY
webpage/url:http://content.foodbankcenc.org/about/zipcounty.asp|,277,nc-food-pantry-full,nc-food-pantry-full,277,http://content.foodbankcenc.org/about/zipcounty.asp,Missions Ministries,1200 S. Caledonia Road,,Laurinburg,NC,28352,Hours: 1st Thurs 8a-10a,Phone: 910-277-9635 (cell),Type: SOUP KITCH
webpage/url:http://content.foodbankcenc.org/about/zipcounty.asp|,278,nc-food-pantry-full,nc-food-pantry-full,278,http://content.foodbankcenc.org/about/zipcounty.asp,Moncure UMC,1915 Old US 1,,Moncure,NC,27559,Hours: 2nd & 4th Sat 11:30am-2pm,Phone: 919-362-5370,Type: FOODPANTRY
webpage/url:http://content.foodbankcenc.org/about/zipcounty.asp|,279,nc-food-pantry-full,nc-food-pantry-full,279,http://content.foodbankcenc.org/about/zipcounty.asp,Montgomery Churches in Action,203 Church St.,,Biscoe,NC,27209,Hours: every Saturday 7:30a-9:30a,Phone: 910-428-4641-church,Type: FOODPANTRY
webpage/url:http://content.foodbankcenc.org/about/zipcounty.asp|,280,nc-food-pantry-full,nc-food-pantry-full,280,http://content.foodbankcenc.org/about/zipcounty.asp,More Love INC,4710 Old Page Road,,Durham,NC,27713,Hours: Tu-Th By Appointment only,Phone: 919-599-4192,Type: FOODPANTRY
webpage/url:http://content.foodbankcenc.org/about/zipcounty.asp|,281,nc-food-pantry-full,nc-food-pantry-full,281,http://content.foodbankcenc.org/about/zipcounty.asp,Morning Joy Church of God in Jesus Christ,326 South Main Street,,Franklinton,NC,27525,Hours: 1st and 3rd Mon and Wed 3pm-5:30pm,Phone: 919-340-1601,Type: FOODPANTRY
webpage/url:http://content.foodbankcenc.org/about/zipcounty.asp|,282,nc-food-pantry-full,nc-food-pantry-full,282,http://content.foodbankcenc.org/about/zipcounty.asp,Mother Hubbards Cupboard,221 N. 2nd St.,,Wilmington,NC,28401,Hours: MTWF Sat/1p-3p,Phone: 910-762-2199,Type: FOODPANTRY
webpage/url:http://content.foodbankcenc.org/about/zipcounty.asp|,283,nc-food-pantry-full,nc-food-pantry-full,283,http://content.foodbankcenc.org/about/zipcounty.asp,Mount Calvary Grace & Mercy,411 Watauga Avenue,,Greenville,NC,27834,Hours: 2/4 Sat from 12p-2p,Phone: 252-347-3523,Type: FOODPANTRY
webpage/url:http://content.foodbankcenc.org/about/zipcounty.asp|,284,nc-food-pantry-full,nc-food-pantry-full,284,http://content.foodbankcenc.org/about/zipcounty.asp,Mt. Bethel United Methodist,1605 Bahama Road,,Durham,NC,27503,Hours: 2nd and 4th Wednesday 5:30-7:00pm,Phone: 919-414-5407,Type: FOODPANTRY
webpage/url:http://content.foodbankcenc.org/about/zipcounty.asp|,285,nc-food-pantry-full,nc-food-pantry-full,285,http://content.foodbankcenc.org/about/zipcounty.asp,Mt. Carmel Inc. HELPS,2542 Onslow Drive,19 East Doris Street,Jacksonville,NC,28540,Hours: 7 days a week 5p-10p; emergency calls by appt,Phone: 910-265-7083,Type: FOODPANTRY
webpage/url:http://content.foodbankcenc.org/about/zipcounty.asp|,286,nc-food-pantry-full,nc-food-pantry-full,286,http://content.foodbankcenc.org/about/zipcounty.asp,Mt. Hebron Seventh Day Adventist Church,700 S. Pender Street,,Wilson,NC,27893,Hours: 4th Sunday from 1p-3p,Phone: 252-237-5026,Type: FOODPANTRY
webpage/url:http://content.foodbankcenc.org/about/zipcounty.asp|,287,nc-food-pantry-full,nc-food-pantry-full,287,http://content.foodbankcenc.org/about/zipcounty.asp,Mt. Level Community Haven,316 Hebron Road,,Durham,NC,27704,Hours: 2nd Tuesday and 4th Thursday of Each Month,Phone: 919-682-6466,Type: FOODPANTRY
webpage/url:http://content.foodbankcenc.org/about/zipcounty.asp|,288,nc-food-pantry-full,nc-food-pantry-full,288,http://content.foodbankcenc.org/about/zipcounty.asp,Mt. Moriah,168 Donmoor Ct.,,Garner,NC,27529,Hours: 2nd Friday 6pm - 8pm Sat 12pm - 3pm,Phone: 919-827-6252,Type: FOODPANTRY
webpage/url:http://content.foodbankcenc.org/about/zipcounty.asp|,289,nc-food-pantry-full,nc-food-pantry-full,289,http://content.foodbankcenc.org/about/zipcounty.asp,Mt. Zion Christian Church/ Henderson,995 Burr Street,,Henderson,NC,27536,Hours: Tues and Thurs 2-4pm,Phone: 252-430-7277x24 Mark,Type: FOODPANTRY
webpage/url:http://content.foodbankcenc.org/about/zipcounty.asp|,290,nc-food-pantry-full,nc-food-pantry-full,290,http://content.foodbankcenc.org/about/zipcounty.asp,Mt. Zion UCC/Rockingham,986 Ledbetter Road,,Rockingham,NC,28379,Hours: 2nd and 4th Wednesday,Phone: 910-895-5792,Type: FOODPANTRY
webpage/url:http://content.foodbankcenc.org/about/zipcounty.asp|,291,nc-food-pantry-full,nc-food-pantry-full,291,http://content.foodbankcenc.org/about/zipcounty.asp,Mt. Zion United Holy Church,405 Stronach Ave.,,Zebulon,NC,27597,Hours: Fridays 12-1,Phone: 919-227-6266,Type: SOUP KITCH
webpage/url:http://content.foodbankcenc.org/about/zipcounty.asp|,292,nc-food-pantry-full,nc-food-pantry-full,292,http://content.foodbankcenc.org/about/zipcounty.asp,My Father's House,543 Richardson Road,,Enfield,NC,27823,Hours: Mon Wed Fri 9am-12pm,Phone: 252-883-3614,Type: FOODPANTRY
webpage/url:http://content.foodbankcenc.org/about/zipcounty.asp|,293,nc-food-pantry-full,nc-food-pantry-full,293,http://content.foodbankcenc.org/about/zipcounty.asp,My Fathers House Food Pantry,115 W. 9th Street,,Greenville,NC,27834,Hours: Every Thursday from 5p-7p and 4th Sunday from 10a-1p,Phone: 252-320-2238,Type: FOODPANTRY
webpage/url:http://content.foodbankcenc.org/about/zipcounty.asp|,294,nc-food-pantry-full,nc-food-pantry-full,294,http://content.foodbankcenc.org/about/zipcounty.asp,Myrtle Grove,7547 Carolina Beach Road,,Wilmington,NC,28412,Hours: 1st & 3rd Tuesdays 10am-2pm,Phone: 910-228-8777,Type: FOODPANTRY
webpage/url:http://content.foodbankcenc.org/about/zipcounty.asp|,295,nc-food-pantry-full,nc-food-pantry-full,295,http://content.foodbankcenc.org/about/zipcounty.asp,N.C.A. Philip Randolph Inst.,1408 Hillsborough St.,,Raleigh,NC,27605,Hours: Mon-Fri 1:30-4:00 p.m.,Phone: 919-833-6671,Type: FOODPANTRY
webpage/url:http://content.foodbankcenc.org/about/zipcounty.asp|,296,nc-food-pantry-full,nc-food-pantry-full,296,http://content.foodbankcenc.org/about/zipcounty.asp,NC Family Training Counseling Cntr.,304 East Barbee Ave,,Zebulon,NC,27597,Hours: 3rd Tuesday 3-5pm,Phone: 919-604-1496,Type: FOODPANTRY
webpage/url:http://content.foodbankcenc.org/about/zipcounty.asp|,297,nc-food-pantry-full,nc-food-pantry-full,297,http://content.foodbankcenc.org/about/zipcounty.asp,NC Love In Action (LIA),238 South Tarboro St (office),1003 S Railroad St (dist site),Wilson,NC,27893,Hours: Every other Monday 8am-until/ 1st Wed 6pm-until,Phone: 252-291-9880,Type: FOODPANTRY
webpage/url:http://content.foodbankcenc.org/about/zipcounty.asp|,298,nc-food-pantry-full,nc-food-pantry-full,298,http://content.foodbankcenc.org/about/zipcounty.asp,Nelson Chapel Baptist Church,100 Leonard Farm Road,,Louisburg,NC,27549,Hours: 2nd and 4thTuesday 10am-12pm,Phone: 919-496-3873,Type: FOODPANTRY
webpage/url:http://content.foodbankcenc.org/about/zipcounty.asp|,299,nc-food-pantry-full,nc-food-pantry-full,299,http://content.foodbankcenc.org/about/zipcounty.asp,New Bethel Baptist Church,605 E. Young St.,,Rolesville,NC,27571,Hours: Monday 2pm-4 pmWed 10am-12pm 3rd Sat 11am-1pm,Phone: 919-556-2500,Type: FOODPANTRY
webpage/url:http://content.foodbankcenc.org/about/zipcounty.asp|,300,nc-food-pantry-full,nc-food-pantry-full,300,http://content.foodbankcenc.org/about/zipcounty.asp,New Birth Holiness Church,409 Dr Donnie Jones Jr Blvd,,Princeton,NC,27569,Hours: 1st and 3rd Saturday from 10am-11:30am,Phone: 919-502-9651,Type: FOODPANTRY
webpage/url:http://content.foodbankcenc.org/about/zipcounty.asp|,301,nc-food-pantry-full,nc-food-pantry-full,301,http://content.foodbankcenc.org/about/zipcounty.asp,New Covenant Christian Center,9460 Andrew Jackson Hwy,,Laurel Hill,NC,28351,Hours: 1st and 3rd Monday 2-4pm,Phone: 910-318-1098 cell,Type: FOODPANTRY
webpage/url:http://content.foodbankcenc.org/about/zipcounty.asp|,302,nc-food-pantry-full,nc-food-pantry-full,302,http://content.foodbankcenc.org/about/zipcounty.asp,New Creations Ministries,2694 General Howe Rd.,,Reiglewood,NC,28436,Hours: Thursday 3-5,Phone: 910-669-2018,Type: FOODPANTRY
webpage/url:http://content.foodbankcenc.org/about/zipcounty.asp|,303,nc-food-pantry-full,nc-food-pantry-full,303,http://content.foodbankcenc.org/about/zipcounty.asp,New Destiny Outreach,990 Cox Avenue,,Rocky Mount,NC,27801,Hours: W & F 10:00-1:00p,Phone: 252-977-7000,Type: FOODPANTRY
webpage/url:http://content.foodbankcenc.org/about/zipcounty.asp|,304,nc-food-pantry-full,nc-food-pantry-full,304,http://content.foodbankcenc.org/about/zipcounty.asp,New Elders Chapel,1555 South NC 11,,Magnolia,NC,28453,Hours: 1st Friday 10am-1pm,Phone: 910-285-8133,Type: FOODPANTRY
webpage/url:http://content.foodbankcenc.org/about/zipcounty.asp|,305,nc-food-pantry-full,nc-food-pantry-full,305,http://content.foodbankcenc.org/about/zipcounty.asp,New Freedom Christian,3540 Maitland Dr. Suite 105,,Raleigh,NC,27610,Hours: 1st & 4th Fridays 6pm-8 pm,Phone: 919-601-2352,Type: FOODPANTRY
webpage/url:http://content.foodbankcenc.org/about/zipcounty.asp|,306,nc-food-pantry-full,nc-food-pantry-full,306,http://content.foodbankcenc.org/about/zipcounty.asp,New Jerusalem Pentecostal,305 Madison Street,,Rocky Mount,NC,27802,Hours: 3rd Sat of every month from 12p -2p,Phone: 252-977-9365,Type: FOODPANTRY
webpage/url:http://content.foodbankcenc.org/about/zipcounty.asp|,307,nc-food-pantry-full,nc-food-pantry-full,307,http://content.foodbankcenc.org/about/zipcounty.asp,New Life Community Church,3115 Crittenden St.,,Holly Springs,NC,27540,Hours: Monday Wednesday & Thursday 2-4pm,Phone: 919-362-9100,Type: FOODPANTRY
webpage/url:http://content.foodbankcenc.org/about/zipcounty.asp|,308,nc-food-pantry-full,nc-food-pantry-full,308,http://content.foodbankcenc.org/about/zipcounty.asp,New Life Deliverance Ministry CDC,103 East Main Street,,Benson,NC,27504,Hours: 3rd Saturday 8am and as needed,Phone: 919-894-2208,Type: FOODPANTRY
webpage/url:http://content.foodbankcenc.org/about/zipcounty.asp|,309,nc-food-pantry-full,nc-food-pantry-full,309,http://content.foodbankcenc.org/about/zipcounty.asp,New Life Praise Church,2398 Wicker Street,,Sanford,NC,27330,Hours: 1st Friday 3rd Sat. 9-10am,Phone: 919-776-1877 church,Type: FOODPANTRY
webpage/url:http://content.foodbankcenc.org/about/zipcounty.asp|,310,nc-food-pantry-full,nc-food-pantry-full,310,http://content.foodbankcenc.org/about/zipcounty.asp,New Opportunities 2nd Chance,1005 Broad Street,,Durham,NC,27702,Hours: Public served every other Wed or as needed. Clients served 2nd and 4th Tues&Thurs,Phone: 919- 682-4771 office,Type: FOODPANTRY
webpage/url:http://content.foodbankcenc.org/about/zipcounty.asp|,311,nc-food-pantry-full,nc-food-pantry-full,311,http://content.foodbankcenc.org/about/zipcounty.asp,New Providence Missionary Baptist Church,4813 Hilltop Needmore Rd.,,Fuquay-Varina,NC,27526,Hours: 2nd & 3rd Sat 1:00 pm - 3:00 pm,Phone: 919-815-0944,Type: FOODPANTRY
webpage/url:http://content.foodbankcenc.org/about/zipcounty.asp|,312,nc-food-pantry-full,nc-food-pantry-full,312,http://content.foodbankcenc.org/about/zipcounty.asp,New St. Delight United Holy Ch,693 Suttontown Rd.,,Mt. Olive,NC,28365,Hours: Every Other Tuesday 1pm-3pm,Phone: 919-922-5305,Type: FOODPANTRY
webpage/url:http://content.foodbankcenc.org/about/zipcounty.asp|,313,nc-food-pantry-full,nc-food-pantry-full,313,http://content.foodbankcenc.org/about/zipcounty.asp,New Vision Christian Church,2102 Hobbton Hwy.,,Clinton,NC,28329,Hours: 3rd Saturday 11am-2pm and by emergency,Phone: 919-735-1256,Type: FOODPANTRY
webpage/url:http://content.foodbankcenc.org/about/zipcounty.asp|,314,nc-food-pantry-full,nc-food-pantry-full,314,http://content.foodbankcenc.org/about/zipcounty.asp,New Zion Ame Zion Church,4967 Highway 705,,Robbins,NC,27325,Hours: 1st Wednesday of the mon. 3pm-until Every Mon-Thurs. 10am-11:30am fresh produce distribution,Phone: 910-639-7382 cell,Type: FOODPANTRY
webpage/url:http://content.foodbankcenc.org/about/zipcounty.asp|,315,nc-food-pantry-full,nc-food-pantry-full,315,http://content.foodbankcenc.org/about/zipcounty.asp,North Carolina Poverty Coalition,309 Potts Rd,,Dudley,NC,28333,Hours: Tues & Thur 12pm-2pm,Phone: 919-581-1065,Type: FOODPANTRY
webpage/url:http://content.foodbankcenc.org/about/zipcounty.asp|,316,nc-food-pantry-full,nc-food-pantry-full,316,http://content.foodbankcenc.org/about/zipcounty.asp,North Haven Church,6620 Six Forks Road,,Raleigh,NC,27615,Hours: 3rd Sat 11 am - 1 pm,Phone: 919-847-4291,Type: FOODPANTRY
webpage/url:http://content.foodbankcenc.org/about/zipcounty.asp|,317,nc-food-pantry-full,nc-food-pantry-full,317,http://content.foodbankcenc.org/about/zipcounty.asp,Oak Grove Community Food Pantry,854 Oak Grove Mt. Zion Road,,Roxboro,NC,27574,Hours: 2nd Saturday in each month from 9:00-11:00am Last Friday Of Each Month From 5-7pm,Phone: 336-503-3992 Wanda,Type: FOODPANTRY
webpage/url:http://content.foodbankcenc.org/about/zipcounty.asp|,318,nc-food-pantry-full,nc-food-pantry-full,318,http://content.foodbankcenc.org/about/zipcounty.asp,Oak Grove UAFree Will Baptist ChurchInc,1008A Simmons St.,,Durham,NC,27701,Hours: Mon Tue 9a.m.-noon; Thurs 9:30am-12pm or by appt,Phone: 919-680-2927 pantry,Type: FOODPANTRY
webpage/url:http://content.foodbankcenc.org/about/zipcounty.asp|,319,nc-food-pantry-full,nc-food-pantry-full,319,http://content.foodbankcenc.org/about/zipcounty.asp,Oak Island Inter Church,249 West Boiling Spring Road,,Boiling Spring Lakes,NC,28461,Hours: Tuesday 9-12 am Thursday 6-7:30pm Saturday 9-12am,Phone: 910-845-2320 pantry,Type: FOODPANTRY
webpage/url:http://content.foodbankcenc.org/about/zipcounty.asp|,320,nc-food-pantry-full,nc-food-pantry-full,320,http://content.foodbankcenc.org/about/zipcounty.asp,Oak Level Christian Church,2279 Cedar Creek Road,,Youngsville,NC,27596,Hours: Every Wednsday 11am-12pm,Phone: 919-554-4451,Type: FOODPANTRY
webpage/url:http://content.foodbankcenc.org/about/zipcounty.asp|,321,nc-food-pantry-full,nc-food-pantry-full,321,http://content.foodbankcenc.org/about/zipcounty.asp,On Fire for God(OFFG),116 North Mineral Springs Road,,Durham,NC,27703,Hours: Tuesday-Friday 10am-12:30pm,Phone: 919-627-4693,Type: FOODPANTRY
webpage/url:http://content.foodbankcenc.org/about/zipcounty.asp|,322,nc-food-pantry-full,nc-food-pantry-full,322,http://content.foodbankcenc.org/about/zipcounty.asp,One Love Ministries,1210 Horton Road,,Durham,NC,27704,Hours: wed from 6pm until 7:00pm Sunday from 9am until 11am then 1:30pm until 2:30pm,Phone: 919-688-2163,Type: FOODPANTRY
webpage/url:http://content.foodbankcenc.org/about/zipcounty.asp|,323,nc-food-pantry-full,nc-food-pantry-full,323,http://content.foodbankcenc.org/about/zipcounty.asp,ONeal Revival Tabernacle,500 Richardson Road,,Zebulon,NC,27597,Hours: Every 2nd Saturday 12pm-2pm,Phone: 919-375-4275,Type: FOODPANTRY
webpage/url:http://content.foodbankcenc.org/about/zipcounty.asp|,324,nc-food-pantry-full,nc-food-pantry-full,324,http://content.foodbankcenc.org/about/zipcounty.asp,Onslow Community Ministries Jacksonville,600 Court Street,,Jacksonville,NC,28540,Hours: 2nd M 10a; 2nd M 10a; Soup kitchen M-Th 10:30a-11:30a,Phone: 910-455-5733,Type: SHELTER
webpage/url:http://content.foodbankcenc.org/about/zipcounty.asp|,325,nc-food-pantry-full,nc-food-pantry-full,325,http://content.foodbankcenc.org/about/zipcounty.asp,Open Door Baptist Church,9801 Durant Rd.,,Raleigh,NC,27614,Hours: Tues 5:30 pm - 6:30 pm  Saturday 11:00 am - 12:00 pm Sunday 4:30 pm - 5:30 pm,Phone: 919.847.6969,Type: FOODPANTRY
webpage/url:http://content.foodbankcenc.org/about/zipcounty.asp|,326,nc-food-pantry-full,nc-food-pantry-full,326,http://content.foodbankcenc.org/about/zipcounty.asp,Open Door Management Inc,1675 Halltown Road,,Jacksonville,NC,28546,Hours: Mondays from 1p-4p and emergency calls,Phone: 910-577-4175,Type: FOODPANTRY
webpage/url:http://content.foodbankcenc.org/about/zipcounty.asp|,327,nc-food-pantry-full,nc-food-pantry-full,327,http://content.foodbankcenc.org/about/zipcounty.asp,Open Door Ministry of Faith Deliverance Center Inc.,740 Planters Street,,Rocky Mount,NC,27801,Hours: 2&4 Fri. 12:00 am - 1:00 pm,Phone: 252-446-1194,Type: FOODPANTRY
webpage/url:http://content.foodbankcenc.org/about/zipcounty.asp|,328,nc-food-pantry-full,nc-food-pantry-full,328,http://content.foodbankcenc.org/about/zipcounty.asp,Optimal Beginnings Inc,1003 Fred Harrison Road,,Snow Hill,NC,28580,Hours: Monday Tues Thus and Friday 9a-12p and Wed 9a-5p,Phone: 252-933-2307,Type: FOODPANTRY
webpage/url:http://content.foodbankcenc.org/about/zipcounty.asp|,329,nc-food-pantry-full,nc-food-pantry-full,329,http://content.foodbankcenc.org/about/zipcounty.asp,Orange Congregations Mission,300 Millstone Drive,,Hillsborough,NC,27278,Hours: Mon-Fri 9am-5pm,Phone: 919-732-6194 x12,Type: FOODPANTRY
webpage/url:http://content.foodbankcenc.org/about/zipcounty.asp|,330,nc-food-pantry-full,nc-food-pantry-full,330,http://content.foodbankcenc.org/about/zipcounty.asp,Our Daily Bread Christian Food Ministries Inc.,400 East Washington Street,,Rockingham,NC,28379,Hours: Tuesday/Wednesday/Thursday-9:30am-12:30pm,Phone: 910-895-3536 debbie,Type: FOODPANTRY
webpage/url:http://content.foodbankcenc.org/about/zipcounty.asp|,331,nc-food-pantry-full,nc-food-pantry-full,331,http://content.foodbankcenc.org/about/zipcounty.asp,Our Daily Bread/Franklinton United Methodist Church,109 N. Main Street,,Franklinton,NC,27525,Hours: Monday 11:30am-12:30pm,Phone: 919-270-1857,Type: SOUP KITCH
webpage/url:http://content.foodbankcenc.org/about/zipcounty.asp|,332,nc-food-pantry-full,nc-food-pantry-full,332,http://content.foodbankcenc.org/about/zipcounty.asp,Outreach Community Center Inc.,811 Carver Place,,Rocky Mount,NC,27801,Hours: Wed-Sat 12:30-2:30,Phone: 252-314-6677,Type: FOODPANTRY
webpage/url:http://content.foodbankcenc.org/about/zipcounty.asp|,333,nc-food-pantry-full,nc-food-pantry-full,333,http://content.foodbankcenc.org/about/zipcounty.asp,Outreach for Jesus,440 Battley Dairy Road,,Hamlet,NC,28345,Hours: Thurs 3-4pm,Phone: 910-206-2959 cell,Type: FOODPANTRY
webpage/url:http://content.foodbankcenc.org/about/zipcounty.asp|,334,nc-food-pantry-full,nc-food-pantry-full,334,http://content.foodbankcenc.org/about/zipcounty.asp,Page United Methodist Church,110 Knight Street,,Aberdeen,NC,28315,Hours: Mon-Fri 10am-1pm,Phone: 910-944-1093 church,Type: FOODPANTRY
webpage/url:http://content.foodbankcenc.org/about/zipcounty.asp|,335,nc-food-pantry-full,nc-food-pantry-full,335,http://content.foodbankcenc.org/about/zipcounty.asp,Page United Methodist Soup Kitchen,1045 Poplar St,,Aberdeen,NC,28315,Hours: Monday and Tuesday 11am-12:30pm,Phone: 910.944.1093 (church),Type: SOUP KITCH
webpage/url:http://content.foodbankcenc.org/about/zipcounty.asp|,336,nc-food-pantry-full,nc-food-pantry-full,336,http://content.foodbankcenc.org/about/zipcounty.asp,Pamlico County Fishes & Loaves,1149 White Farm Road,,Oriental,NC,28571,Hours: T & Th 11a-4p; 1st F 4p-7p,Phone: 252-249-7297,Type: FOODPANTRY
webpage/url:http://content.foodbankcenc.org/about/zipcounty.asp|,337,nc-food-pantry-full,nc-food-pantry-full,337,http://content.foodbankcenc.org/about/zipcounty.asp,Paradise Outreach Ministries Inc,908 West Star Street,,Greenville,NC,27834,Hours: Every 2nd and 3rd Sunday from 2p-3p and every 2nd and 3rd Tuesday from 6-8p,Phone: 252-355-1300x304,Type: FOODPANTRY
webpage/url:http://content.foodbankcenc.org/about/zipcounty.asp|,338,nc-food-pantry-full,nc-food-pantry-full,338,http://content.foodbankcenc.org/about/zipcounty.asp,Park East Church of God,3913 McLain St.,,Goldsboro,NC,27534,Hours: Every Sat 9am-11am,Phone: 252-566-3204,Type: FOODPANTRY
webpage/url:http://content.foodbankcenc.org/about/zipcounty.asp|,339,nc-food-pantry-full,nc-food-pantry-full,339,http://content.foodbankcenc.org/about/zipcounty.asp,Pathway Outreach Center Inc.,311 Branch St.,,Elm City,NC,27822,Hours: Sat. 9a-12noo,Phone: 252-236-3019,Type: FOODPANTRY
webpage/url:http://content.foodbankcenc.org/about/zipcounty.asp|,340,nc-food-pantry-full,nc-food-pantry-full,340,http://content.foodbankcenc.org/about/zipcounty.asp,Pee Dee Baptist Association,Village PLaza Hwy 74E,1219 (Rockingham Road),Rockingham,NC,28380,Hours: Monday - Thursday 9:00 a.m. - 3:00 p.m.,Phone: 910-895-5282,Type: FOODPANTRY
webpage/url:http://content.foodbankcenc.org/about/zipcounty.asp|,341,nc-food-pantry-full,nc-food-pantry-full,341,http://content.foodbankcenc.org/about/zipcounty.asp,Peletah Ministries,2305 Neuse Blvd,,New Bern,NC,28560,Hours: 2nd & 4th W 6p-7p,Phone: 252-675-3591,Type: SOUP KITCH
webpage/url:http://content.foodbankcenc.org/about/zipcounty.asp|,342,nc-food-pantry-full,nc-food-pantry-full,342,http://content.foodbankcenc.org/about/zipcounty.asp,Pender County Christian Services,102 E. Wilmington Street,,Burgaw,NC,28425,Hours: M-Fr 10am-2:30pm; TEFAP 2nd & 4th Fri 9:00,Phone: 910-259-2581 (H),Type: FOODPANTRY
webpage/url:http://content.foodbankcenc.org/about/zipcounty.asp|,343,nc-food-pantry-full,nc-food-pantry-full,343,http://content.foodbankcenc.org/about/zipcounty.asp,Pentecostal Assembly of Jesus Christ,397 Eastman Road,,Southern Pines,NC,28387,Hours: Tuesday11:30am-1:30pm Thursday 12:300pm-1:30pm emrg. asst. as needed weekly,Phone: 910-692-3574 church,Type: FOODPANTRY
webpage/url:http://content.foodbankcenc.org/about/zipcounty.asp|,344,nc-food-pantry-full,nc-food-pantry-full,344,http://content.foodbankcenc.org/about/zipcounty.asp,Pentecostal Temple Holy Church of Deliverance,2753 W. 5th Street,,Greenville,NC,27834,Hours: 1st 2nd and 3rd Thursday from 2p-4p with a 4th Thursday TEFAP dist only.,Phone: 252-752-6951,Type: FOODPANTRY
webpage/url:http://content.foodbankcenc.org/about/zipcounty.asp|,345,nc-food-pantry-full,nc-food-pantry-full,345,http://content.foodbankcenc.org/about/zipcounty.asp,Pentecostal Victory Temple,18074 Highway 64 West,,Siler City,NC,27344,Hours: M-SAT 1:00pm-until finished; TEFAP distributed once a month Truck every 3rd Tuesday,Phone: 919-742-5727 (church),Type: SOUP KITCH
webpage/url:http://content.foodbankcenc.org/about/zipcounty.asp|,346,nc-food-pantry-full,nc-food-pantry-full,346,http://content.foodbankcenc.org/about/zipcounty.asp,Pete Norris Ministries Inc. / Harvest Fellowship Church,126 W. Walnut Street,,Goldsboro,NC,27533,Hours: MTuTh/8:30a-10:00a every two weeks,Phone: 919-736-2909,Type: SOUP KITCH
webpage/url:http://content.foodbankcenc.org/about/zipcounty.asp|,347,nc-food-pantry-full,nc-food-pantry-full,347,http://content.foodbankcenc.org/about/zipcounty.asp,Philippi Church of Christ,3760 Philippi Drive,,Greenville,NC,27834,Hours: Mon through Sat 11:30a-12:30p and 2nd Wed 8a-10a (A-M) and 3rd Wed 8a-10a (N-Z),Phone: 252-551-6132,Type: FOODPANTRY
webpage/url:http://content.foodbankcenc.org/about/zipcounty.asp|,348,nc-food-pantry-full,nc-food-pantry-full,348,http://content.foodbankcenc.org/about/zipcounty.asp,Pilarim Way of the Cross,316 East 16th Street,,Scotland Neck,NC,27874,Hours: every 3rd Sat. 9a-11a,Phone: 252-826-5489,Type: FOODPANTRY
webpage/url:http://content.foodbankcenc.org/about/zipcounty.asp|,349,nc-food-pantry-full,nc-food-pantry-full,349,http://content.foodbankcenc.org/about/zipcounty.asp,Pine Grove Baptist Church,1624 HWY 56,,Creedmoor,NC,27522,Hours: 1st & 3rd Thursday/month 12-2pm; limit one visit/month,Phone: 919-671-4335 Sandra Cell,Type: FOODPANTRY
webpage/url:http://content.foodbankcenc.org/about/zipcounty.asp|,350,nc-food-pantry-full,nc-food-pantry-full,350,http://content.foodbankcenc.org/about/zipcounty.asp,Pinebluff United Methodist Men and Pinebluff Lions Club,US #1 Walnut Street,,Pinebluff,NC,28373,Hours: Third Saturday of each month 7:30-10 a.m. Monday deliveries only,Phone: 910-281-4479 Robert,Type: FOODPANTRY
webpage/url:http://content.foodbankcenc.org/about/zipcounty.asp|,351,nc-food-pantry-full,nc-food-pantry-full,351,http://content.foodbankcenc.org/about/zipcounty.asp,Pleasant Acres Free Will Baptist Church,2911 Old Cherry Point Road,,New Bern,NC,28560,Hours: T & Th 10a-2p,Phone: 252-637-2704,Type: FOODPANTRY
webpage/url:http://content.foodbankcenc.org/about/zipcounty.asp|,352,nc-food-pantry-full,nc-food-pantry-full,352,http://content.foodbankcenc.org/about/zipcounty.asp,Pleasant Grove Baptist Church,952 Morphus Bridge Rd.,,Wendell,NC,27591,Hours: 1st & 3rd Tuesday 10 a.m. - 11a.m. 1st & 3rd Wednesday 5 p.m. - 6 p.m. 5th Tues 10am-11am,Phone: 919-366-1567,Type: FOODPANTRY
webpage/url:http://content.foodbankcenc.org/about/zipcounty.asp|,353,nc-food-pantry-full,nc-food-pantry-full,353,http://content.foodbankcenc.org/about/zipcounty.asp,Poplar Springs United Church of Christ,6115 Old Stage Road,,Raleigh,NC,27603,Hours: 1st Tuesday of each month 11:00a.m.-1:00p.m.& by appointment,Phone: 919-772-5151,Type: FOODPANTRY
webpage/url:http://content.foodbankcenc.org/about/zipcounty.asp|,354,nc-food-pantry-full,nc-food-pantry-full,354,http://content.foodbankcenc.org/about/zipcounty.asp,Positive Directions- The Resource Center,Jacksontown Road,,Manson,NC,27553,Hours: Third Saturday 9am-12pm,Phone:,Type: FOODPANTRY
webpage/url:http://content.foodbankcenc.org/about/zipcounty.asp|,355,nc-food-pantry-full,nc-food-pantry-full,355,http://content.foodbankcenc.org/about/zipcounty.asp,Potter's House Ministries Worship Center,311 North Main Street,,Four Oaks,NC,27524,Hours: Wednesday 10:00am - 12:00pm,Phone: 919-963-6800,Type: FOODPANTRY
webpage/url:http://content.foodbankcenc.org/about/zipcounty.asp|,356,nc-food-pantry-full,nc-food-pantry-full,356,http://content.foodbankcenc.org/about/zipcounty.asp,Praise Worship Tabernacle,1516 Bethel Rd,,Raleigh,NC,27610,Hours: Fridays 6p-7p and as needed for emergencies,Phone: 919-231-7188,Type: FOODPANTRY
webpage/url:http://content.foodbankcenc.org/about/zipcounty.asp|,357,nc-food-pantry-full,nc-food-pantry-full,357,http://content.foodbankcenc.org/about/zipcounty.asp,Prayer and Faith Temple Church,NULL,217 Lackey Street,Hamlet,NC,28345,Hours: Tuesday 10am-12,Phone: 910-334-6656 cell Annette,Type: FOODPANTRY
webpage/url:http://content.foodbankcenc.org/about/zipcounty.asp|,358,nc-food-pantry-full,nc-food-pantry-full,358,http://content.foodbankcenc.org/about/zipcounty.asp,Progressive Teamwork Outreach,116 Horton St.,,Zebulon,NC,27597,Hours: Sat 9-11am and as needed,Phone: 919-395-8253,Type: FOODPANTRY
webpage/url:http://content.foodbankcenc.org/about/zipcounty.asp|,359,nc-food-pantry-full,nc-food-pantry-full,359,http://content.foodbankcenc.org/about/zipcounty.asp,Project Anna Inc.,340 Briley Road,,Greenville,NC,27834,Hours: Wed. 5p-8p and Sat. 10a-12p,Phone: 252-717-7858,Type: FOODPANTRY
webpage/url:http://content.foodbankcenc.org/about/zipcounty.asp|,360,nc-food-pantry-full,nc-food-pantry-full,360,http://content.foodbankcenc.org/about/zipcounty.asp,Raleigh Rescue Mission,314 E. Hargett Street,,Raleigh,NC,27601,Hours: 24/7,Phone: 919-828-9014 ext 131,Type: SHELTER
webpage/url:http://content.foodbankcenc.org/about/zipcounty.asp|,361,nc-food-pantry-full,nc-food-pantry-full,361,http://content.foodbankcenc.org/about/zipcounty.asp,Raleigh Vineyard Christian Fellowship,6894 Litchford Rd,,Raleigh,NC,27615,Hours: 2nd and 4th Sat of every month 10a-12 pm,Phone: 919-790-0001,Type: FOODPANTRY
webpage/url:http://content.foodbankcenc.org/about/zipcounty.asp|,362,nc-food-pantry-full,nc-food-pantry-full,362,http://content.foodbankcenc.org/about/zipcounty.asp,Recruiters for Christ Church,931 Red Hill Church Road,,Dunn,NC,28334,Hours: Wed 3pm-6pm,Phone: 910-897-8356,Type: FOODPANTRY
webpage/url:http://content.foodbankcenc.org/about/zipcounty.asp|,363,nc-food-pantry-full,nc-food-pantry-full,363,http://content.foodbankcenc.org/about/zipcounty.asp,Reelsboro United Christian Svc,51 Holland Drive,,New Bern,NC,28560,Hours: every Thursday,Phone: 252-633-4721,Type: FOODPANTRY
webpage/url:http://content.foodbankcenc.org/about/zipcounty.asp|,364,nc-food-pantry-full,nc-food-pantry-full,364,http://content.foodbankcenc.org/about/zipcounty.asp,Refreshing Springs Church,1040 Hill Street,,Rocky Mount,NC,27801,Hours: 1st and 3rd Wednesdays,Phone: 252-985-2726,Type: FOODPANTRY
webpage/url:http://content.foodbankcenc.org/about/zipcounty.asp|,365,nc-food-pantry-full,nc-food-pantry-full,365,http://content.foodbankcenc.org/about/zipcounty.asp,Regeneration Development Group Inc.,107 N.E. 1st Street,,Pinetops,NC,27864,Hours: 4th Sat 10a-12p,Phone: 252-827-1800,Type: FOODPANTRY
webpage/url:http://content.foodbankcenc.org/about/zipcounty.asp|,366,nc-food-pantry-full,nc-food-pantry-full,366,http://content.foodbankcenc.org/about/zipcounty.asp,Religious Community Services,919 George Street,,New Bern,NC,28560,Hours: Mon-Fri 12:30p-2:30p,Phone: 252-633-2767,Type: FOODPANTRY
webpage/url:http://content.foodbankcenc.org/about/zipcounty.asp|,367,nc-food-pantry-full,nc-food-pantry-full,367,http://content.foodbankcenc.org/about/zipcounty.asp,Restoring Hope Center,507 Warren Street,,Laurinburg,NC,28352,Hours: Monday Tuesday Friday 8:30am-11am,Phone: 910-276-4460,Type: FOODPANTRY
webpage/url:http://content.foodbankcenc.org/about/zipcounty.asp|,368,nc-food-pantry-full,nc-food-pantry-full,368,http://content.foodbankcenc.org/about/zipcounty.asp,Richlands Community Outreach Ministry,8701 Richlands Highway,,Richlands,NC,28574,Hours: M T Th F 10a-2p; Sat 9a-3p,Phone: 910-324-6586,Type: FOODPANTRY
webpage/url:http://content.foodbankcenc.org/about/zipcounty.asp|,369,nc-food-pantry-full,nc-food-pantry-full,369,http://content.foodbankcenc.org/about/zipcounty.asp,Richmond Cnty Enrichment Corp,P.O. Box 160,,Rockingham,NC,28380,Hours: emergencies direct distribution,Phone: 910-997-3316,Type: SOUP KITCH
webpage/url:http://content.foodbankcenc.org/about/zipcounty.asp|,370,nc-food-pantry-full,nc-food-pantry-full,370,http://content.foodbankcenc.org/about/zipcounty.asp,Right Start,516 Union Church Rd,,Carthage,NC,28327,Hours: 2nd and 4th Wed 6pm-8pm,Phone: 910-947-3188,Type: FOODPANTRY
webpage/url:http://content.foodbankcenc.org/about/zipcounty.asp|,371,nc-food-pantry-full,nc-food-pantry-full,371,http://content.foodbankcenc.org/about/zipcounty.asp,Riley Hill Family Life Center,5901 Riley Hill Rd.,,Wendell,NC,27591,Hours: 2nd &4th Tuesday 2:00 pm - 2:30pm,Phone: 919-365-5277,Type: FOODPANTRY
webpage/url:http://content.foodbankcenc.org/about/zipcounty.asp|,372,nc-food-pantry-full,nc-food-pantry-full,372,http://content.foodbankcenc.org/about/zipcounty.asp,RLD Youth Center Inc.,502 Jordan Street,,Wilson,NC,27893,Hours: Monday-Thursday 12pm-3pm,Phone: 252-363-4618,Type: FOODPANTRY
webpage/url:http://content.foodbankcenc.org/about/zipcounty.asp|,373,nc-food-pantry-full,nc-food-pantry-full,373,http://content.foodbankcenc.org/about/zipcounty.asp,Robbins Area Christian Ministries,120 S. Middleton Street,,Robbins,NC,27325,Hours: T Th Sat 10a-2p,Phone: 910-464-3700 work,Type: FOODPANTRY
webpage/url:http://content.foodbankcenc.org/about/zipcounty.asp|,374,nc-food-pantry-full,nc-food-pantry-full,374,http://content.foodbankcenc.org/about/zipcounty.asp,Rock Ministry Inc.,NULL,,Garland,NC,28441,Hours: 1st 3rd and 4th Thursday and 2nd Friday of the month 12pm-3pm,Phone: 910-379-5985,Type: FOODPANTRY
webpage/url:http://content.foodbankcenc.org/about/zipcounty.asp|,375,nc-food-pantry-full,nc-food-pantry-full,375,http://content.foodbankcenc.org/about/zipcounty.asp,Rockingham District Partnership in Ministry,NULL,12 3rd street east,East Laurinburg,NC,28343,Hours: 2nd and 4th Saturday from 9am-12pm,Phone: 910.277-3355,Type: FOODPANTRY
webpage/url:http://content.foodbankcenc.org/about/zipcounty.asp|,376,nc-food-pantry-full,nc-food-pantry-full,376,http://content.foodbankcenc.org/about/zipcounty.asp,Rockingham Spanish SDA Church,136 Eason Drive,,Rockingham,NC,28379,Hours: Every Wednesday 6pm,Phone: 910-997-5011 speaks english,Type: FOODPANTRY
webpage/url:http://content.foodbankcenc.org/about/zipcounty.asp|,377,nc-food-pantry-full,nc-food-pantry-full,377,http://content.foodbankcenc.org/about/zipcounty.asp,Rocky Mount Church of the Nazerene,1530 Hunter Hill Road,,Rocky Mount,NC,27804,Hours: Every Monday from 10-12pm,Phone: 252-937-4436,Type: FOODPANTRY
webpage/url:http://content.foodbankcenc.org/about/zipcounty.asp|,378,nc-food-pantry-full,nc-food-pantry-full,378,http://content.foodbankcenc.org/about/zipcounty.asp,Rose Hill Free Will Baptist Church,6236 County Road,,Winterville,NC,28590,Hours: Monday through Thursday 9a-12p,Phone: 252-746-2415,Type: FOODPANTRY
webpage/url:http://content.foodbankcenc.org/about/zipcounty.asp|,379,nc-food-pantry-full,nc-food-pantry-full,379,http://content.foodbankcenc.org/about/zipcounty.asp,Rougemont Food Pantry,8009 Bunny Road,,Rougemont,NC,27572,Hours: NULL,Phone: 615-972-6495,Type: FOODPANTRY
webpage/url:http://content.foodbankcenc.org/about/zipcounty.asp|,380,nc-food-pantry-full,nc-food-pantry-full,380,http://content.foodbankcenc.org/about/zipcounty.asp,Roxboro Church of God,1415 N. Main Street,,Roxboro,NC,27573,Hours: 4th Thursday/month 1-2pm (just TEFAP),Phone: 336-598-2419 cell,Type: FOODPANTRY
webpage/url:http://content.foodbankcenc.org/about/zipcounty.asp|,381,nc-food-pantry-full,nc-food-pantry-full,381,http://content.foodbankcenc.org/about/zipcounty.asp,Russell Memorial CME Church,703 S. Alston Avenue,,Durham,NC,27701,Hours: MWF/10am-12pm; limit 1x/month; bring picture ID,Phone: 919-682-2523 church,Type: FOODPANTRY
webpage/url:http://content.foodbankcenc.org/about/zipcounty.asp|,382,nc-food-pantry-full,nc-food-pantry-full,382,http://content.foodbankcenc.org/about/zipcounty.asp,S.A.F.E. Lenoir County,confidential,,Kinston,NC,28504,Hours: 24 HOURS/7 days/week,Phone: 252-523-5573,Type: SHELTER
webpage/url:http://content.foodbankcenc.org/about/zipcounty.asp|,383,nc-food-pantry-full,nc-food-pantry-full,383,http://content.foodbankcenc.org/about/zipcounty.asp,S.A.F.E. of Harnett County,Confidential,,NULL,NC,,Hours: 24 hours per day 7 days/week,Phone: 910-893-7233,Type: SHELTER
webpage/url:http://content.foodbankcenc.org/about/zipcounty.asp|,384,nc-food-pantry-full,nc-food-pantry-full,384,http://content.foodbankcenc.org/about/zipcounty.asp,Safe Haven of Person County,119 S. Main Street,(admin office),Roxboro,NC,27573,Hours: 24/7,Phone: 336-597-8699,Type: SHELTER
webpage/url:http://content.foodbankcenc.org/about/zipcounty.asp|,385,nc-food-pantry-full,nc-food-pantry-full,385,http://content.foodbankcenc.org/about/zipcounty.asp,Saints Delight Church of God in Christ,327 Crawford Street,,Bethel,NC,27812,Hours: every last Thursday from 9a-12p,Phone: 252-695-0486,Type: FOODPANTRY
webpage/url:http://content.foodbankcenc.org/about/zipcounty.asp|,386,nc-food-pantry-full,nc-food-pantry-full,386,http://content.foodbankcenc.org/about/zipcounty.asp,Saints Delight United Church,4185 Hwy 401 South,,Louisburg,NC,,Hours: Every Saturday 10 -1pm and Wensday 11:30am-12:30pm,Phone: 919-453-4691,Type: FOODPANTRY
webpage/url:http://content.foodbankcenc.org/about/zipcounty.asp|,387,nc-food-pantry-full,nc-food-pantry-full,387,http://content.foodbankcenc.org/about/zipcounty.asp,Salem Chapel Missionary Baptist Church,1992 Fishing Creek Rd,,Tarboro,NC,27806,Hours: Monday 10am-12:30pm and Saturday 9:30am-12:00pm,Phone: 252-563-5796,Type: FOODPANTRY
webpage/url:http://content.foodbankcenc.org/about/zipcounty.asp|,388,nc-food-pantry-full,nc-food-pantry-full,388,http://content.foodbankcenc.org/about/zipcounty.asp,Salvation and Deliverance Church,4402 Northwest Road,,Leland,NC,28451,Hours: 3rd Thur & 4th Sat 9-1,Phone: 910-655-3261,Type: FOODPANTRY
webpage/url:http://content.foodbankcenc.org/about/zipcounty.asp|,389,nc-food-pantry-full,nc-food-pantry-full,389,http://content.foodbankcenc.org/about/zipcounty.asp,Salvation Army - Dunn,P.O. Box 805,,Smithfield,NC,27577,Hours: Monday Wednsday Friday 9am-4:30pm,Phone: 910-892-2902,Type: FOODPANTRY
webpage/url:http://content.foodbankcenc.org/about/zipcounty.asp|,390,nc-food-pantry-full,nc-food-pantry-full,390,http://content.foodbankcenc.org/about/zipcounty.asp,Salvation Army Carteret Co,1700 Arendell Street,,Morehead City,NC,28557,Hours: Monday through Friday from 9a-5p,Phone: 252-726-7147,Type: FOODPANTRY
webpage/url:http://content.foodbankcenc.org/about/zipcounty.asp|,391,nc-food-pantry-full,nc-food-pantry-full,391,http://content.foodbankcenc.org/about/zipcounty.asp,Salvation Army- Maysville,510 Main Street,,Maysville,NC,28555,Hours: M W F from 9a-4p,Phone: 910-743-0126,Type: FOODPANTRY
webpage/url:http://content.foodbankcenc.org/about/zipcounty.asp|,392,nc-food-pantry-full,nc-food-pantry-full,392,http://content.foodbankcenc.org/about/zipcounty.asp,Salvation Army of Lee County,507 N. Steele St.,,Sanford,NC,27330,Hours: Mon-Thurs. 9am-2:30pm,Phone: 919-718-1717 office,Type: FOODPANTRY
webpage/url:http://content.foodbankcenc.org/about/zipcounty.asp|,393,nc-food-pantry-full,nc-food-pantry-full,393,http://content.foodbankcenc.org/about/zipcounty.asp,Salvation Army/Wilson,316 S. Tarboro Street,,Wilson,NC,27893,Hours: Tues Wen Thur 9am-12pm; Afteernoon as needed,Phone: 252-243-2696 ex 203,Type: FOODPANTRY
webpage/url:http://content.foodbankcenc.org/about/zipcounty.asp|,394,nc-food-pantry-full,nc-food-pantry-full,394,http://content.foodbankcenc.org/about/zipcounty.asp,Salvation Army-Durham,909 Liberty Street,,Durham,NC,27701,Hours: Mon- Fri 8a.m.-5pm,Phone: 919-688-7306,Type: FOODPANTRY
webpage/url:http://content.foodbankcenc.org/about/zipcounty.asp|,395,nc-food-pantry-full,nc-food-pantry-full,395,http://content.foodbankcenc.org/about/zipcounty.asp,Salvation Army-Goldsboro,610 N. William Street,,Goldsboro,NC,27530,Hours: Mon-Fri 8:30-4:30,Phone: 919-735-4811,Type: SHELTER
webpage/url:http://content.foodbankcenc.org/about/zipcounty.asp|,396,nc-food-pantry-full,nc-food-pantry-full,396,http://content.foodbankcenc.org/about/zipcounty.asp,Salvation Army-Greenville,2337 Dickinson Avenue,,Greenville,NC,27834,Hours: Monday -Thurs from 1p-4:00p all others by appointment only,Phone: 252-756-3388,Type: FOODPANTRY
webpage/url:http://content.foodbankcenc.org/about/zipcounty.asp|,397,nc-food-pantry-full,nc-food-pantry-full,397,http://content.foodbankcenc.org/about/zipcounty.asp,Salvation Army-Henderson,355 Alexander Ave.,,Henderson,NC,27536,Hours: Tues. Wed. Thur. 1-3:30pm; Wed. Thur. 9am-12pm; also helps with rent and utility assitance; clothing vouchers too,Phone: 252-438-7107,Type: FOODPANTRY
webpage/url:http://content.foodbankcenc.org/about/zipcounty.asp|,398,nc-food-pantry-full,nc-food-pantry-full,398,http://content.foodbankcenc.org/about/zipcounty.asp,Salvation Army-Jacksonville,535 Bell Fork Road,,Jacksonville,NC,28546,Hours: M-F/9a-3:30p,Phone: 910-346-8800,Type: FOODPANTRY
webpage/url:http://content.foodbankcenc.org/about/zipcounty.asp|,399,nc-food-pantry-full,nc-food-pantry-full,399,http://content.foodbankcenc.org/about/zipcounty.asp,Salvation Army-New Bern,1402 Rhem Avenue,,New Bern,NC,28560,Hours: Mon-Fri 7:30a-4:30p,Phone: 252-637-2277,Type: FOODPANTRY
webpage/url:http://content.foodbankcenc.org/about/zipcounty.asp|,400,nc-food-pantry-full,nc-food-pantry-full,400,http://content.foodbankcenc.org/about/zipcounty.asp,Salvation Army-Raleigh,1863 Capital Blvd,,Raleigh,NC,27604,Hours: Tuesday & Thursday 1pm-3pm,Phone: 919-834-6733 ext 218,Type: SHELTER
webpage/url:http://content.foodbankcenc.org/about/zipcounty.asp|,401,nc-food-pantry-full,nc-food-pantry-full,401,http://content.foodbankcenc.org/about/zipcounty.asp,Salvation Army-Rocky Mount,420 Paul Street,,Rocky Mount,NC,27802,Hours: Walk ins Mon-Fri 9am-10:3am and 1pm-2:30pm,Phone: 252-446-4496 ext. 201,Type: FOODPANTRY
webpage/url:http://content.foodbankcenc.org/about/zipcounty.asp|,402,nc-food-pantry-full,nc-food-pantry-full,402,http://content.foodbankcenc.org/about/zipcounty.asp,Salvation Army-Smithfield,306 N. Brightleaf Boulevard,,Smithfield,NC,27577,Hours: Mon-Wed-Fri 9a.m. 4:30p.m.,Phone: 919-934-9102,Type: FOODPANTRY
webpage/url:http://content.foodbankcenc.org/about/zipcounty.asp|,403,nc-food-pantry-full,nc-food-pantry-full,403,http://content.foodbankcenc.org/about/zipcounty.asp,Salvation Army-Wilmington,820 N. 2nd Street,,Wilmington,NC,28401,Hours: Pantry Thur & Fri 9-11 Shelter 24/7 Soup Kitchen Mon-Sun 6-6:30,Phone: 910-762-7354,Type: SOUP KITCH
webpage/url:http://content.foodbankcenc.org/about/zipcounty.asp|,404,nc-food-pantry-full,nc-food-pantry-full,404,http://content.foodbankcenc.org/about/zipcounty.asp,Samaritans Shelf West Clayton Church of God,143 Short Johnson Road,,Clayton,NC,27520,Hours: 3rd Saturday 9:30am-11:30am and by emergency,Phone: 919-207-1864,Type: FOODPANTRY
webpage/url:http://content.foodbankcenc.org/about/zipcounty.asp|,405,nc-food-pantry-full,nc-food-pantry-full,405,http://content.foodbankcenc.org/about/zipcounty.asp,Sandhills - Moore Coalition for Human Care Inc.,1500 West Indiana Ave,,Southern Pines,NC,28387,Hours: Monday - Friday 8:30 a.m. - 11:00 a.m. served every 3 months,Phone: 910-693-1600 office,Type: FOODPANTRY
webpage/url:http://content.foodbankcenc.org/about/zipcounty.asp|,406,nc-food-pantry-full,nc-food-pantry-full,406,http://content.foodbankcenc.org/about/zipcounty.asp,Second Chance Mission Of Hope,309 Court Street,,Jacksonville,NC,28540,Hours: Tuesdays,Phone: 910-300-7085,Type: SHELTER
webpage/url:http://content.foodbankcenc.org/about/zipcounty.asp|,407,nc-food-pantry-full,nc-food-pantry-full,407,http://content.foodbankcenc.org/about/zipcounty.asp,Seed Time&Harvest Fellowship,804 Berwyn Avenue,,Durham,NC,27704,Hours: Every Thursday at 11:30 by Appointment,Phone: 919-220-2896,Type: FOODPANTRY
webpage/url:http://content.foodbankcenc.org/about/zipcounty.asp|,408,nc-food-pantry-full,nc-food-pantry-full,408,http://content.foodbankcenc.org/about/zipcounty.asp,Shepherds Table Soup Kitchen,121 Hillsborough Street,,Raleigh,NC,27603,Hours: Mon-Fri 11a.m.-12p.m.,Phone: 919-831-2010,Type: SOUP KITCH
webpage/url:http://content.foodbankcenc.org/about/zipcounty.asp|,409,nc-food-pantry-full,nc-food-pantry-full,409,http://content.foodbankcenc.org/about/zipcounty.asp,Shiloh Baptist Church,635 College Street,,Henderson,NC,27536,Hours: 4th Saturday at 9am; and as needed; Thursdays deliver bags,Phone: 252-438-8987,Type: FOODPANTRY
webpage/url:http://content.foodbankcenc.org/about/zipcounty.asp|,410,nc-food-pantry-full,nc-food-pantry-full,410,http://content.foodbankcenc.org/about/zipcounty.asp,Shiloh Pentecostal Holiness Church,5843 Shiloh Church Road,,Wilson,NC,27896,Hours: 1st Saturday Monthly and DSS referrals mostly,Phone: 252-289-0083,Type: FOODPANTRY
webpage/url:http://content.foodbankcenc.org/about/zipcounty.asp|,411,nc-food-pantry-full,nc-food-pantry-full,411,http://content.foodbankcenc.org/about/zipcounty.asp,Shoreline Baptist Church,4198 Vanessa Dr,,Southport,NC,28461,Hours: Mondays 3-5pm (closed federal holidays),Phone: 910-457-1909,Type: FOODPANTRY
webpage/url:http://content.foodbankcenc.org/about/zipcounty.asp|,412,nc-food-pantry-full,nc-food-pantry-full,412,http://content.foodbankcenc.org/about/zipcounty.asp,Showers of Blessing Community,10 Technology Drive,,Garner,NC,,Hours: Every Thursdays 7:30pm-8:30pmpm,Phone: 919-779-7750,Type: FOODPANTRY
webpage/url:http://content.foodbankcenc.org/about/zipcounty.asp|,413,nc-food-pantry-full,nc-food-pantry-full,413,http://content.foodbankcenc.org/about/zipcounty.asp,Sierra Christian Center,158 Sierra Ave.,,Hamlet,NC,28345,Hours: every Thursday 10:30-noon,Phone: 910-582-1740 ext. 23 church,Type: FOODPANTRY
webpage/url:http://content.foodbankcenc.org/about/zipcounty.asp|,414,nc-food-pantry-full,nc-food-pantry-full,414,http://content.foodbankcenc.org/about/zipcounty.asp,Silltrist Solutions,200 S. Pollock Street Ste C,,Selma,NC,27576,Hours: Tuesdays 9am-11am Thursdays 3pm-6pm,Phone: 919-610-1450,Type: FOODPANTRY
webpage/url:http://content.foodbankcenc.org/about/zipcounty.asp|,415,nc-food-pantry-full,nc-food-pantry-full,415,http://content.foodbankcenc.org/about/zipcounty.asp,Smart Choice Outreach Incorporation,110 Candlebush Lane,,Bunnlevel,NC,28323,Hours: Every Wed 10:00-12:00pm,Phone: 910-893-6765,Type: FOODPANTRY
webpage/url:http://content.foodbankcenc.org/about/zipcounty.asp|,416,nc-food-pantry-full,nc-food-pantry-full,416,http://content.foodbankcenc.org/about/zipcounty.asp,Smithfield Area Ministries Food Closet,140 East Market Street,,Smithfield,NC,27577,Hours: Mon-Thur 9:30am-12pm and 2pm-4:30pm. Fridays 9:30am-12pm,Phone: 919-934-2218,Type: FOODPANTRY
webpage/url:http://content.foodbankcenc.org/about/zipcounty.asp|,417,nc-food-pantry-full,nc-food-pantry-full,417,http://content.foodbankcenc.org/about/zipcounty.asp,Smithfield Rescue Mission,523 Glenn St,,Smithfield,NC,27577,Hours: Thursdays 10am-3pm,Phone: 919-934-9257,Type: SHELTER
webpage/url:http://content.foodbankcenc.org/about/zipcounty.asp|,418,nc-food-pantry-full,nc-food-pantry-full,418,http://content.foodbankcenc.org/about/zipcounty.asp,Sneads Ferry Presbyterian,776 Hwy. 210,,Snead's Ferry,NC,28460,Hours: Monday Tuesday and Friday from 9a-12p and Sunday from 8a-12p,Phone: 910-650-7422,Type: FOODPANTRY
webpage/url:http://content.foodbankcenc.org/about/zipcounty.asp|,419,nc-food-pantry-full,nc-food-pantry-full,419,http://content.foodbankcenc.org/about/zipcounty.asp,Sonrise Independent Baptist,8375 River Road,,Southport,NC,28461,Hours: 2nd and 4th Thursday 4pm-6pm,Phone: 910-448-0069 cell,Type: FOODPANTRY
webpage/url:http://content.foodbankcenc.org/about/zipcounty.asp|,420,nc-food-pantry-full,nc-food-pantry-full,420,http://content.foodbankcenc.org/about/zipcounty.asp,South Brunswick Inter-Church Council,4807 Main Street,,Shallotte,NC,28459,Hours: Sat/10a.m.-12p.m.,Phone: 910-579-4684 (H),Type: FOODPANTRY
webpage/url:http://content.foodbankcenc.org/about/zipcounty.asp|,421,nc-food-pantry-full,nc-food-pantry-full,421,http://content.foodbankcenc.org/about/zipcounty.asp,South Greenville Church of Christ,1301 Cotanche Street,,Greenville,NC,27858,Hours: Saturdays from 11a-3p on as needed basis,Phone: 252-754-2222,Type: FOODPANTRY
webpage/url:http://content.foodbankcenc.org/about/zipcounty.asp|,422,nc-food-pantry-full,nc-food-pantry-full,422,http://content.foodbankcenc.org/about/zipcounty.asp,Southeastern Church of God,200 W. Lewis St.,,Tabor City,NC,28463,Hours: Wednesday 1:00-4:00,Phone: 910-918-4803,Type: FOODPANTRY
webpage/url:http://content.foodbankcenc.org/about/zipcounty.asp|,423,nc-food-pantry-full,nc-food-pantry-full,423,http://content.foodbankcenc.org/about/zipcounty.asp,Southern Mission Ministries,267 Blues Bridge Rd,,Hoffman,NC,28347,Hours: Sat. 2-4pm,Phone: 910-281-5957,Type: FOODPANTRY
webpage/url:http://content.foodbankcenc.org/about/zipcounty.asp|,424,nc-food-pantry-full,nc-food-pantry-full,424,http://content.foodbankcenc.org/about/zipcounty.asp,Southern Pines UMC,175 Midland Road,,Southern Pines,NC,28387,Hours: every Monday 10-noon effective Feb. 4th,Phone: 910-692-3917 Rex (home),Type: FOODPANTRY
webpage/url:http://content.foodbankcenc.org/about/zipcounty.asp|,425,nc-food-pantry-full,nc-food-pantry-full,425,http://content.foodbankcenc.org/about/zipcounty.asp,Southside Baptist Church,151 Helflin Road,,Aberdeen,NC,28315,Hours: Monday-Friday 8-5pm Emergency Food Assistance by appointment,Phone: 910-281-3333 butler,Type: FOODPANTRY
webpage/url:http://content.foodbankcenc.org/about/zipcounty.asp|,426,nc-food-pantry-full,nc-food-pantry-full,426,http://content.foodbankcenc.org/about/zipcounty.asp,Spring Hill Baptist,24220 Main Street,,Wagram,NC,28396,Hours: Tuesdays 4:30pm-5:30pm,Phone: 910.506-2800,Type: FOODPANTRY
webpage/url:http://content.foodbankcenc.org/about/zipcounty.asp|,427,nc-food-pantry-full,nc-food-pantry-full,427,http://content.foodbankcenc.org/about/zipcounty.asp,St Joseph Parish Outreach,1303 Hwy 117 South,,Burgaw,NC,28425,Hours: Thursdays 2-4pm,Phone: 910-285-5041,Type: FOODPANTRY
webpage/url:http://content.foodbankcenc.org/about/zipcounty.asp|,428,nc-food-pantry-full,nc-food-pantry-full,428,http://content.foodbankcenc.org/about/zipcounty.asp,St. Andrews Chrisitan Church,322 Rollingwood Drive,,Dudley,NC,27883,Hours: 4th Sat. 1pm-2pm and by emergency,Phone: 919-736-4928,Type: FOODPANTRY
webpage/url:http://content.foodbankcenc.org/about/zipcounty.asp|,429,nc-food-pantry-full,nc-food-pantry-full,429,http://content.foodbankcenc.org/about/zipcounty.asp,St. Andrews Lutheran Church,1605 Neuse Blvd,,New Bern,NC,28560,Hours: every Saturday 5:30P-6:30P,Phone: 252-637-3696,Type: SOUP KITCH
webpage/url:http://content.foodbankcenc.org/about/zipcounty.asp|,430,nc-food-pantry-full,nc-food-pantry-full,430,http://content.foodbankcenc.org/about/zipcounty.asp,ST. ANN CATHOLIC CHURCH,4057 HWY 70 Bus.,,Clayton,NC,27520,Hours: Fridays 9:30 am - 12:00 pm,Phone: 919-934-2084,Type: FOODPANTRY
webpage/url:http://content.foodbankcenc.org/about/zipcounty.asp|,431,nc-food-pantry-full,nc-food-pantry-full,431,http://content.foodbankcenc.org/about/zipcounty.asp,St. Anna Freewill Baptist Church Harvest Ministry,11705 Old Stage Road,,Willow Springs,NC,27592,Hours: 3rd Tues 2p-5p & Wed 6p-7p,Phone: 919-552-1107-church,Type: FOODPANTRY
webpage/url:http://content.foodbankcenc.org/about/zipcounty.asp|,432,nc-food-pantry-full,nc-food-pantry-full,432,http://content.foodbankcenc.org/about/zipcounty.asp,St. Anthonys We Care,175 E Connecticut Ave,,Southern Pines,NC,28387,Hours: Monday 1-4 Tues.-Friday 9-4pm,Phone: 910-692-6613 office,Type: FOODPANTRY
webpage/url:http://content.foodbankcenc.org/about/zipcounty.asp|,433,nc-food-pantry-full,nc-food-pantry-full,433,http://content.foodbankcenc.org/about/zipcounty.asp,St. Brendans Church,5101 Ocean Hwy W.,,Shallotte,NC,28470,Hours: M/W/F 10-12,Phone: 910-754-9036,Type: FOODPANTRY
webpage/url:http://content.foodbankcenc.org/about/zipcounty.asp|,434,nc-food-pantry-full,nc-food-pantry-full,434,http://content.foodbankcenc.org/about/zipcounty.asp,St. James Missionary Baptist Church,527 E Thomas St.,,Rocky Mount,NC,27801,Hours: 3rd Wed 9am-10:30am,Phone: 252-442-2318,Type: FOODPANTRY
webpage/url:http://content.foodbankcenc.org/about/zipcounty.asp|,435,nc-food-pantry-full,nc-food-pantry-full,435,http://content.foodbankcenc.org/about/zipcounty.asp,St. James Missionary Baptist FEEDS Program,3005 Old Oxford Road Hwy. 158,,Henderson,NC,27536,Hours: Saturdays 11am-1pm,Phone: 252-492-8500,Type: FOODPANTRY
webpage/url:http://content.foodbankcenc.org/about/zipcounty.asp|,436,nc-food-pantry-full,nc-food-pantry-full,436,http://content.foodbankcenc.org/about/zipcounty.asp,St. Judes Metropolitan Church,19 N. 26th St.,,Wilmington,NC,28405,Hours: Tuesdays 9-12 and appointments,Phone: 910-762-5833,Type: FOODPANTRY
webpage/url:http://content.foodbankcenc.org/about/zipcounty.asp|,437,nc-food-pantry-full,nc-food-pantry-full,437,http://content.foodbankcenc.org/about/zipcounty.asp,St. Julia Catholic Church,210 Harold Hart Road,,Siler City,NC,27344,Hours: 2nd Saturday 9am; 4th Tuesday 11am (DD); 3rd Tuesday11:30 Am (at 126 Village Lake Rd (DD)),Phone: 919-742-5584 church,Type: FOODPANTRY
webpage/url:http://content.foodbankcenc.org/about/zipcounty.asp|,438,nc-food-pantry-full,nc-food-pantry-full,438,http://content.foodbankcenc.org/about/zipcounty.asp,St. Luke United Methodist,1501 Turnpike Road,,Laurinburg,NC,28352,Hours: 2nd Saturday 8:30-9:30am Wed. 1-3pm,Phone: 910-276-6821 church,Type: FOODPANTRY
webpage/url:http://content.foodbankcenc.org/about/zipcounty.asp|,439,nc-food-pantry-full,nc-food-pantry-full,439,http://content.foodbankcenc.org/about/zipcounty.asp,St. Mark Church of Christ,700 West Ash Street,,Goldsboro,NC,27533,Hours: 2 Fridays per month 10:00am-1:00pm,Phone: 919-738-8215,Type: FOODPANTRY
webpage/url:http://content.foodbankcenc.org/about/zipcounty.asp|,440,nc-food-pantry-full,nc-food-pantry-full,440,http://content.foodbankcenc.org/about/zipcounty.asp,St. Mary A.M.E. Church,600 S Salem St.,,Apex,NC,27502,Hours: Tues Wed Fri 10:00 am - 11:00 am,Phone: 919-306-2471,Type: FOODPANTRY
webpage/url:http://content.foodbankcenc.org/about/zipcounty.asp|,441,nc-food-pantry-full,nc-food-pantry-full,441,http://content.foodbankcenc.org/about/zipcounty.asp,St. Mary Missionary Baptist,6401 Ocean Hwy East,PO box 97,Winnabow,NC,28479,Hours: First and 3rd Saturday 11am-1pm (Target open date is May 3rd. 2014),Phone: (910) 448- 0159,Type: FOODPANTRY
webpage/url:http://content.foodbankcenc.org/about/zipcounty.asp|,442,nc-food-pantry-full,nc-food-pantry-full,442,http://content.foodbankcenc.org/about/zipcounty.asp,St. Paul Church of Christ/ Guardian Angel Outreach,4009 Lake Wilson Rd.,,Wilson,NC,27896,Hours: 2nd Friday and emergency calls during the week,Phone: 252-291-5875,Type: FOODPANTRY
webpage/url:http://content.foodbankcenc.org/about/zipcounty.asp|,443,nc-food-pantry-full,nc-food-pantry-full,443,http://content.foodbankcenc.org/about/zipcounty.asp,St. Paul Missionary Baptist Church,1151 Winstead Avenue,,Rocky Mount,NC,27804,Hours: 4th Saturday from 8:30-11am,Phone: 252-904-0713,Type: FOODPANTRY
webpage/url:http://content.foodbankcenc.org/about/zipcounty.asp|,444,nc-food-pantry-full,nc-food-pantry-full,444,http://content.foodbankcenc.org/about/zipcounty.asp,St. Paul's Episcopal Church,401 East Fourth Street,,Greenville,NC,27858,Hours: Thursdays fromm 1p-3p,Phone: 252-752-3482,Type: FOODPANTRY
webpage/url:http://content.foodbankcenc.org/about/zipcounty.asp|,445,nc-food-pantry-full,nc-food-pantry-full,445,http://content.foodbankcenc.org/about/zipcounty.asp,St. Pauls Lutheran,311 Marlboro st.,,Hamlet,NC,28345,Hours: 3rd Saturday 9-12 (starts in July) 3rd Sun 1-2pm Emergency Asst.,Phone: 910-582-0729 church,Type: FOODPANTRY
webpage/url:http://content.foodbankcenc.org/about/zipcounty.asp|,446,nc-food-pantry-full,nc-food-pantry-full,446,http://content.foodbankcenc.org/about/zipcounty.asp,St. Peter Catholic Church,2700 E. 4th Street,,Greenville,NC,27834,Hours: every other Tues 10a.m.-12p.m. (sharp),Phone: 252-757-3259,Type: FOODPANTRY
webpage/url:http://content.foodbankcenc.org/about/zipcounty.asp|,447,nc-food-pantry-full,nc-food-pantry-full,447,http://content.foodbankcenc.org/about/zipcounty.asp,St. Peter The Fisherman Church,314 S. Carolina Avenue,,Wilmington,NC,28401,Hours: Sunday 7:00am-8:300am,Phone: 910-763-6222 church,Type: SOUP KITCH
webpage/url:http://content.foodbankcenc.org/about/zipcounty.asp|,448,nc-food-pantry-full,nc-food-pantry-full,448,http://content.foodbankcenc.org/about/zipcounty.asp,Stanley Chapel FWB Church,687 Stanley Chapel Church Rd,,Mount Olive,NC,28365,Hours: Wed- Senior Delivery Pantry 3rd Sat of the Month 8am-10am,Phone: 919-658-5854 Katrina,Type: FOODPANTRY
webpage/url:http://content.foodbankcenc.org/about/zipcounty.asp|,449,nc-food-pantry-full,nc-food-pantry-full,449,http://content.foodbankcenc.org/about/zipcounty.asp,Staton Mill Road Community,1251 Fleming School Rd,,Greenville,NC,27834,Hours: 4th Sat from 11:30a-1:30p,Phone: 252-903-7610,Type: FOODPANTRY
webpage/url:http://content.foodbankcenc.org/about/zipcounty.asp|,450,nc-food-pantry-full,nc-food-pantry-full,450,http://content.foodbankcenc.org/about/zipcounty.asp,Step up For Soldiers,2412 Infantry Road,,Wilmington,NC,28405-8889,Hours: call as needed,Phone: 910-297-4981,Type: FOODPANTRY
webpage/url:http://content.foodbankcenc.org/about/zipcounty.asp|,451,nc-food-pantry-full,nc-food-pantry-full,451,http://content.foodbankcenc.org/about/zipcounty.asp,Straightway Temple,3009 Rosinburg Rd.,,Zebulon,NC,27597,Hours: 1st & 3rd Wed 12:00 pm - 2:00 pm,Phone: 919-365-3599,Type: FOODPANTRY
webpage/url:http://content.foodbankcenc.org/about/zipcounty.asp|,452,nc-food-pantry-full,nc-food-pantry-full,452,http://content.foodbankcenc.org/about/zipcounty.asp,Sure Promise Christian Church,4301 Pearl Rd.,,Raleigh,NC,27610,Hours: Saturday 10:00 am- 12:00pm,Phone: 919-758-0843,Type: FOODPANTRY
webpage/url:http://content.foodbankcenc.org/about/zipcounty.asp|,453,nc-food-pantry-full,nc-food-pantry-full,453,http://content.foodbankcenc.org/about/zipcounty.asp,Tabernacle Full Gospel,328 Airport Road,,Rockingham,NC,,Hours: Thursdays 2pm-until,Phone: 910-419-4271,Type: FOODPANTRY
webpage/url:http://content.foodbankcenc.org/about/zipcounty.asp|,454,nc-food-pantry-full,nc-food-pantry-full,454,http://content.foodbankcenc.org/about/zipcounty.asp,Tabernacle of Faith PHC,411 Raleigh Street,,Hamlet,NC,28345,Hours: 2nd and 4th Thurs. 10am Every Thurs. 12pm fresh produce and bakery,Phone: 910-719-8131 Harrington cell,Type: FOODPANTRY
webpage/url:http://content.foodbankcenc.org/about/zipcounty.asp|,455,nc-food-pantry-full,nc-food-pantry-full,455,http://content.foodbankcenc.org/about/zipcounty.asp,Tar River Baptist Association,92 NC 56 Hwy East,,Louisburg,NC,27549,Hours: 3rd Thursday 9am-12pm Sun and Tues Delivery days - clients call Mon-Thur for Delivery,Phone: 919-630-0424,Type: FOODPANTRY
webpage/url:http://content.foodbankcenc.org/about/zipcounty.asp|,456,nc-food-pantry-full,nc-food-pantry-full,456,http://content.foodbankcenc.org/about/zipcounty.asp,Tarboro Community Outreach,701 Cedar Lane,,Tarboro,NC,27886,Hours: Mon-Fri 9a-10:30a,Phone: 252-823-8801,Type: MOBILE FP
webpage/url:http://content.foodbankcenc.org/about/zipcounty.asp|,457,nc-food-pantry-full,nc-food-pantry-full,457,http://content.foodbankcenc.org/about/zipcounty.asp,Teen Central,1701 Walnut Grove Church Road,,Hillsborough,NC,27278,Hours: Delivery To The Community On Wednesday 4pm 1x per Month,Phone: 919-357-1994,Type: FOODPANTRY
webpage/url:http://content.foodbankcenc.org/about/zipcounty.asp|,458,nc-food-pantry-full,nc-food-pantry-full,458,http://content.foodbankcenc.org/about/zipcounty.asp,Temple Baptist Church,1417 Clifton St.,,Raleigh,NC,27604,Hours: 1st & 3rd Sunday 3:00pm - 4:30pm,Phone: 919-810-5305,Type: SOUP KITCH
webpage/url:http://content.foodbankcenc.org/about/zipcounty.asp|,459,nc-food-pantry-full,nc-food-pantry-full,459,http://content.foodbankcenc.org/about/zipcounty.asp,Temple Emmanuel,8 Sycamore Street,,Weldon,NC,27890,Hours: Wed 7pm-8pm Fri 7pm-9pm,Phone: 252-536-2156,Type: FOODPANTRY
webpage/url:http://content.foodbankcenc.org/about/zipcounty.asp|,460,nc-food-pantry-full,nc-food-pantry-full,460,http://content.foodbankcenc.org/about/zipcounty.asp,Temple of Pentecost,2312 Lake Wheeler Rd.,,Raleigh,NC,27603,Hours: Saturday 10:00 a.m. - 1:00 p.m.,Phone: 919-244-4231,Type: FOODPANTRY
webpage/url:http://content.foodbankcenc.org/about/zipcounty.asp|,461,nc-food-pantry-full,nc-food-pantry-full,461,http://content.foodbankcenc.org/about/zipcounty.asp,The Anointed Ones Church,402 Queen Street,,Grifton,NC,28530,Hours: Thurs 10a-12p & 1p-4p & Sat. 8a-11a,Phone: 252-746-2722,Type: FOODPANTRY
webpage/url:http://content.foodbankcenc.org/about/zipcounty.asp|,462,nc-food-pantry-full,nc-food-pantry-full,462,http://content.foodbankcenc.org/about/zipcounty.asp,The Arc of Moore Inc.,673 s. Bennett,,Southern Pines,NC,28387,Hours: Mon-Fri 9a.m.-5p.m (Emergency Basis/As Needed),Phone: 910-692-8272,Type: FOODPANTRY
webpage/url:http://content.foodbankcenc.org/about/zipcounty.asp|,463,nc-food-pantry-full,nc-food-pantry-full,463,http://content.foodbankcenc.org/about/zipcounty.asp,The Chapel of Jesus Christ Perry OBerry,2295 North Horace Walter Rd,,Raeford,NC,28376,Hours: Food Pantry Wednesdays 9-5pm,Phone: 910-875-8167,Type: FOODPANTRY
webpage/url:http://content.foodbankcenc.org/about/zipcounty.asp|,464,nc-food-pantry-full,nc-food-pantry-full,464,http://content.foodbankcenc.org/about/zipcounty.asp,The Glorious Church,725 Glascock Street,,Raleigh,NC,27609,Hours: Monday - Thursday 9:00 am - 1:00 pm Wed & Thursday 5:00 pm - 7:00 pm,Phone: (919) 829-0919,Type: FOODPANTRY
webpage/url:http://content.foodbankcenc.org/about/zipcounty.asp|,465,nc-food-pantry-full,nc-food-pantry-full,465,http://content.foodbankcenc.org/about/zipcounty.asp,The Healing Place of Wake County/Women's Shelter,3304 Glen Royal Rd,,Raleigh,NC,27603,Hours: 24hr facility,Phone: 919-865-2556,Type: SHELTER
webpage/url:http://content.foodbankcenc.org/about/zipcounty.asp|,466,nc-food-pantry-full,nc-food-pantry-full,466,http://content.foodbankcenc.org/about/zipcounty.asp,The Healing Place Wake County,1251 Goode Street,,Raleigh,NC,27603,Hours: 24/7,Phone: 919-838-9800 ext 2540,Type: SHELTER
webpage/url:http://content.foodbankcenc.org/about/zipcounty.asp|,467,nc-food-pantry-full,nc-food-pantry-full,467,http://content.foodbankcenc.org/about/zipcounty.asp,The Jesus House of Prayer,353 Brannon Road,,Bunn,NC,27508,Hours: Every Wednesday 10am-1pm,Phone: 919-453-3572,Type: FOODPANTRY
webpage/url:http://content.foodbankcenc.org/about/zipcounty.asp|,468,nc-food-pantry-full,nc-food-pantry-full,468,http://content.foodbankcenc.org/about/zipcounty.asp,The Light of Life Ministry,1520 Brookside Dr. Unit 5,,Raleigh,NC,27604,Hours: 2nd & 4th Saturday each month 10-1,Phone: 919-280-9911,Type: FOODPANTRY
webpage/url:http://content.foodbankcenc.org/about/zipcounty.asp|,469,nc-food-pantry-full,nc-food-pantry-full,469,http://content.foodbankcenc.org/about/zipcounty.asp,The Lord House Prophetic Ministry,2216 Page Road,,Durham,NC,27707,Hours: 2nd and 4th Saturday 8am-10:30am,Phone: 919-688-2000,Type: FOODPANTRY
webpage/url:http://content.foodbankcenc.org/about/zipcounty.asp|,470,nc-food-pantry-full,nc-food-pantry-full,470,http://content.foodbankcenc.org/about/zipcounty.asp,The Original Tabernacle of Prayer For All People,1005 S. John St.,,Goldsboro,NC,27530,Hours: Tuesday Thursday 11 a.m.-2 p.m. FP (as needed),Phone: 919-734-7128,Type: SOUP KITCH
webpage/url:http://content.foodbankcenc.org/about/zipcounty.asp|,471,nc-food-pantry-full,nc-food-pantry-full,471,http://content.foodbankcenc.org/about/zipcounty.asp,The Point Church of The Triangle,1503 Walnut St.,,Cary,NC,27511,Hours: Saturday 11:00 am - 12:00 pm,Phone: 919-522-2766,Type: FOODPANTRY
webpage/url:http://content.foodbankcenc.org/about/zipcounty.asp|,472,nc-food-pantry-full,nc-food-pantry-full,472,http://content.foodbankcenc.org/about/zipcounty.asp,The Potter's House,107 North Lee Street,,Benson,NC,27504,Hours: Every Wed 6pm-7pm,Phone: 919-894-5222,Type: FOODPANTRY
webpage/url:http://content.foodbankcenc.org/about/zipcounty.asp|,473,nc-food-pantry-full,nc-food-pantry-full,473,http://content.foodbankcenc.org/about/zipcounty.asp,The Power of Praise Tabernacle of Deliverance Ministries Inc,1100 S Market St.,,Benson,NC,27504,Hours: As Needed,Phone: 919-894-7349,Type: FOODPANTRY
webpage/url:http://content.foodbankcenc.org/about/zipcounty.asp|,474,nc-food-pantry-full,nc-food-pantry-full,474,http://content.foodbankcenc.org/about/zipcounty.asp,The Rising Sun Church of Christ,2021 US 401 South,,Lillington,NC,27546-6817,Hours: Every 3rd Thursday 11:30am-1pm,Phone: 919.552.8596,Type: FOODPANTRY
webpage/url:http://content.foodbankcenc.org/about/zipcounty.asp|,475,nc-food-pantry-full,nc-food-pantry-full,475,http://content.foodbankcenc.org/about/zipcounty.asp,The Rock of Wilmington,3233 Burnt Mill Dr. Suite 1,,Wilmington,NC,28403,Hours: Thurs 3 pm until food runs out.,Phone: 910-602-5300 church,Type: FOODPANTRY
webpage/url:http://content.foodbankcenc.org/about/zipcounty.asp|,476,nc-food-pantry-full,nc-food-pantry-full,476,http://content.foodbankcenc.org/about/zipcounty.asp,The Stone Chapel,701 South Main St.,,Wake Forest,NC,27587,Hours: Thursday 3:00 pm - 4:00 pm,Phone: 919-880-7817,Type: FOODPANTRY
webpage/url:http://content.foodbankcenc.org/about/zipcounty.asp|,477,nc-food-pantry-full,nc-food-pantry-full,477,http://content.foodbankcenc.org/about/zipcounty.asp,The Way of the Cross Outreach,64 Craigmont Avenue,,Roanoke Rapids,NC,27870,Hours: Every 3rd Saturday from 8a-10a and emergency calls to church,Phone: 252-535-1276,Type: FOODPANTRY
webpage/url:http://content.foodbankcenc.org/about/zipcounty.asp|,478,nc-food-pantry-full,nc-food-pantry-full,478,http://content.foodbankcenc.org/about/zipcounty.asp,The Word Became Flesh Ministries,1401 Goldsboro Street,,Wilson,NC,27894,Hours: Every 2nd Tuesday 9am-10am,Phone: 252.245.2126,Type: FOODPANTRY
webpage/url:http://content.foodbankcenc.org/about/zipcounty.asp|,479,nc-food-pantry-full,nc-food-pantry-full,479,http://content.foodbankcenc.org/about/zipcounty.asp,Tileston Outreach,412 Ann Street,,Wilmington,NC,28401,Hours: Mon-Thurs 9 a.m.-11:30 a.m.,Phone: 910-762-5491 ext. 135,Type: FOODPANTRY
webpage/url:http://content.foodbankcenc.org/about/zipcounty.asp|,480,nc-food-pantry-full,nc-food-pantry-full,480,http://content.foodbankcenc.org/about/zipcounty.asp,TMO Foundation Inc.,200 N. 13th Street Suite 19,,Erwin,NC,28339,Hours: Tues & Thurs 9am-5pm depending on inventory,Phone: 919.672.4091,Type: FOODPANTRY
webpage/url:http://content.foodbankcenc.org/about/zipcounty.asp|,481,nc-food-pantry-full,nc-food-pantry-full,481,http://content.foodbankcenc.org/about/zipcounty.asp,Triangle Vineyard Christian Fellowship,3915 Western Blvd.,,Raleigh,NC,27606,Hours: 1st and 3rd Sat 9-10:30 a.m.,Phone: 919-233-8463,Type: FOODPANTRY
webpage/url:http://content.foodbankcenc.org/about/zipcounty.asp|,482,nc-food-pantry-full,nc-food-pantry-full,482,http://content.foodbankcenc.org/about/zipcounty.asp,Trinity Missionary Baptist,883 Holden Beach Road,,Shallotte,NC,28470,Hours: 2nd & 4th Tuesday 10-11:00 a.m,Phone: 910 754 4018,Type: FOODPANTRY
webpage/url:http://content.foodbankcenc.org/about/zipcounty.asp|,483,nc-food-pantry-full,nc-food-pantry-full,483,http://content.foodbankcenc.org/about/zipcounty.asp,Trinity United Faith Center Church Inc.,110 S. State Street,,Raleigh,NC,27601,Hours: 4th tues 4:30 pm - 6pm,Phone: 919-834-2332,Type: SOUP KITCH
webpage/url:http://content.foodbankcenc.org/about/zipcounty.asp|,484,nc-food-pantry-full,nc-food-pantry-full,484,http://content.foodbankcenc.org/about/zipcounty.asp,Truth Foundational Ministries,409 W Burnett St,,Pinetops,NC,27864,Hours: 1st and 3rd Thursday from 9a-12p,Phone: 252-827-2312,Type: FOODPANTRY
webpage/url:http://content.foodbankcenc.org/about/zipcounty.asp|,485,nc-food-pantry-full,nc-food-pantry-full,485,http://content.foodbankcenc.org/about/zipcounty.asp,Twilight Missionary Baptist,1781 Aurelian Springs Road,,Weldon,NC,27839,Hours: Tues Wed and Thur 10am-1pm,Phone: 252-536-2412 church,Type: FOODPANTRY
webpage/url:http://content.foodbankcenc.org/about/zipcounty.asp|,486,nc-food-pantry-full,nc-food-pantry-full,486,http://content.foodbankcenc.org/about/zipcounty.asp,UMOJA Central SDA Church,314 Bashford Rd,,Raleigh,NC,27606,Hours: Fridays 5:00 pm - 6:00 pm,Phone: 919-931-7877,Type: FOODPANTRY
webpage/url:http://content.foodbankcenc.org/about/zipcounty.asp|,487,nc-food-pantry-full,nc-food-pantry-full,487,http://content.foodbankcenc.org/about/zipcounty.asp,Undenominational Pentcostal,801 U.S. 70 East,,New Bern,NC,28560,Hours:,Phone: 252-633-1580,Type: FOODPANTRY
webpage/url:http://content.foodbankcenc.org/about/zipcounty.asp|,488,nc-food-pantry-full,nc-food-pantry-full,488,http://content.foodbankcenc.org/about/zipcounty.asp,Union Mission Inc.,1310 Roanoke Avenue,,Roanoke Rapids,NC,27870,Hours: Monday - Friday from 9:00 a.m. - 4:30 p.m.,Phone: 252-537-3372 ext 28,Type: SHELTER
webpage/url:http://content.foodbankcenc.org/about/zipcounty.asp|,489,nc-food-pantry-full,nc-food-pantry-full,489,http://content.foodbankcenc.org/about/zipcounty.asp,Union Missionary Baptist Church,2711 Princess Place Dr,,Wilmington,NC,28405,Hours: Fridays,Phone: 910-833-8803,Type: FOODPANTRY
webpage/url:http://content.foodbankcenc.org/about/zipcounty.asp|,490,nc-food-pantry-full,nc-food-pantry-full,490,http://content.foodbankcenc.org/about/zipcounty.asp,Unionville Missionary Baptist Church,19400 Blakley Rd.,,Laurinburg,NC,28352,Hours: Every Wednesday 6:00pm-8:30pm,Phone: 910-369-2467 home,Type: FOODPANTRY
webpage/url:http://content.foodbankcenc.org/about/zipcounty.asp|,491,nc-food-pantry-full,nc-food-pantry-full,491,http://content.foodbankcenc.org/about/zipcounty.asp,United Community Ministries,341 McDonald Street,,Rocky Mount,NC,27802,Hours: Monday Wednsday Friday 1pm-5pm,Phone: 252-985-1650,Type: SHELTER
webpage/url:http://content.foodbankcenc.org/about/zipcounty.asp|,492,nc-food-pantry-full,nc-food-pantry-full,492,http://content.foodbankcenc.org/about/zipcounty.asp,Unity Ministry,616 Broad Street,,New Bern,NC,28560,Hours: M & Th 5p-6p,Phone: 252-670-0408,Type: SOUP KITCH
webpage/url:http://content.foodbankcenc.org/about/zipcounty.asp|,493,nc-food-pantry-full,nc-food-pantry-full,493,http://content.foodbankcenc.org/about/zipcounty.asp,Universal Church of Prayer and Deliverance Inc.,4913 Universal Drive,,Wake Forest,NC,27591,Hours: Tue & Thur 11 am - 12 pm 3rd Thur 6pm -7pm,Phone: 919-327-7702,Type: SOUP KITCH
webpage/url:http://content.foodbankcenc.org/about/zipcounty.asp|,494,nc-food-pantry-full,nc-food-pantry-full,494,http://content.foodbankcenc.org/about/zipcounty.asp,Upper Room Church of God in Christ,3300 Idlewood Village Drive,,Raleigh,NC,27610,Hours: 2nd & 4th Thurs 6:00 pm 9:30 pm 2nd Sat 9am-12pm,Phone: 919-829-6160(church),Type: FOODPANTRY
webpage/url:http://content.foodbankcenc.org/about/zipcounty.asp|,495,nc-food-pantry-full,nc-food-pantry-full,495,http://content.foodbankcenc.org/about/zipcounty.asp,Urban Ministries of Durham -- Food Pantry,410 Liberty Street,,Durham,NC,27701,Hours: Mon - Fri 9:00am - 1:00pm,Phone: 919-682-0538 ext. 124,Type: SOUP KITCH
webpage/url:http://content.foodbankcenc.org/about/zipcounty.asp|,496,nc-food-pantry-full,nc-food-pantry-full,496,http://content.foodbankcenc.org/about/zipcounty.asp,Valour Ministries of Grace Inc.,414 Southern Blvd.,,Wilmington,NC,28412,Hours: Tues 5-7:00 p.m. Sat 2-4:00 p.m.,Phone: 910-409-1021,Type: FOODPANTRY
webpage/url:http://content.foodbankcenc.org/about/zipcounty.asp|,497,nc-food-pantry-full,nc-food-pantry-full,497,http://content.foodbankcenc.org/about/zipcounty.asp,Vanceboro Christian Help Cente,411 White Street,,Vanceboro,NC,28586,Hours: Every Monday Wednesday & Friday from 8a-12p,Phone: 252-244-1141,Type: FOODPANTRY
webpage/url:http://content.foodbankcenc.org/about/zipcounty.asp|,498,nc-food-pantry-full,nc-food-pantry-full,498,http://content.foodbankcenc.org/about/zipcounty.asp,Vanceboro United Methodist,560 Farm Life Avenue,,Vanceboro,NC,28586,Hours: as needed weekly,Phone: 252-229-6592,Type: FOODPANTRY
webpage/url:http://content.foodbankcenc.org/about/zipcounty.asp|,499,nc-food-pantry-full,nc-food-pantry-full,499,http://content.foodbankcenc.org/about/zipcounty.asp,Victorious Life Empowerment,3329 Chapel Hill BLVD STE 100,,Durham,NC,27707,Hours: 1st and 2nd Tuesday 12-3,Phone: 919-886-8015,Type: FOODPANTRY
webpage/url:http://content.foodbankcenc.org/about/zipcounty.asp|,500,nc-food-pantry-full,nc-food-pantry-full,500,http://content.foodbankcenc.org/about/zipcounty.asp,Victorious Praise Fellowship Church,2116 Page Road,,Durham,NC,27703,Hours: Wednesdays 10am-2pm; 3rd Saturday/month at MacDougal Terrace Holloway St and/or Hoover Rd.,Phone: 919-672-3242 Everette,Type: FOODPANTRY
webpage/url:http://content.foodbankcenc.org/about/zipcounty.asp|,501,nc-food-pantry-full,nc-food-pantry-full,501,http://content.foodbankcenc.org/about/zipcounty.asp,Victory & Dominion World,1438 Hwy 13/ 258 North,,Snow Hill,NC,28580,Hours: 1st and 3rd Tuesday from 1p-4p,Phone: 252-367-6527,Type: FOODPANTRY
webpage/url:http://content.foodbankcenc.org/about/zipcounty.asp|,502,nc-food-pantry-full,nc-food-pantry-full,502,http://content.foodbankcenc.org/about/zipcounty.asp,Victory Deliverance Church of God in Christ,169 5th Street,,Hamlet,NC,28345,Hours: Every 2nd and 4th Thursday 10:30am-until,Phone: 910-268-4418,Type: FOODPANTRY
webpage/url:http://content.foodbankcenc.org/about/zipcounty.asp|,503,nc-food-pantry-full,nc-food-pantry-full,503,http://content.foodbankcenc.org/about/zipcounty.asp,Victory Independent Baptist Church,516 Varnamtown Rd.,,Supply,NC,28462,Hours: Wednesday 11-1pm (3rd Wed. regular distribution/other Wednesdays - complimentary items only),Phone: 910-471-6935 church,Type: FOODPANTRY
webpage/url:http://content.foodbankcenc.org/about/zipcounty.asp|,504,nc-food-pantry-full,nc-food-pantry-full,504,http://content.foodbankcenc.org/about/zipcounty.asp,Wake Technical Institute Foundation Inc.,9101 Fayeteville Rd.,,Raleigh,NC,27603,Hours: M: 12-1 T: 4-6 TH: 12-1 F: 10-12,Phone: 919-866-5741,Type: FOODPANTRY
webpage/url:http://content.foodbankcenc.org/about/zipcounty.asp|,505,nc-food-pantry-full,nc-food-pantry-full,505,http://content.foodbankcenc.org/about/zipcounty.asp,Wallace Church of God Food Pantry,1173 Bay Road,,Teachey,NC,28464,Hours: Tues 9a.m.-11a.m. Thurs 9a.m.-11a.m.,Phone: 910-285-2394,Type: FOODPANTRY
webpage/url:http://content.foodbankcenc.org/about/zipcounty.asp|,506,nc-food-pantry-full,nc-food-pantry-full,506,http://content.foodbankcenc.org/about/zipcounty.asp,Warsaw Baptist Church,209 East College Street,,Warsaw,NC,28398,Hours: Monday-Friday 9am-4pm,Phone: 910-293-4236,Type: FOODPANTRY
webpage/url:http://content.foodbankcenc.org/about/zipcounty.asp|,507,nc-food-pantry-full,nc-food-pantry-full,507,http://content.foodbankcenc.org/about/zipcounty.asp,Warsaw United Methodist,107 W Plank St,,Warsaw,NC,28398,Hours: 9am-12pm,Phone: 910-293-4949,Type: FOODPANTRY
webpage/url:http://content.foodbankcenc.org/about/zipcounty.asp|,508,nc-food-pantry-full,nc-food-pantry-full,508,http://content.foodbankcenc.org/about/zipcounty.asp,Wendell United Methodist Church,129 N Main St.,,Wendell,NC,27591,Hours: Tuesdays 5pm -7pm Thursday 9am - 10:30 am last Sat 10am - 12 noon,Phone: 919-365-8040,Type: FOODPANTRY
webpage/url:http://content.foodbankcenc.org/about/zipcounty.asp|,509,nc-food-pantry-full,nc-food-pantry-full,509,http://content.foodbankcenc.org/about/zipcounty.asp,Wesleyan Methodist Church,3119 Brenda Lane,,Spies,NC,27325,Hours: Every 2nd and 4th Sat. 8-10:00am,Phone: 910-947-5884,Type: FOODPANTRY
webpage/url:http://content.foodbankcenc.org/about/zipcounty.asp|,510,nc-food-pantry-full,nc-food-pantry-full,510,http://content.foodbankcenc.org/about/zipcounty.asp,West Chatham Food Pantry,126 Village Lake Road,,Siler City,NC,27344,Hours: M 4:40-6 W F 12:30-2 Each Week,Phone: 919-548-6367,Type: FOODPANTRY
webpage/url:http://content.foodbankcenc.org/about/zipcounty.asp|,511,nc-food-pantry-full,nc-food-pantry-full,511,http://content.foodbankcenc.org/about/zipcounty.asp,West End United Methodist Men,4105 NC Hwy 73,,West End,NC,27376,Hours: every other Wed 8a.m. - 11a.m.,Phone: 910-673-3734 home,Type: FOODPANTRY
webpage/url:http://content.foodbankcenc.org/about/zipcounty.asp|,512,nc-food-pantry-full,nc-food-pantry-full,512,http://content.foodbankcenc.org/about/zipcounty.asp,Western Assembly Church of Christ - Long Branch,1921 Barefoot Road,,Newton Grove,NC,28366,Hours: 2nd Monday each month at 1pm and by emergency,Phone: 919-231-4225,Type: FOODPANTRY
webpage/url:http://content.foodbankcenc.org/about/zipcounty.asp|,513,nc-food-pantry-full,nc-food-pantry-full,513,http://content.foodbankcenc.org/about/zipcounty.asp,Western Wake Crisis Ministry,103 East Chatham Street,,Apex,NC,27502,Hours: M-Th/10a.m.-1p.m (by referral),Phone: 919-362-0657,Type: FOODPANTRY
webpage/url:http://content.foodbankcenc.org/about/zipcounty.asp|,514,nc-food-pantry-full,nc-food-pantry-full,514,http://content.foodbankcenc.org/about/zipcounty.asp,White Oak Ecumenical Outreach Ministries,724 West Corbett Avenue,,Swansboro,NC,28584,Hours: 4th M 7a,Phone: 910-326-1811,Type: FOODPANTRY
webpage/url:http://content.foodbankcenc.org/about/zipcounty.asp|,515,nc-food-pantry-full,nc-food-pantry-full,515,http://content.foodbankcenc.org/about/zipcounty.asp,White Oak Foundation,1621 White Oak Church Rd.,,Apex,NC,27523,Hours: Wednesdy 12pm - 3 pm 2nd & 4th Saturdays 9am-2p.m.,Phone: 919-362-6768,Type: FOODPANTRY
webpage/url:http://content.foodbankcenc.org/about/zipcounty.asp|,516,nc-food-pantry-full,nc-food-pantry-full,516,http://content.foodbankcenc.org/about/zipcounty.asp,Whiteville Community Outreach,315 W. Virquil Street,,Whiteville,NC,28472,Hours: Not decided yet,Phone: 9106424601,Type: FOODPANTRY
webpage/url:http://content.foodbankcenc.org/about/zipcounty.asp|,517,nc-food-pantry-full,nc-food-pantry-full,517,http://content.foodbankcenc.org/about/zipcounty.asp,Wildwood Presbyterian Church Morehead,276 Wildwood Road,,Newport,NC,28570,Hours: T 5p & Th 4p,Phone: 252-726-9118,Type: MOBILE FP
webpage/url:http://content.foodbankcenc.org/about/zipcounty.asp|,518,nc-food-pantry-full,nc-food-pantry-full,518,http://content.foodbankcenc.org/about/zipcounty.asp,Williams Grove Baptist Church,735 Rock Quarry Rd.,,Raleigh,NC,27610,Hours: 2nd & 4th Sat 4:00p-5:00p,Phone: 919-829-1282,Type: FOODPANTRY
webpage/url:http://content.foodbankcenc.org/about/zipcounty.asp|,519,nc-food-pantry-full,nc-food-pantry-full,519,http://content.foodbankcenc.org/about/zipcounty.asp,Wilson County Interfaith/ Hope Station,309 Goldsboro Street East,,Wilson,NC,27893,Hours: MWF 9a-11:30a,Phone: 252-291-7278,Type: FOODPANTRY
webpage/url:http://content.foodbankcenc.org/about/zipcounty.asp|,520,nc-food-pantry-full,nc-food-pantry-full,520,http://content.foodbankcenc.org/about/zipcounty.asp,Wilson Praise & Worship Church,202 Nash Street,,Wilson,NC,27894,Hours: 2nd Saturday 7am-10am,Phone: 252.230.3855 (cell),Type: FOODPANTRY
webpage/url:http://content.foodbankcenc.org/about/zipcounty.asp|,521,nc-food-pantry-full,nc-food-pantry-full,521,http://content.foodbankcenc.org/about/zipcounty.asp,With Love From Jesus Ministry,421 Chapanoke Road,,Raleigh,NC,27603,Hours: Tues/Wed/Fri-Sat -- 10a-12p,Phone: 919-233-8010 x0,Type: FOODPANTRY
webpage/url:http://content.foodbankcenc.org/about/zipcounty.asp|,522,nc-food-pantry-full,nc-food-pantry-full,522,http://content.foodbankcenc.org/about/zipcounty.asp,Womenfolk Unlimited / New Horizons,confidential,,Hamlet,NC,,Hours: 24/7,Phone: 910-997-4840,Type: SHELTER
webpage/url:http://content.foodbankcenc.org/about/zipcounty.asp|,523,nc-food-pantry-full,nc-food-pantry-full,523,http://content.foodbankcenc.org/about/zipcounty.asp,Woodville Baptist Church A.C.T.S.,450 Hwy. 70,,Bettie,NC,28516,Hours: every Thursday from 11a-1p,Phone: 252-726-3992,Type: FOODPANTRY
webpage/url:http://content.foodbankcenc.org/about/zipcounty.asp|,524,nc-food-pantry-full,nc-food-pantry-full,524,http://content.foodbankcenc.org/about/zipcounty.asp,Word Harvest International,1107 Holloway Street,,Durham,NC,27713,Hours: 2nd Saturday 10-12,Phone: 919-923-1369,Type: FOODPANTRY
webpage/url:http://content.foodbankcenc.org/about/zipcounty.asp|,525,nc-food-pantry-full,nc-food-pantry-full,525,http://content.foodbankcenc.org/about/zipcounty.asp,Word of Faith Ministries Food Program,336 Cooper Street,,Kenansville,NC,28349,Hours: Mon and Wed 9a.m.- 12p.m.,Phone: 910-296-1728,Type: FOODPANTRY
webpage/url:http://content.foodbankcenc.org/about/zipcounty.asp|,526,nc-food-pantry-full,nc-food-pantry-full,526,http://content.foodbankcenc.org/about/zipcounty.asp,Word of God Christian Center,3650 Neuse Blvd.,,New Bern,NC,28562,Hours: every Sat from 9a-12p,Phone: 252-638-3474,Type: FOODPANTRY
webpage/url:http://content.foodbankcenc.org/about/zipcounty.asp|,527,nc-food-pantry-full,nc-food-pantry-full,527,http://content.foodbankcenc.org/about/zipcounty.asp,Word of God Fellowship Outreach,3000 Rock Quary Road,,Raleigh,NC,27610,Hours: Thurs 1pm - 2pm and as needed,Phone: 919-834-1141,Type: FOODPANTRY
webpage/url:http://content.foodbankcenc.org/about/zipcounty.asp|,528,nc-food-pantry-full,nc-food-pantry-full,528,http://content.foodbankcenc.org/about/zipcounty.asp,Word of Life Christian Center,704 Franklin Street,,Roxboro,NC,27573,Hours: 2nd Friday each month 8-11am or by appointment,Phone: 336-322-0488 home,Type: FOODPANTRY
webpage/url:http://content.foodbankcenc.org/about/zipcounty.asp|,529,nc-food-pantry-full,nc-food-pantry-full,529,http://content.foodbankcenc.org/about/zipcounty.asp,Word of Life International,1600 Howard Avenue Suite 2,Park Hill Mall,Tarboro,NC,27886,Hours: 4th Thursday at 1p and emergencies,Phone: 252-823-7625,Type: MOBILE FP
webpage/url:http://content.foodbankcenc.org/about/zipcounty.asp|,530,nc-food-pantry-full,nc-food-pantry-full,530,http://content.foodbankcenc.org/about/zipcounty.asp,Word of Truth Christian Center,132 Poplar Street,,Vass,NC,28394,Hours: 3rd Saturday 9:30am Wed. 12-1pm,Phone: 910-783-7616,Type: FOODPANTRY
webpage/url:http://content.foodbankcenc.org/about/zipcounty.asp|,531,nc-food-pantry-full,nc-food-pantry-full,531,http://content.foodbankcenc.org/about/zipcounty.asp,WRAJ Outreach Ministries,604 East Wilson Street,,Elm City,NC,27822,Hours: Tuesdays 11:00 am - 5:00 pm,Phone: 252.668.9519,Type: FOODPANTRY
webpage/url:http://content.foodbankcenc.org/about/zipcounty.asp|,532,nc-food-pantry-full,nc-food-pantry-full,532,http://content.foodbankcenc.org/about/zipcounty.asp,Wrightsboro United Methodist Church,3300 North Kerr Avenue,,Wilmington,NC,28405,Hours: Wed 9am -11am; Thur 5:00-6:00 p.m.,Phone: 910-762-2583,Type: FOODPANTRY
webpage/url:http://content.foodbankcenc.org/about/zipcounty.asp|,533,nc-food-pantry-full,nc-food-pantry-full,533,http://content.foodbankcenc.org/about/zipcounty.asp,You Can Learn Center,552 Green Lake Road,,Rockingham,NC,28379,Hours: Thursdays 11am-1pm,Phone: 919-997-7141 church,Type: SOUP KITCH
webpage/url:http://content.foodbankcenc.org/about/zipcounty.asp|,534,nc-food-pantry-full,nc-food-pantry-full,534,http://content.foodbankcenc.org/about/zipcounty.asp,Young Memorial United Holy Church,1379 Brookston Rd,,Henderson,NC,27537,Hours: DD 1st & 3rd Thurs 9:30am-1:30pm; pantry 2nd & 4th Wed 6-7pm,Phone: 252-492-1610 church,Type: FOODPANTRY
webpage/url:http://content.foodbankcenc.org/about/zipcounty.asp|,535,nc-food-pantry-full,nc-food-pantry-full,535,http://content.foodbankcenc.org/about/zipcounty.asp,Zina Christian Center,3700 Bastion Lane,Suite 104,Raleigh,NC,27604,Hours: Mon-Fri 10a.m.5p.m .by appointment,Phone: 919-954-9190,Type: FOODPANTRY
webpage/url:http://content.foodbankcenc.org/about/zipcounty.asp|,536,nc-food-pantry-full,nc-food-pantry-full,536,http://content.foodbankcenc.org/about/zipcounty.asp,Zion Chapel Senior Food Serv,377 Planters Street,PO Box 217,Ayden,NC,28513,Hours: every 2nd Sat 8a-12p,Phone: 252-746-9337 Sherry,Type: FOODPANTRY